<?xml version="1.0" encoding="UTF-8"?>
<gpx creator="Wikiloc - https://www.wikiloc.com" version="1.1" xmlns="http://www.topografix.com/GPX/1/1" xmlns:xsi="http://www.w3.org/2001/XMLSchema-instance" xsi:schemaLocation="http://www.topografix.com/GPX/1/1 http://www.topografix.com/GPX/1/1/gpx.xsd">
  <metadata>
    <name>Wikiloc - 213. Senderisme en tren: VF Roca de la Creu i Camí equipat del Castell de Segura (Ribes de Freser)</name>
    <author>
      <name>Senderisme en tren</name>
      <link href="https://www.wikiloc.com/wikiloc/user.do?id=438461">
        <text>Senderisme en tren on Wikiloc</text>
      </link>
    </author>
    <link href="https://www.wikiloc.com/via-ferrata-trails/213-senderisme-en-tren-vf-roca-de-la-creu-i-cami-equipat-del-castell-de-segura-ribes-de-freser-46295765">
      <text>213. Senderisme en tren: VF Roca de la Creu i Camí equipat del Castell de Segura (Ribes de Freser) on Wikiloc</text>
    </link>
    <time>2019-03-09T10:15:12Z</time>
  </metadata>
  <trk>
    <name>213. Senderisme en tren: VF Roca de la Creu i Camí equipat del Castell de Segura (Ribes de Freser)</name>
    <cmt>&lt;strong&gt;LA VIA FERRADA&lt;/strong&gt; 
La &lt;b&gt;VF del Roca de la Creu&lt;/b&gt; és la primera via ferrada de la Vall de Ribes. Va ser inaugurada l'any 2017 i fou impulsada pel Consell Comarcal del Ripollès a fi de donar complement a la promoció turística de la comarca tot buscant noves propostes de lleure. 
 
La via s'enfila per un element geològic excepcional, el &lt;b&gt;Granòfir de Ribes&lt;/b&gt;, únic de Catalunya. Les roques que el formen estan a mig camí entre el granit i la roca volcànica i formaven part de la xemeneia d'un volcà de l'època paleozoica (període Ordovicià superior 460-443 MA) i que el plegament pirinenc va fer sortir. L'aflorament, de color rogenc ataronjat, s'estén des de la muntanya de Segura (per on passa la VF), per un sector de la vall de Pardines i per part de la muntanya de Sant Antoni. 
 
La VF s'enfila per les agulles situades sobre Ribes de Freser, al capdamunt d'una de les quals s'hi troba una gran creu metàl·lica que dona nom tan a l'aflorament com a la via ferrada. 
 
El Camí equipat del Castell de Segura dona continuïtat a la La VF. És un itinerari fàcil i poc aeri que ressegueix el llom procedent del Roca de la Creu gràcies a la instal·lació d'un cable. 
 
&lt;strong&gt;DIFICULTAT&lt;/strong&gt; &lt;b&gt;&lt;/b&gt; &lt;u&gt;&lt;/u&gt; 
-Via ferrada Roca de la Creu: 
&lt;u&gt;Dificultat&lt;/u&gt;: K3 
&lt;u&gt;Temps&lt;/u&gt;: 20 min (aprox.) + 1h (via) + 40 min (retorn) 
&lt;u&gt;Desploms&lt;/u&gt;: 3 (curts i molt ben equipats) 
&lt;u&gt;Ponts&lt;/u&gt;: 2 
&lt;u&gt;Ràpels&lt;/u&gt;: 0 
 
-Camí equipat Castell de Segura: 
&lt;u&gt;Dificultat&lt;/u&gt;: K1 
&lt;u&gt;Temps&lt;/u&gt;: (igual VF) 
&lt;u&gt;Ponts&lt;/u&gt;: 1 
&lt;u&gt;Desploms&lt;/u&gt;: 0 
&lt;u&gt;Ràpels&lt;/u&gt;: 0 
 
 &lt;strong&gt;MATERIAL&lt;/strong&gt; 
 Com en tota via ferrada cal anar equipat convenientment, és a dir, cal portar: 
 
- Casc 
- Arnés 
- Baga d'ancoratge 
- Guants (útils) 
- Cintes i mosquetons per a descans 
 
&lt;strong&gt;ORIENTACIÓ&lt;/strong&gt; 
 Fàcil accés des de la part posterior de l'església de Santa Maria. 
Dues opcions de retorn: 
 
1) Nosaltres seguirem després d'acabar el Camí equipat encara uns metres més amunt a fi d'anar a buscar les restes (ruïnes) del castell de Segura per corriol menys fressat. Des d'aquí baixarem fins a la collada de Segura, on marques de color groc (Itinerànnia) ens portaran de nou a Ribes. 
 
2) Variant curta que no passa pel castell ni collada de Segura. Aquesta opció està indicada amb un cartell de fusta i punts blaus. 
 
 &lt;strong&gt;ELS TRENS &lt;/strong&gt; 
L'estació de de Ribes de Freser de Rodalies es troba al sud del nucli urbà i connecta amb el Cremallera de Núria. 
 
Actualment l'estació torna a tenir obert un bar, però no hi compteu massa atès que el servei va i bé sovint. 
 
Així mateix, des de 2020 les taquilles han deixat de tenir venda directa. Tot i que els veïns han protestat de moment no hi ha personal de venda de bitllets. S'hauran de comprar o bé la màquina automàtica o bé dalt del tren. 
 
Podeu consultar aquí els &lt;a href="http://rodalies.gencat.cat/ca/horaris/" rel="nofollow" target="_blank"&gt;HORARIS DE RODALIES DE CATALUNYA&lt;/a&gt;.</cmt>
    <desc>&lt;strong&gt;LA VIA FERRADA&lt;/strong&gt; 
La &lt;b&gt;VF del Roca de la Creu&lt;/b&gt; és la primera via ferrada de la Vall de Ribes. Va ser inaugurada l'any 2017 i fou impulsada pel Consell Comarcal del Ripollès a fi de donar complement a la promoció turística de la comarca tot buscant noves propostes de lleure. 
 
La via s'enfila per un element geològic excepcional, el &lt;b&gt;Granòfir de Ribes&lt;/b&gt;, únic de Catalunya. Les roques que el formen estan a mig camí entre el granit i la roca volcànica i formaven part de la xemeneia d'un volcà de l'època paleozoica (període Ordovicià superior 460-443 MA) i que el plegament pirinenc va fer sortir. L'aflorament, de color rogenc ataronjat, s'estén des de la muntanya de Segura (per on passa la VF), per un sector de la vall de Pardines i per part de la muntanya de Sant Antoni. 
 
La VF s'enfila per les agulles situades sobre Ribes de Freser, al capdamunt d'una de les quals s'hi troba una gran creu metàl·lica que dona nom tan a l'aflorament com a la via ferrada. 
 
El Camí equipat del Castell de Segura dona continuïtat a la La VF. És un itinerari fàcil i poc aeri que ressegueix el llom procedent del Roca de la Creu gràcies a la instal·lació d'un cable. 
 
&lt;strong&gt;DIFICULTAT&lt;/strong&gt; &lt;b&gt;&lt;/b&gt; &lt;u&gt;&lt;/u&gt; 
-Via ferrada Roca de la Creu: 
&lt;u&gt;Dificultat&lt;/u&gt;: K3 
&lt;u&gt;Temps&lt;/u&gt;: 20 min (aprox.) + 1h (via) + 40 min (retorn) 
&lt;u&gt;Desploms&lt;/u&gt;: 3 (curts i molt ben equipats) 
&lt;u&gt;Ponts&lt;/u&gt;: 2 
&lt;u&gt;Ràpels&lt;/u&gt;: 0 
 
-Camí equipat Castell de Segura: 
&lt;u&gt;Dificultat&lt;/u&gt;: K1 
&lt;u&gt;Temps&lt;/u&gt;: (igual VF) 
&lt;u&gt;Ponts&lt;/u&gt;: 1 
&lt;u&gt;Desploms&lt;/u&gt;: 0 
&lt;u&gt;Ràpels&lt;/u&gt;: 0 
 
 &lt;strong&gt;MATERIAL&lt;/strong&gt; 
 Com en tota via ferrada cal anar equipat convenientment, és a dir, cal portar: 
 
- Casc 
- Arnés 
- Baga d'ancoratge 
- Guants (útils) 
- Cintes i mosquetons per a descans 
 
&lt;strong&gt;ORIENTACIÓ&lt;/strong&gt; 
 Fàcil accés des de la part posterior de l'església de Santa Maria. 
Dues opcions de retorn: 
 
1) Nosaltres seguirem després d'acabar el Camí equipat encara uns metres més amunt a fi d'anar a buscar les restes (ruïnes) del castell de Segura per corriol menys fressat. Des d'aquí baixarem fins a la collada de Segura, on marques de color groc (Itinerànnia) ens portaran de nou a Ribes. 
 
2) Variant curta que no passa pel castell ni collada de Segura. Aquesta opció està indicada amb un cartell de fusta i punts blaus. 
 
 &lt;strong&gt;ELS TRENS &lt;/strong&gt; 
L'estació de de Ribes de Freser de Rodalies es troba al sud del nucli urbà i connecta amb el Cremallera de Núria. 
 
Actualment l'estació torna a tenir obert un bar, però no hi compteu massa atès que el servei va i bé sovint. 
 
Així mateix, des de 2020 les taquilles han deixat de tenir venda directa. Tot i que els veïns han protestat de moment no hi ha personal de venda de bitllets. S'hauran de comprar o bé la màquina automàtica o bé dalt del tren. 
 
Podeu consultar aquí els &lt;a href="http://rodalies.gencat.cat/ca/horaris/" rel="nofollow" target="_blank"&gt;HORARIS DE RODALIES DE CATALUNYA&lt;/a&gt;.</desc>
    <trkseg>
      <trkpt lat="42.299360" lon="2.165722">
        <ele>909.422</ele>
        <time>2019-03-09T08:14:12Z</time>
      </trkpt>
      <trkpt lat="42.299376" lon="2.165772">
        <ele>909.662</ele>
        <time>2019-03-09T08:14:32Z</time>
      </trkpt>
      <trkpt lat="42.299409" lon="2.165857">
        <ele>909.308</ele>
        <time>2019-03-09T08:14:37Z</time>
      </trkpt>
      <trkpt lat="42.299425" lon="2.165896">
        <ele>909.008</ele>
        <time>2019-03-09T08:14:41Z</time>
      </trkpt>
      <trkpt lat="42.299531" lon="2.165962">
        <ele>909.186</ele>
        <time>2019-03-09T08:14:43Z</time>
      </trkpt>
      <trkpt lat="42.299656" lon="2.165991">
        <ele>909.798</ele>
        <time>2019-03-09T08:15:00Z</time>
      </trkpt>
      <trkpt lat="42.299745" lon="2.166025">
        <ele>909.784</ele>
        <time>2019-03-09T08:15:08Z</time>
      </trkpt>
      <trkpt lat="42.299780" lon="2.166049">
        <ele>909.531</ele>
        <time>2019-03-09T08:15:11Z</time>
      </trkpt>
      <trkpt lat="42.299858" lon="2.166100">
        <ele>909.437</ele>
        <time>2019-03-09T08:15:13Z</time>
      </trkpt>
      <trkpt lat="42.299934" lon="2.166142">
        <ele>908.769</ele>
        <time>2019-03-09T08:15:24Z</time>
      </trkpt>
      <trkpt lat="42.299977" lon="2.166200">
        <ele>908.578</ele>
        <time>2019-03-09T08:15:27Z</time>
      </trkpt>
      <trkpt lat="42.300018" lon="2.166233">
        <ele>908.377</ele>
        <time>2019-03-09T08:15:29Z</time>
      </trkpt>
      <trkpt lat="42.300070" lon="2.166260">
        <ele>908.296</ele>
        <time>2019-03-09T08:15:31Z</time>
      </trkpt>
      <trkpt lat="42.300139" lon="2.166302">
        <ele>908.031</ele>
        <time>2019-03-09T08:15:34Z</time>
      </trkpt>
      <trkpt lat="42.300178" lon="2.166329">
        <ele>907.224</ele>
        <time>2019-03-09T08:15:41Z</time>
      </trkpt>
      <trkpt lat="42.300221" lon="2.166349">
        <ele>907.108</ele>
        <time>2019-03-09T08:15:43Z</time>
      </trkpt>
      <trkpt lat="42.300252" lon="2.166376">
        <ele>906.813</ele>
        <time>2019-03-09T08:15:46Z</time>
      </trkpt>
      <trkpt lat="42.300385" lon="2.166462">
        <ele>906.515</ele>
        <time>2019-03-09T08:15:58Z</time>
      </trkpt>
      <trkpt lat="42.300471" lon="2.166501">
        <ele>906.061</ele>
        <time>2019-03-09T08:16:08Z</time>
      </trkpt>
      <trkpt lat="42.300536" lon="2.166520">
        <ele>905.848</ele>
        <time>2019-03-09T08:16:11Z</time>
      </trkpt>
      <trkpt lat="42.300563" lon="2.166528">
        <ele>905.734</ele>
        <time>2019-03-09T08:16:13Z</time>
      </trkpt>
      <trkpt lat="42.300597" lon="2.166545">
        <ele>905.756</ele>
        <time>2019-03-09T08:16:15Z</time>
      </trkpt>
      <trkpt lat="42.300636" lon="2.166534">
        <ele>905.725</ele>
        <time>2019-03-09T08:16:17Z</time>
      </trkpt>
      <trkpt lat="42.300814" lon="2.166597">
        <ele>905.824</ele>
        <time>2019-03-09T08:16:28Z</time>
      </trkpt>
      <trkpt lat="42.300967" lon="2.166661">
        <ele>905.621</ele>
        <time>2019-03-09T08:16:39Z</time>
      </trkpt>
      <trkpt lat="42.301028" lon="2.166701">
        <ele>905.541</ele>
        <time>2019-03-09T08:16:44Z</time>
      </trkpt>
      <trkpt lat="42.301056" lon="2.166714">
        <ele>905.505</ele>
        <time>2019-03-09T08:16:46Z</time>
      </trkpt>
      <trkpt lat="42.301186" lon="2.166770">
        <ele>905.408</ele>
        <time>2019-03-09T08:16:55Z</time>
      </trkpt>
      <trkpt lat="42.301350" lon="2.166830">
        <ele>905.166</ele>
        <time>2019-03-09T08:17:06Z</time>
      </trkpt>
      <trkpt lat="42.301513" lon="2.166846">
        <ele>905.068</ele>
        <time>2019-03-09T08:17:17Z</time>
      </trkpt>
      <trkpt lat="42.301653" lon="2.166824">
        <ele>905.094</ele>
        <time>2019-03-09T08:17:27Z</time>
      </trkpt>
      <trkpt lat="42.301714" lon="2.166804">
        <ele>904.911</ele>
        <time>2019-03-09T08:17:33Z</time>
      </trkpt>
      <trkpt lat="42.301746" lon="2.166797">
        <ele>904.937</ele>
        <time>2019-03-09T08:17:36Z</time>
      </trkpt>
      <trkpt lat="42.301922" lon="2.166736">
        <ele>904.989</ele>
        <time>2019-03-09T08:17:49Z</time>
      </trkpt>
      <trkpt lat="42.302058" lon="2.166691">
        <ele>905.148</ele>
        <time>2019-03-09T08:17:58Z</time>
      </trkpt>
      <trkpt lat="42.302173" lon="2.166630">
        <ele>905.147</ele>
        <time>2019-03-09T08:18:05Z</time>
      </trkpt>
      <trkpt lat="42.302204" lon="2.166636">
        <ele>905.228</ele>
        <time>2019-03-09T08:18:07Z</time>
      </trkpt>
      <trkpt lat="42.302232" lon="2.166625">
        <ele>905.389</ele>
        <time>2019-03-09T08:18:09Z</time>
      </trkpt>
      <trkpt lat="42.302262" lon="2.166626">
        <ele>905.317</ele>
        <time>2019-03-09T08:18:11Z</time>
      </trkpt>
      <trkpt lat="42.302293" lon="2.166602">
        <ele>905.408</ele>
        <time>2019-03-09T08:18:13Z</time>
      </trkpt>
      <trkpt lat="42.302403" lon="2.166536">
        <ele>905.386</ele>
        <time>2019-03-09T08:18:22Z</time>
      </trkpt>
      <trkpt lat="42.302477" lon="2.166512">
        <ele>905.368</ele>
        <time>2019-03-09T08:18:24Z</time>
      </trkpt>
      <trkpt lat="42.302577" lon="2.166475">
        <ele>905.024</ele>
        <time>2019-03-09T08:18:35Z</time>
      </trkpt>
      <trkpt lat="42.302613" lon="2.166453">
        <ele>904.921</ele>
        <time>2019-03-09T08:18:37Z</time>
      </trkpt>
      <trkpt lat="42.302676" lon="2.166423">
        <ele>904.727</ele>
        <time>2019-03-09T08:18:40Z</time>
      </trkpt>
      <trkpt lat="42.302721" lon="2.166411">
        <ele>904.619</ele>
        <time>2019-03-09T08:18:42Z</time>
      </trkpt>
      <trkpt lat="42.302762" lon="2.166404">
        <ele>904.678</ele>
        <time>2019-03-09T08:18:44Z</time>
      </trkpt>
      <trkpt lat="42.302811" lon="2.166392">
        <ele>904.657</ele>
        <time>2019-03-09T08:18:46Z</time>
      </trkpt>
      <trkpt lat="42.302882" lon="2.166372">
        <ele>904.692</ele>
        <time>2019-03-09T08:18:50Z</time>
      </trkpt>
      <trkpt lat="42.302915" lon="2.166371">
        <ele>904.673</ele>
        <time>2019-03-09T08:18:52Z</time>
      </trkpt>
      <trkpt lat="42.302967" lon="2.166398">
        <ele>904.620</ele>
        <time>2019-03-09T08:18:54Z</time>
      </trkpt>
      <trkpt lat="42.303086" lon="2.166451">
        <ele>904.208</ele>
        <time>2019-03-09T08:19:05Z</time>
      </trkpt>
      <trkpt lat="42.303179" lon="2.166476">
        <ele>904.143</ele>
        <time>2019-03-09T08:19:08Z</time>
      </trkpt>
      <trkpt lat="42.303275" lon="2.166567">
        <ele>904.465</ele>
        <time>2019-03-09T08:19:18Z</time>
      </trkpt>
      <trkpt lat="42.303356" lon="2.166588">
        <ele>904.651</ele>
        <time>2019-03-09T08:19:24Z</time>
      </trkpt>
      <trkpt lat="42.303499" lon="2.166646">
        <ele>904.778</ele>
        <time>2019-03-09T08:19:37Z</time>
      </trkpt>
      <trkpt lat="42.303620" lon="2.166650">
        <ele>905.124</ele>
        <time>2019-03-09T08:19:44Z</time>
      </trkpt>
      <trkpt lat="42.303771" lon="2.166704">
        <ele>905.436</ele>
        <time>2019-03-09T08:19:56Z</time>
      </trkpt>
      <trkpt lat="42.303882" lon="2.166741">
        <ele>905.315</ele>
        <time>2019-03-09T08:20:02Z</time>
      </trkpt>
      <trkpt lat="42.303925" lon="2.166741">
        <ele>905.274</ele>
        <time>2019-03-09T08:20:04Z</time>
      </trkpt>
      <trkpt lat="42.303954" lon="2.166733">
        <ele>905.399</ele>
        <time>2019-03-09T08:20:08Z</time>
      </trkpt>
      <trkpt lat="42.304046" lon="2.166766">
        <ele>905.307</ele>
        <time>2019-03-09T08:20:10Z</time>
      </trkpt>
      <trkpt lat="42.304113" lon="2.166787">
        <ele>905.427</ele>
        <time>2019-03-09T08:20:12Z</time>
      </trkpt>
      <trkpt lat="42.304332" lon="2.166849">
        <ele>905.708</ele>
        <time>2019-03-09T08:20:23Z</time>
      </trkpt>
      <trkpt lat="42.304439" lon="2.166853">
        <ele>906.113</ele>
        <time>2019-03-09T08:20:37Z</time>
      </trkpt>
      <trkpt lat="42.304507" lon="2.166874">
        <ele>906.295</ele>
        <time>2019-03-09T08:20:40Z</time>
      </trkpt>
      <trkpt lat="42.304557" lon="2.166908">
        <ele>906.571</ele>
        <time>2019-03-09T08:20:46Z</time>
      </trkpt>
      <trkpt lat="42.304601" lon="2.166924">
        <ele>906.678</ele>
        <time>2019-03-09T08:20:50Z</time>
      </trkpt>
      <trkpt lat="42.304675" lon="2.166936">
        <ele>907.294</ele>
        <time>2019-03-09T08:21:08Z</time>
      </trkpt>
      <trkpt lat="42.304729" lon="2.166944">
        <ele>907.276</ele>
        <time>2019-03-09T08:21:10Z</time>
      </trkpt>
      <trkpt lat="42.304826" lon="2.166977">
        <ele>907.225</ele>
        <time>2019-03-09T08:21:12Z</time>
      </trkpt>
      <trkpt lat="42.304877" lon="2.166986">
        <ele>907.124</ele>
        <time>2019-03-09T08:21:18Z</time>
      </trkpt>
      <trkpt lat="42.304973" lon="2.166970">
        <ele>907.211</ele>
        <time>2019-03-09T08:21:23Z</time>
      </trkpt>
      <trkpt lat="42.305052" lon="2.166969">
        <ele>907.221</ele>
        <time>2019-03-09T08:21:25Z</time>
      </trkpt>
      <trkpt lat="42.305144" lon="2.166973">
        <ele>907.303</ele>
        <time>2019-03-09T08:21:30Z</time>
      </trkpt>
      <trkpt lat="42.305260" lon="2.166961">
        <ele>907.208</ele>
        <time>2019-03-09T08:21:39Z</time>
      </trkpt>
      <trkpt lat="42.305370" lon="2.166936">
        <ele>907.185</ele>
        <time>2019-03-09T08:21:41Z</time>
      </trkpt>
      <trkpt lat="42.305459" lon="2.166944">
        <ele>907.437</ele>
        <time>2019-03-09T08:21:50Z</time>
      </trkpt>
      <trkpt lat="42.305532" lon="2.166940">
        <ele>907.433</ele>
        <time>2019-03-09T08:21:52Z</time>
      </trkpt>
      <trkpt lat="42.305607" lon="2.166932">
        <ele>907.830</ele>
        <time>2019-03-09T08:22:03Z</time>
      </trkpt>
      <trkpt lat="42.305753" lon="2.166911">
        <ele>908.246</ele>
        <time>2019-03-09T08:22:11Z</time>
      </trkpt>
      <trkpt lat="42.305877" lon="2.166948">
        <ele>908.318</ele>
        <time>2019-03-09T08:22:23Z</time>
      </trkpt>
      <trkpt lat="42.305912" lon="2.167035">
        <ele>908.287</ele>
        <time>2019-03-09T08:22:25Z</time>
      </trkpt>
      <trkpt lat="42.306012" lon="2.167284">
        <ele>908.216</ele>
        <time>2019-03-09T08:22:32Z</time>
      </trkpt>
      <trkpt lat="42.306036" lon="2.167397">
        <ele>908.252</ele>
        <time>2019-03-09T08:22:43Z</time>
      </trkpt>
      <trkpt lat="42.306036" lon="2.167472">
        <ele>908.353</ele>
        <time>2019-03-09T08:22:45Z</time>
      </trkpt>
      <trkpt lat="42.306033" lon="2.167563">
        <ele>908.408</ele>
        <time>2019-03-09T08:22:47Z</time>
      </trkpt>
      <trkpt lat="42.306038" lon="2.167658">
        <ele>908.708</ele>
        <time>2019-03-09T08:22:56Z</time>
      </trkpt>
      <trkpt lat="42.306043" lon="2.167692">
        <ele>911.639</ele>
        <time>2019-03-09T08:23:46Z</time>
      </trkpt>
      <trkpt lat="42.306097" lon="2.167710">
        <ele>912.231</ele>
        <time>2019-03-09T08:23:49Z</time>
      </trkpt>
      <trkpt lat="42.306133" lon="2.167708">
        <ele>913.177</ele>
        <time>2019-03-09T08:23:54Z</time>
      </trkpt>
      <trkpt lat="42.306169" lon="2.167721">
        <ele>916.184</ele>
        <time>2019-03-09T08:24:06Z</time>
      </trkpt>
      <trkpt lat="42.306217" lon="2.167710">
        <ele>917.070</ele>
        <time>2019-03-09T08:24:13Z</time>
      </trkpt>
      <trkpt lat="42.306250" lon="2.167715">
        <ele>917.162</ele>
        <time>2019-03-09T08:24:15Z</time>
      </trkpt>
      <trkpt lat="42.306279" lon="2.167714">
        <ele>917.461</ele>
        <time>2019-03-09T08:24:18Z</time>
      </trkpt>
      <trkpt lat="42.306357" lon="2.167689">
        <ele>918.770</ele>
        <time>2019-03-09T08:24:28Z</time>
      </trkpt>
      <trkpt lat="42.306365" lon="2.167605">
        <ele>919.283</ele>
        <time>2019-03-09T08:24:34Z</time>
      </trkpt>
      <trkpt lat="42.306406" lon="2.167588">
        <ele>919.325</ele>
        <time>2019-03-09T08:24:36Z</time>
      </trkpt>
      <trkpt lat="42.306462" lon="2.167541">
        <ele>919.917</ele>
        <time>2019-03-09T08:24:44Z</time>
      </trkpt>
      <trkpt lat="42.306499" lon="2.167508">
        <ele>923.008</ele>
        <time>2019-03-09T08:24:55Z</time>
      </trkpt>
      <trkpt lat="42.306525" lon="2.167483">
        <ele>926.322</ele>
        <time>2019-03-09T08:25:10Z</time>
      </trkpt>
      <trkpt lat="42.306571" lon="2.167408">
        <ele>929.314</ele>
        <time>2019-03-09T08:25:21Z</time>
      </trkpt>
      <trkpt lat="42.306613" lon="2.167464">
        <ele>931.030</ele>
        <time>2019-03-09T08:25:29Z</time>
      </trkpt>
      <trkpt lat="42.306631" lon="2.167537">
        <ele>933.027</ele>
        <time>2019-03-09T08:25:38Z</time>
      </trkpt>
      <trkpt lat="42.306684" lon="2.167609">
        <ele>933.623</ele>
        <time>2019-03-09T08:25:49Z</time>
      </trkpt>
      <trkpt lat="42.306759" lon="2.167630">
        <ele>935.995</ele>
        <time>2019-03-09T08:26:02Z</time>
      </trkpt>
      <trkpt lat="42.306824" lon="2.167640">
        <ele>939.184</ele>
        <time>2019-03-09T08:26:15Z</time>
      </trkpt>
      <trkpt lat="42.306893" lon="2.167652">
        <ele>942.163</ele>
        <time>2019-03-09T08:26:28Z</time>
      </trkpt>
      <trkpt lat="42.306920" lon="2.167636">
        <ele>945.336</ele>
        <time>2019-03-09T08:26:38Z</time>
      </trkpt>
      <trkpt lat="42.306947" lon="2.167596">
        <ele>948.117</ele>
        <time>2019-03-09T08:26:51Z</time>
      </trkpt>
      <trkpt lat="42.306986" lon="2.167606">
        <ele>951.118</ele>
        <time>2019-03-09T08:27:03Z</time>
      </trkpt>
      <trkpt lat="42.307038" lon="2.167608">
        <ele>954.308</ele>
        <time>2019-03-09T08:27:16Z</time>
      </trkpt>
      <trkpt lat="42.307060" lon="2.167522">
        <ele>957.577</ele>
        <time>2019-03-09T08:27:28Z</time>
      </trkpt>
      <trkpt lat="42.307079" lon="2.167428">
        <ele>959.649</ele>
        <time>2019-03-09T08:27:41Z</time>
      </trkpt>
      <trkpt lat="42.307141" lon="2.167431">
        <ele>964.515</ele>
        <time>2019-03-09T08:34:50Z</time>
      </trkpt>
      <trkpt lat="42.307186" lon="2.167449">
        <ele>966.842</ele>
        <time>2019-03-09T08:35:01Z</time>
      </trkpt>
      <trkpt lat="42.307224" lon="2.167461">
        <ele>969.938</ele>
        <time>2019-03-09T08:35:13Z</time>
      </trkpt>
      <trkpt lat="42.307261" lon="2.167494">
        <ele>973.860</ele>
        <time>2019-03-09T08:35:38Z</time>
      </trkpt>
      <trkpt lat="42.307287" lon="2.167485">
        <ele>995.119</ele>
        <time>2019-03-09T08:43:54Z</time>
      </trkpt>
      <trkpt lat="42.307304" lon="2.167496">
        <ele>997.678</ele>
        <time>2019-03-09T08:44:29Z</time>
      </trkpt>
      <trkpt lat="42.307330" lon="2.167494">
        <ele>998.392</ele>
        <time>2019-03-09T08:45:16Z</time>
      </trkpt>
      <trkpt lat="42.307381" lon="2.167489">
        <ele>1000.373</ele>
        <time>2019-03-09T08:48:45Z</time>
      </trkpt>
      <trkpt lat="42.307412" lon="2.167500">
        <ele>1000.020</ele>
        <time>2019-03-09T08:49:58Z</time>
      </trkpt>
      <trkpt lat="42.307441" lon="2.167519">
        <ele>994.608</ele>
        <time>2019-03-09T08:51:18Z</time>
      </trkpt>
      <trkpt lat="42.307462" lon="2.167523">
        <ele>999.673</ele>
        <time>2019-03-09T08:53:08Z</time>
      </trkpt>
      <trkpt lat="42.307489" lon="2.167514">
        <ele>999.775</ele>
        <time>2019-03-09T08:53:23Z</time>
      </trkpt>
      <trkpt lat="42.307527" lon="2.167569">
        <ele>997.181</ele>
        <time>2019-03-09T08:53:55Z</time>
      </trkpt>
      <trkpt lat="42.307555" lon="2.167576">
        <ele>996.228</ele>
        <time>2019-03-09T08:54:13Z</time>
      </trkpt>
      <trkpt lat="42.307567" lon="2.167613">
        <ele>996.124</ele>
        <time>2019-03-09T08:54:50Z</time>
      </trkpt>
      <trkpt lat="42.307589" lon="2.167620">
        <ele>1001.396</ele>
        <time>2019-03-09T08:58:44Z</time>
      </trkpt>
      <trkpt lat="42.307614" lon="2.167622">
        <ele>1001.145</ele>
        <time>2019-03-09T08:59:00Z</time>
      </trkpt>
      <trkpt lat="42.307637" lon="2.167638">
        <ele>1001.554</ele>
        <time>2019-03-09T09:00:09Z</time>
      </trkpt>
      <trkpt lat="42.307664" lon="2.167641">
        <ele>1001.694</ele>
        <time>2019-03-09T09:01:07Z</time>
      </trkpt>
      <trkpt lat="42.307703" lon="2.167622">
        <ele>1010.257</ele>
        <time>2019-03-09T09:04:53Z</time>
      </trkpt>
      <trkpt lat="42.307753" lon="2.167601">
        <ele>1010.522</ele>
        <time>2019-03-09T09:05:08Z</time>
      </trkpt>
      <trkpt lat="42.307776" lon="2.167584">
        <ele>1015.408</ele>
        <time>2019-03-09T09:07:27Z</time>
      </trkpt>
      <trkpt lat="42.307804" lon="2.167576">
        <ele>1015.583</ele>
        <time>2019-03-09T09:08:30Z</time>
      </trkpt>
      <trkpt lat="42.307823" lon="2.167569">
        <ele>1014.835</ele>
        <time>2019-03-09T09:09:52Z</time>
      </trkpt>
      <trkpt lat="42.307896" lon="2.167583">
        <ele>1014.891</ele>
        <time>2019-03-09T09:10:07Z</time>
      </trkpt>
      <trkpt lat="42.307953" lon="2.167586">
        <ele>1014.848</ele>
        <time>2019-03-09T09:14:45Z</time>
      </trkpt>
      <trkpt lat="42.308022" lon="2.167636">
        <ele>1026.174</ele>
        <time>2019-03-09T09:19:07Z</time>
      </trkpt>
      <trkpt lat="42.308071" lon="2.167639">
        <ele>1027.756</ele>
        <time>2019-03-09T09:19:18Z</time>
      </trkpt>
      <trkpt lat="42.308099" lon="2.167649">
        <ele>1030.135</ele>
        <time>2019-03-09T09:19:31Z</time>
      </trkpt>
      <trkpt lat="42.308123" lon="2.167663">
        <ele>1030.584</ele>
        <time>2019-03-09T09:20:25Z</time>
      </trkpt>
      <trkpt lat="42.308149" lon="2.167647">
        <ele>1033.528</ele>
        <time>2019-03-09T09:20:37Z</time>
      </trkpt>
      <trkpt lat="42.308175" lon="2.167617">
        <ele>1035.689</ele>
        <time>2019-03-09T09:21:34Z</time>
      </trkpt>
      <trkpt lat="42.308210" lon="2.167594">
        <ele>1035.117</ele>
        <time>2019-03-09T09:22:09Z</time>
      </trkpt>
      <trkpt lat="42.308251" lon="2.167575">
        <ele>1033.808</ele>
        <time>2019-03-09T09:22:19Z</time>
      </trkpt>
      <trkpt lat="42.308263" lon="2.167529">
        <ele>1036.746</ele>
        <time>2019-03-09T09:22:31Z</time>
      </trkpt>
      <trkpt lat="42.308295" lon="2.167479">
        <ele>1039.048</ele>
        <time>2019-03-09T09:22:43Z</time>
      </trkpt>
      <trkpt lat="42.308359" lon="2.167459">
        <ele>1038.484</ele>
        <time>2019-03-09T09:23:48Z</time>
      </trkpt>
      <trkpt lat="42.308405" lon="2.167444">
        <ele>1038.631</ele>
        <time>2019-03-09T09:24:08Z</time>
      </trkpt>
      <trkpt lat="42.308451" lon="2.167468">
        <ele>1039.347</ele>
        <time>2019-03-09T09:24:24Z</time>
      </trkpt>
      <trkpt lat="42.308484" lon="2.167466">
        <ele>1040.289</ele>
        <time>2019-03-09T09:26:18Z</time>
      </trkpt>
      <trkpt lat="42.308541" lon="2.167421">
        <ele>1051.948</ele>
        <time>2019-03-09T09:31:21Z</time>
      </trkpt>
      <trkpt lat="42.308617" lon="2.167387">
        <ele>1052.367</ele>
        <time>2019-03-09T09:31:34Z</time>
      </trkpt>
      <trkpt lat="42.308679" lon="2.167369">
        <ele>1054.922</ele>
        <time>2019-03-09T09:31:46Z</time>
      </trkpt>
      <trkpt lat="42.308727" lon="2.167342">
        <ele>1058.162</ele>
        <time>2019-03-09T09:31:56Z</time>
      </trkpt>
      <trkpt lat="42.308788" lon="2.167282">
        <ele>1061.208</ele>
        <time>2019-03-09T09:32:07Z</time>
      </trkpt>
      <trkpt lat="42.308853" lon="2.167223">
        <ele>1064.308</ele>
        <time>2019-03-09T09:32:19Z</time>
      </trkpt>
      <trkpt lat="42.308909" lon="2.167159">
        <ele>1067.376</ele>
        <time>2019-03-09T09:32:33Z</time>
      </trkpt>
      <trkpt lat="42.309005" lon="2.167093">
        <ele>1069.318</ele>
        <time>2019-03-09T09:32:45Z</time>
      </trkpt>
      <trkpt lat="42.309052" lon="2.167019">
        <ele>1071.764</ele>
        <time>2019-03-09T09:32:56Z</time>
      </trkpt>
      <trkpt lat="42.309067" lon="2.166974">
        <ele>1073.071</ele>
        <time>2019-03-09T09:33:08Z</time>
      </trkpt>
      <trkpt lat="42.309078" lon="2.166898">
        <ele>1078.317</ele>
        <time>2019-03-09T09:33:32Z</time>
      </trkpt>
      <trkpt lat="42.309125" lon="2.166826">
        <ele>1080.479</ele>
        <time>2019-03-09T09:33:45Z</time>
      </trkpt>
      <trkpt lat="42.309136" lon="2.166774">
        <ele>1083.638</ele>
        <time>2019-03-09T09:33:57Z</time>
      </trkpt>
      <trkpt lat="42.309138" lon="2.166709">
        <ele>1086.797</ele>
        <time>2019-03-09T09:34:11Z</time>
      </trkpt>
      <trkpt lat="42.309151" lon="2.166669">
        <ele>1087.295</ele>
        <time>2019-03-09T09:34:57Z</time>
      </trkpt>
      <trkpt lat="42.309177" lon="2.166610">
        <ele>1088.349</ele>
        <time>2019-03-09T09:35:14Z</time>
      </trkpt>
      <trkpt lat="42.309252" lon="2.166473">
        <ele>1090.723</ele>
        <time>2019-03-09T09:35:26Z</time>
      </trkpt>
      <trkpt lat="42.309279" lon="2.166428">
        <ele>1090.808</ele>
        <time>2019-03-09T09:35:36Z</time>
      </trkpt>
      <trkpt lat="42.309310" lon="2.166351">
        <ele>1088.693</ele>
        <time>2019-03-09T09:35:48Z</time>
      </trkpt>
      <trkpt lat="42.309373" lon="2.166343">
        <ele>1086.385</ele>
        <time>2019-03-09T09:35:55Z</time>
      </trkpt>
      <trkpt lat="42.309435" lon="2.166336">
        <ele>1083.751</ele>
        <time>2019-03-09T09:36:03Z</time>
      </trkpt>
      <trkpt lat="42.309511" lon="2.166311">
        <ele>1082.398</ele>
        <time>2019-03-09T09:36:17Z</time>
      </trkpt>
      <trkpt lat="42.309591" lon="2.166319">
        <ele>1082.964</ele>
        <time>2019-03-09T09:36:27Z</time>
      </trkpt>
      <trkpt lat="42.309685" lon="2.166341">
        <ele>1084.176</ele>
        <time>2019-03-09T09:36:40Z</time>
      </trkpt>
      <trkpt lat="42.309772" lon="2.166294">
        <ele>1086.335</ele>
        <time>2019-03-09T09:36:54Z</time>
      </trkpt>
      <trkpt lat="42.309818" lon="2.166243">
        <ele>1089.434</ele>
        <time>2019-03-09T09:37:04Z</time>
      </trkpt>
      <trkpt lat="42.309902" lon="2.166186">
        <ele>1092.339</ele>
        <time>2019-03-09T09:37:17Z</time>
      </trkpt>
      <trkpt lat="42.310021" lon="2.166139">
        <ele>1094.001</ele>
        <time>2019-03-09T09:37:28Z</time>
      </trkpt>
      <trkpt lat="42.310051" lon="2.166098">
        <ele>1096.221</ele>
        <time>2019-03-09T09:37:45Z</time>
      </trkpt>
      <trkpt lat="42.310166" lon="2.166119">
        <ele>1096.508</ele>
        <time>2019-03-09T09:37:59Z</time>
      </trkpt>
      <trkpt lat="42.310283" lon="2.166159">
        <ele>1096.077</ele>
        <time>2019-03-09T09:38:12Z</time>
      </trkpt>
      <trkpt lat="42.310348" lon="2.166205">
        <ele>1098.139</ele>
        <time>2019-03-09T09:38:23Z</time>
      </trkpt>
      <trkpt lat="42.310418" lon="2.166220">
        <ele>1099.775</ele>
        <time>2019-03-09T09:38:29Z</time>
      </trkpt>
      <trkpt lat="42.310478" lon="2.166229">
        <ele>1101.992</ele>
        <time>2019-03-09T09:38:42Z</time>
      </trkpt>
      <trkpt lat="42.310539" lon="2.166214">
        <ele>1102.128</ele>
        <time>2019-03-09T09:38:48Z</time>
      </trkpt>
      <trkpt lat="42.310597" lon="2.166189">
        <ele>1102.970</ele>
        <time>2019-03-09T09:38:58Z</time>
      </trkpt>
      <trkpt lat="42.310729" lon="2.166098">
        <ele>1104.749</ele>
        <time>2019-03-09T09:39:11Z</time>
      </trkpt>
      <trkpt lat="42.310794" lon="2.166063">
        <ele>1105.538</ele>
        <time>2019-03-09T09:39:18Z</time>
      </trkpt>
      <trkpt lat="42.310930" lon="2.166004">
        <ele>1105.772</ele>
        <time>2019-03-09T09:39:29Z</time>
      </trkpt>
      <trkpt lat="42.311014" lon="2.165955">
        <ele>1106.013</ele>
        <time>2019-03-09T09:39:38Z</time>
      </trkpt>
      <trkpt lat="42.311088" lon="2.165965">
        <ele>1108.414</ele>
        <time>2019-03-09T09:43:09Z</time>
      </trkpt>
      <trkpt lat="42.311198" lon="2.165925">
        <ele>1109.708</ele>
        <time>2019-03-09T09:43:19Z</time>
      </trkpt>
      <trkpt lat="42.311285" lon="2.165856">
        <ele>1113.091</ele>
        <time>2019-03-09T09:43:30Z</time>
      </trkpt>
      <trkpt lat="42.311383" lon="2.165796">
        <ele>1116.223</ele>
        <time>2019-03-09T09:43:41Z</time>
      </trkpt>
      <trkpt lat="42.311444" lon="2.165733">
        <ele>1118.439</ele>
        <time>2019-03-09T09:43:50Z</time>
      </trkpt>
      <trkpt lat="42.311545" lon="2.165711">
        <ele>1120.616</ele>
        <time>2019-03-09T09:44:00Z</time>
      </trkpt>
      <trkpt lat="42.311634" lon="2.165777">
        <ele>1123.092</ele>
        <time>2019-03-09T09:44:12Z</time>
      </trkpt>
      <trkpt lat="42.311690" lon="2.165813">
        <ele>1126.294</ele>
        <time>2019-03-09T09:44:22Z</time>
      </trkpt>
      <trkpt lat="42.311731" lon="2.165741">
        <ele>1128.783</ele>
        <time>2019-03-09T09:44:33Z</time>
      </trkpt>
      <trkpt lat="42.311741" lon="2.165596">
        <ele>1130.712</ele>
        <time>2019-03-09T09:44:44Z</time>
      </trkpt>
      <trkpt lat="42.311768" lon="2.165474">
        <ele>1133.198</ele>
        <time>2019-03-09T09:44:56Z</time>
      </trkpt>
      <trkpt lat="42.311749" lon="2.165675">
        <ele>1134.315</ele>
        <time>2019-03-09T09:45:51Z</time>
      </trkpt>
      <trkpt lat="42.311733" lon="2.165803">
        <ele>1131.526</ele>
        <time>2019-03-09T09:46:09Z</time>
      </trkpt>
      <trkpt lat="42.311836" lon="2.165787">
        <ele>1128.208</ele>
        <time>2019-03-09T09:46:18Z</time>
      </trkpt>
      <trkpt lat="42.311946" lon="2.165630">
        <ele>1125.863</ele>
        <time>2019-03-09T09:46:25Z</time>
      </trkpt>
      <trkpt lat="42.312035" lon="2.165440">
        <ele>1122.575</ele>
        <time>2019-03-09T09:46:38Z</time>
      </trkpt>
      <trkpt lat="42.312067" lon="2.165267">
        <ele>1120.471</ele>
        <time>2019-03-09T09:46:51Z</time>
      </trkpt>
      <trkpt lat="42.312090" lon="2.165228">
        <ele>1120.168</ele>
        <time>2019-03-09T09:46:55Z</time>
      </trkpt>
      <trkpt lat="42.312129" lon="2.165166">
        <ele>1119.654</ele>
        <time>2019-03-09T09:47:00Z</time>
      </trkpt>
      <trkpt lat="42.312242" lon="2.164975">
        <ele>1116.396</ele>
        <time>2019-03-09T09:47:16Z</time>
      </trkpt>
      <trkpt lat="42.312313" lon="2.164782">
        <ele>1113.725</ele>
        <time>2019-03-09T09:47:30Z</time>
      </trkpt>
      <trkpt lat="42.312316" lon="2.164565">
        <ele>1113.024</ele>
        <time>2019-03-09T09:47:40Z</time>
      </trkpt>
      <trkpt lat="42.312265" lon="2.164353">
        <ele>1113.797</ele>
        <time>2019-03-09T09:47:51Z</time>
      </trkpt>
      <trkpt lat="42.312210" lon="2.164255">
        <ele>1116.623</ele>
        <time>2019-03-09T09:48:04Z</time>
      </trkpt>
      <trkpt lat="42.312168" lon="2.164172">
        <ele>1118.325</ele>
        <time>2019-03-09T09:48:18Z</time>
      </trkpt>
      <trkpt lat="42.312139" lon="2.164146">
        <ele>1120.708</ele>
        <time>2019-03-09T09:48:28Z</time>
      </trkpt>
      <trkpt lat="42.312116" lon="2.164140">
        <ele>1120.953</ele>
        <time>2019-03-09T09:48:47Z</time>
      </trkpt>
      <trkpt lat="42.312088" lon="2.164126">
        <ele>1120.885</ele>
        <time>2019-03-09T09:49:06Z</time>
      </trkpt>
      <trkpt lat="42.312063" lon="2.164096">
        <ele>1119.231</ele>
        <time>2019-03-09T09:49:34Z</time>
      </trkpt>
      <trkpt lat="42.312059" lon="2.164054">
        <ele>1120.348</ele>
        <time>2019-03-09T09:50:56Z</time>
      </trkpt>
      <trkpt lat="42.312050" lon="2.164015">
        <ele>1120.584</ele>
        <time>2019-03-09T09:51:14Z</time>
      </trkpt>
      <trkpt lat="42.312030" lon="2.163961">
        <ele>1119.826</ele>
        <time>2019-03-09T09:51:19Z</time>
      </trkpt>
      <trkpt lat="42.311989" lon="2.163903">
        <ele>1116.965</ele>
        <time>2019-03-09T09:51:34Z</time>
      </trkpt>
      <trkpt lat="42.311952" lon="2.163825">
        <ele>1116.824</ele>
        <time>2019-03-09T09:51:54Z</time>
      </trkpt>
      <trkpt lat="42.311900" lon="2.163786">
        <ele>1116.499</ele>
        <time>2019-03-09T09:52:00Z</time>
      </trkpt>
      <trkpt lat="42.311881" lon="2.163716">
        <ele>1114.407</ele>
        <time>2019-03-09T09:52:13Z</time>
      </trkpt>
      <trkpt lat="42.311880" lon="2.163650">
        <ele>1113.427</ele>
        <time>2019-03-09T09:52:17Z</time>
      </trkpt>
      <trkpt lat="42.311889" lon="2.163574">
        <ele>1110.008</ele>
        <time>2019-03-09T09:52:24Z</time>
      </trkpt>
      <trkpt lat="42.311885" lon="2.163502">
        <ele>1106.813</ele>
        <time>2019-03-09T09:52:31Z</time>
      </trkpt>
      <trkpt lat="42.311880" lon="2.163383">
        <ele>1103.615</ele>
        <time>2019-03-09T09:52:41Z</time>
      </trkpt>
      <trkpt lat="42.311866" lon="2.163305">
        <ele>1100.421</ele>
        <time>2019-03-09T09:52:47Z</time>
      </trkpt>
      <trkpt lat="42.311907" lon="2.163223">
        <ele>1097.098</ele>
        <time>2019-03-09T09:52:56Z</time>
      </trkpt>
      <trkpt lat="42.311911" lon="2.163134">
        <ele>1093.714</ele>
        <time>2019-03-09T09:53:03Z</time>
      </trkpt>
      <trkpt lat="42.311919" lon="2.163065">
        <ele>1090.786</ele>
        <time>2019-03-09T09:53:09Z</time>
      </trkpt>
      <trkpt lat="42.311909" lon="2.163011">
        <ele>1088.915</ele>
        <time>2019-03-09T09:53:13Z</time>
      </trkpt>
      <trkpt lat="42.311890" lon="2.162863">
        <ele>1085.164</ele>
        <time>2019-03-09T09:53:21Z</time>
      </trkpt>
      <trkpt lat="42.311883" lon="2.162769">
        <ele>1081.894</ele>
        <time>2019-03-09T09:53:27Z</time>
      </trkpt>
      <trkpt lat="42.311912" lon="2.162719">
        <ele>1078.057</ele>
        <time>2019-03-09T09:53:35Z</time>
      </trkpt>
      <trkpt lat="42.311937" lon="2.162683">
        <ele>1075.022</ele>
        <time>2019-03-09T09:53:43Z</time>
      </trkpt>
      <trkpt lat="42.311963" lon="2.162550">
        <ele>1074.008</ele>
        <time>2019-03-09T09:53:59Z</time>
      </trkpt>
      <trkpt lat="42.311854" lon="2.162493">
        <ele>1071.963</ele>
        <time>2019-03-09T09:54:11Z</time>
      </trkpt>
      <trkpt lat="42.311704" lon="2.162518">
        <ele>1069.815</ele>
        <time>2019-03-09T09:54:24Z</time>
      </trkpt>
      <trkpt lat="42.311602" lon="2.162601">
        <ele>1068.391</ele>
        <time>2019-03-09T09:54:34Z</time>
      </trkpt>
      <trkpt lat="42.311464" lon="2.162697">
        <ele>1066.418</ele>
        <time>2019-03-09T09:54:48Z</time>
      </trkpt>
      <trkpt lat="42.311391" lon="2.162766">
        <ele>1063.384</ele>
        <time>2019-03-09T09:55:00Z</time>
      </trkpt>
      <trkpt lat="42.311310" lon="2.162812">
        <ele>1060.736</ele>
        <time>2019-03-09T09:55:07Z</time>
      </trkpt>
      <trkpt lat="42.311210" lon="2.162837">
        <ele>1058.835</ele>
        <time>2019-03-09T09:55:12Z</time>
      </trkpt>
      <trkpt lat="42.311100" lon="2.162870">
        <ele>1055.034</ele>
        <time>2019-03-09T09:55:21Z</time>
      </trkpt>
      <trkpt lat="42.311018" lon="2.162808">
        <ele>1052.617</ele>
        <time>2019-03-09T09:55:28Z</time>
      </trkpt>
      <trkpt lat="42.310908" lon="2.162783">
        <ele>1049.387</ele>
        <time>2019-03-09T09:55:39Z</time>
      </trkpt>
      <trkpt lat="42.310825" lon="2.162731">
        <ele>1046.215</ele>
        <time>2019-03-09T09:55:47Z</time>
      </trkpt>
      <trkpt lat="42.310792" lon="2.162749">
        <ele>1045.408</ele>
        <time>2019-03-09T09:55:49Z</time>
      </trkpt>
      <trkpt lat="42.310728" lon="2.162779">
        <ele>1044.455</ele>
        <time>2019-03-09T09:55:52Z</time>
      </trkpt>
      <trkpt lat="42.310684" lon="2.162845">
        <ele>1043.137</ele>
        <time>2019-03-09T09:55:57Z</time>
      </trkpt>
      <trkpt lat="42.310617" lon="2.162986">
        <ele>1040.443</ele>
        <time>2019-03-09T09:56:11Z</time>
      </trkpt>
      <trkpt lat="42.310571" lon="2.163135">
        <ele>1037.250</ele>
        <time>2019-03-09T09:56:21Z</time>
      </trkpt>
      <trkpt lat="42.310552" lon="2.163313">
        <ele>1034.996</ele>
        <time>2019-03-09T09:56:27Z</time>
      </trkpt>
      <trkpt lat="42.310558" lon="2.163442">
        <ele>1031.258</ele>
        <time>2019-03-09T09:56:36Z</time>
      </trkpt>
      <trkpt lat="42.310563" lon="2.163632">
        <ele>1030.087</ele>
        <time>2019-03-09T09:56:41Z</time>
      </trkpt>
      <trkpt lat="42.310560" lon="2.163752">
        <ele>1029.316</ele>
        <time>2019-03-09T09:56:43Z</time>
      </trkpt>
      <trkpt lat="42.310531" lon="2.163852">
        <ele>1027.519</ele>
        <time>2019-03-09T09:56:48Z</time>
      </trkpt>
      <trkpt lat="42.310396" lon="2.163885">
        <ele>1024.109</ele>
        <time>2019-03-09T09:56:59Z</time>
      </trkpt>
      <trkpt lat="42.310350" lon="2.163947">
        <ele>1018.319</ele>
        <time>2019-03-09T09:57:14Z</time>
      </trkpt>
      <trkpt lat="42.310294" lon="2.163993">
        <ele>1015.608</ele>
        <time>2019-03-09T09:57:20Z</time>
      </trkpt>
      <trkpt lat="42.310248" lon="2.164023">
        <ele>1014.425</ele>
        <time>2019-03-09T09:57:23Z</time>
      </trkpt>
      <trkpt lat="42.310189" lon="2.164063">
        <ele>1012.397</ele>
        <time>2019-03-09T09:57:31Z</time>
      </trkpt>
      <trkpt lat="42.310148" lon="2.164042">
        <ele>1008.843</ele>
        <time>2019-03-09T09:57:40Z</time>
      </trkpt>
      <trkpt lat="42.310105" lon="2.164022">
        <ele>1005.360</ele>
        <time>2019-03-09T09:57:50Z</time>
      </trkpt>
      <trkpt lat="42.310059" lon="2.164009">
        <ele>1003.096</ele>
        <time>2019-03-09T09:57:58Z</time>
      </trkpt>
      <trkpt lat="42.309991" lon="2.164019">
        <ele>1000.588</ele>
        <time>2019-03-09T09:58:03Z</time>
      </trkpt>
      <trkpt lat="42.309960" lon="2.164025">
        <ele>999.457</ele>
        <time>2019-03-09T09:58:05Z</time>
      </trkpt>
      <trkpt lat="42.309904" lon="2.164015">
        <ele>997.746</ele>
        <time>2019-03-09T09:58:09Z</time>
      </trkpt>
      <trkpt lat="42.309825" lon="2.163998">
        <ele>995.322</ele>
        <time>2019-03-09T09:58:15Z</time>
      </trkpt>
      <trkpt lat="42.309695" lon="2.164007">
        <ele>993.162</ele>
        <time>2019-03-09T09:58:24Z</time>
      </trkpt>
      <trkpt lat="42.309597" lon="2.163974">
        <ele>990.808</ele>
        <time>2019-03-09T09:58:33Z</time>
      </trkpt>
      <trkpt lat="42.309544" lon="2.163919">
        <ele>988.808</ele>
        <time>2019-03-09T09:58:38Z</time>
      </trkpt>
      <trkpt lat="42.309522" lon="2.163895">
        <ele>987.546</ele>
        <time>2019-03-09T09:58:41Z</time>
      </trkpt>
      <trkpt lat="42.309465" lon="2.163781">
        <ele>983.648</ele>
        <time>2019-03-09T09:58:49Z</time>
      </trkpt>
      <trkpt lat="42.309447" lon="2.163754">
        <ele>982.484</ele>
        <time>2019-03-09T09:58:51Z</time>
      </trkpt>
      <trkpt lat="42.309372" lon="2.163700">
        <ele>979.451</ele>
        <time>2019-03-09T09:59:00Z</time>
      </trkpt>
      <trkpt lat="42.309337" lon="2.163673">
        <ele>978.867</ele>
        <time>2019-03-09T09:59:03Z</time>
      </trkpt>
      <trkpt lat="42.309311" lon="2.163660">
        <ele>978.499</ele>
        <time>2019-03-09T09:59:05Z</time>
      </trkpt>
      <trkpt lat="42.309279" lon="2.163633">
        <ele>977.788</ele>
        <time>2019-03-09T09:59:08Z</time>
      </trkpt>
      <trkpt lat="42.309243" lon="2.163626">
        <ele>976.857</ele>
        <time>2019-03-09T09:59:11Z</time>
      </trkpt>
      <trkpt lat="42.309109" lon="2.163616">
        <ele>973.318</ele>
        <time>2019-03-09T09:59:24Z</time>
      </trkpt>
      <trkpt lat="42.309036" lon="2.163569">
        <ele>970.298</ele>
        <time>2019-03-09T09:59:32Z</time>
      </trkpt>
      <trkpt lat="42.308958" lon="2.163566">
        <ele>967.217</ele>
        <time>2019-03-09T09:59:39Z</time>
      </trkpt>
      <trkpt lat="42.308862" lon="2.163589">
        <ele>964.008</ele>
        <time>2019-03-09T09:59:49Z</time>
      </trkpt>
      <trkpt lat="42.308826" lon="2.163621">
        <ele>963.025</ele>
        <time>2019-03-09T09:59:52Z</time>
      </trkpt>
      <trkpt lat="42.308798" lon="2.163654">
        <ele>961.917</ele>
        <time>2019-03-09T09:59:55Z</time>
      </trkpt>
      <trkpt lat="42.308710" lon="2.163722">
        <ele>958.643</ele>
        <time>2019-03-09T10:00:04Z</time>
      </trkpt>
      <trkpt lat="42.308609" lon="2.163896">
        <ele>955.140</ele>
        <time>2019-03-09T10:00:16Z</time>
      </trkpt>
      <trkpt lat="42.308535" lon="2.164061">
        <ele>951.896</ele>
        <time>2019-03-09T10:00:28Z</time>
      </trkpt>
      <trkpt lat="42.308515" lon="2.164124">
        <ele>950.418</ele>
        <time>2019-03-09T10:00:31Z</time>
      </trkpt>
      <trkpt lat="42.308426" lon="2.164354">
        <ele>948.017</ele>
        <time>2019-03-09T10:00:42Z</time>
      </trkpt>
      <trkpt lat="42.308307" lon="2.164511">
        <ele>946.476</ele>
        <time>2019-03-09T10:00:52Z</time>
      </trkpt>
      <trkpt lat="42.308240" lon="2.164655">
        <ele>945.799</ele>
        <time>2019-03-09T10:00:55Z</time>
      </trkpt>
      <trkpt lat="42.308186" lon="2.164767">
        <ele>945.207</ele>
        <time>2019-03-09T10:01:04Z</time>
      </trkpt>
      <trkpt lat="42.308165" lon="2.164879">
        <ele>945.827</ele>
        <time>2019-03-09T10:01:14Z</time>
      </trkpt>
      <trkpt lat="42.308130" lon="2.164945">
        <ele>945.808</ele>
        <time>2019-03-09T10:01:17Z</time>
      </trkpt>
      <trkpt lat="42.308081" lon="2.165049">
        <ele>945.873</ele>
        <time>2019-03-09T10:01:21Z</time>
      </trkpt>
      <trkpt lat="42.308030" lon="2.165148">
        <ele>945.455</ele>
        <time>2019-03-09T10:01:25Z</time>
      </trkpt>
      <trkpt lat="42.307981" lon="2.165281">
        <ele>944.291</ele>
        <time>2019-03-09T10:01:35Z</time>
      </trkpt>
      <trkpt lat="42.307863" lon="2.165442">
        <ele>943.548</ele>
        <time>2019-03-09T10:01:46Z</time>
      </trkpt>
      <trkpt lat="42.307809" lon="2.165575">
        <ele>941.054</ele>
        <time>2019-03-09T10:01:56Z</time>
      </trkpt>
      <trkpt lat="42.307739" lon="2.165616">
        <ele>940.266</ele>
        <time>2019-03-09T10:02:00Z</time>
      </trkpt>
      <trkpt lat="42.307685" lon="2.165674">
        <ele>938.985</ele>
        <time>2019-03-09T10:02:10Z</time>
      </trkpt>
      <trkpt lat="42.307644" lon="2.165732">
        <ele>938.554</ele>
        <time>2019-03-09T10:02:29Z</time>
      </trkpt>
      <trkpt lat="42.307593" lon="2.165766">
        <ele>937.242</ele>
        <time>2019-03-09T10:02:39Z</time>
      </trkpt>
      <trkpt lat="42.307551" lon="2.165806">
        <ele>936.322</ele>
        <time>2019-03-09T10:02:52Z</time>
      </trkpt>
      <trkpt lat="42.307440" lon="2.165886">
        <ele>936.314</ele>
        <time>2019-03-09T10:02:55Z</time>
      </trkpt>
      <trkpt lat="42.307375" lon="2.166080">
        <ele>935.008</ele>
        <time>2019-03-09T10:03:07Z</time>
      </trkpt>
      <trkpt lat="42.307283" lon="2.166209">
        <ele>933.888</ele>
        <time>2019-03-09T10:03:16Z</time>
      </trkpt>
      <trkpt lat="42.307205" lon="2.166350">
        <ele>933.250</ele>
        <time>2019-03-09T10:03:27Z</time>
      </trkpt>
      <trkpt lat="42.307139" lon="2.166442">
        <ele>932.186</ele>
        <time>2019-03-09T10:03:38Z</time>
      </trkpt>
      <trkpt lat="42.307058" lon="2.166484">
        <ele>931.183</ele>
        <time>2019-03-09T10:03:45Z</time>
      </trkpt>
      <trkpt lat="42.306959" lon="2.166546">
        <ele>930.379</ele>
        <time>2019-03-09T10:03:48Z</time>
      </trkpt>
      <trkpt lat="42.306883" lon="2.166594">
        <ele>928.011</ele>
        <time>2019-03-09T10:03:57Z</time>
      </trkpt>
      <trkpt lat="42.306823" lon="2.166623">
        <ele>925.910</ele>
        <time>2019-03-09T10:04:04Z</time>
      </trkpt>
      <trkpt lat="42.306675" lon="2.166809">
        <ele>922.579</ele>
        <time>2019-03-09T10:04:16Z</time>
      </trkpt>
      <trkpt lat="42.306647" lon="2.166859">
        <ele>921.811</ele>
        <time>2019-03-09T10:04:18Z</time>
      </trkpt>
      <trkpt lat="42.306608" lon="2.166888">
        <ele>921.021</ele>
        <time>2019-03-09T10:04:21Z</time>
      </trkpt>
      <trkpt lat="42.306564" lon="2.166971">
        <ele>919.803</ele>
        <time>2019-03-09T10:04:26Z</time>
      </trkpt>
      <trkpt lat="42.306527" lon="2.167020">
        <ele>919.208</ele>
        <time>2019-03-09T10:04:28Z</time>
      </trkpt>
      <trkpt lat="42.306494" lon="2.167046">
        <ele>918.455</ele>
        <time>2019-03-09T10:04:31Z</time>
      </trkpt>
      <trkpt lat="42.306469" lon="2.167069">
        <ele>917.947</ele>
        <time>2019-03-09T10:04:33Z</time>
      </trkpt>
      <trkpt lat="42.306439" lon="2.167090">
        <ele>917.373</ele>
        <time>2019-03-09T10:04:35Z</time>
      </trkpt>
      <trkpt lat="42.306409" lon="2.167122">
        <ele>916.490</ele>
        <time>2019-03-09T10:04:38Z</time>
      </trkpt>
      <trkpt lat="42.306367" lon="2.167186">
        <ele>914.826</ele>
        <time>2019-03-09T10:04:42Z</time>
      </trkpt>
      <trkpt lat="42.306345" lon="2.167199">
        <ele>914.158</ele>
        <time>2019-03-09T10:04:45Z</time>
      </trkpt>
      <trkpt lat="42.306224" lon="2.167298">
        <ele>912.837</ele>
        <time>2019-03-09T10:04:54Z</time>
      </trkpt>
      <trkpt lat="42.306116" lon="2.167314">
        <ele>911.436</ele>
        <time>2019-03-09T10:05:07Z</time>
      </trkpt>
      <trkpt lat="42.306036" lon="2.167319">
        <ele>910.113</ele>
        <time>2019-03-09T10:05:18Z</time>
      </trkpt>
      <trkpt lat="42.306003" lon="2.167240">
        <ele>909.843</ele>
        <time>2019-03-09T10:05:25Z</time>
      </trkpt>
      <trkpt lat="42.305990" lon="2.167132">
        <ele>909.507</ele>
        <time>2019-03-09T10:05:35Z</time>
      </trkpt>
      <trkpt lat="42.305960" lon="2.167066">
        <ele>909.008</ele>
        <time>2019-03-09T10:05:55Z</time>
      </trkpt>
      <trkpt lat="42.305947" lon="2.167020">
        <ele>909.655</ele>
        <time>2019-03-09T10:06:41Z</time>
      </trkpt>
      <trkpt lat="42.305924" lon="2.166983">
        <ele>909.247</ele>
        <time>2019-03-09T10:06:49Z</time>
      </trkpt>
      <trkpt lat="42.305845" lon="2.166942">
        <ele>909.333</ele>
        <time>2019-03-09T10:06:58Z</time>
      </trkpt>
      <trkpt lat="42.305742" lon="2.166965">
        <ele>909.010</ele>
        <time>2019-03-09T10:07:06Z</time>
      </trkpt>
      <trkpt lat="42.305602" lon="2.166977">
        <ele>908.846</ele>
        <time>2019-03-09T10:07:14Z</time>
      </trkpt>
      <trkpt lat="42.305510" lon="2.166991">
        <ele>908.458</ele>
        <time>2019-03-09T10:07:21Z</time>
      </trkpt>
      <trkpt lat="42.305435" lon="2.166981">
        <ele>908.237</ele>
        <time>2019-03-09T10:07:26Z</time>
      </trkpt>
      <trkpt lat="42.305311" lon="2.166977">
        <ele>908.136</ele>
        <time>2019-03-09T10:07:35Z</time>
      </trkpt>
      <trkpt lat="42.305101" lon="2.167015">
        <ele>907.814</ele>
        <time>2019-03-09T10:07:48Z</time>
      </trkpt>
      <trkpt lat="42.304893" lon="2.167009">
        <ele>907.254</ele>
        <time>2019-03-09T10:08:04Z</time>
      </trkpt>
      <trkpt lat="42.304714" lon="2.166989">
        <ele>907.209</ele>
        <time>2019-03-09T10:08:16Z</time>
      </trkpt>
      <trkpt lat="42.304380" lon="2.166877">
        <ele>906.508</ele>
        <time>2019-03-09T10:08:38Z</time>
      </trkpt>
      <trkpt lat="42.304310" lon="2.166865">
        <ele>906.435</ele>
        <time>2019-03-09T10:08:39Z</time>
      </trkpt>
      <trkpt lat="42.304253" lon="2.166845">
        <ele>906.387</ele>
        <time>2019-03-09T10:08:43Z</time>
      </trkpt>
      <trkpt lat="42.304205" lon="2.166828">
        <ele>906.023</ele>
        <time>2019-03-09T10:08:49Z</time>
      </trkpt>
      <trkpt lat="42.304170" lon="2.166807">
        <ele>905.980</ele>
        <time>2019-03-09T10:08:51Z</time>
      </trkpt>
      <trkpt lat="42.304121" lon="2.166812">
        <ele>905.796</ele>
        <time>2019-03-09T10:08:53Z</time>
      </trkpt>
      <trkpt lat="42.304054" lon="2.166787">
        <ele>905.688</ele>
        <time>2019-03-09T10:08:55Z</time>
      </trkpt>
      <trkpt lat="42.303973" lon="2.166745">
        <ele>905.447</ele>
        <time>2019-03-09T10:09:01Z</time>
      </trkpt>
      <trkpt lat="42.303925" lon="2.166754">
        <ele>905.376</ele>
        <time>2019-03-09T10:09:03Z</time>
      </trkpt>
      <trkpt lat="42.303879" lon="2.166733">
        <ele>905.166</ele>
        <time>2019-03-09T10:09:05Z</time>
      </trkpt>
      <trkpt lat="42.303779" lon="2.166712">
        <ele>904.229</ele>
        <time>2019-03-09T10:09:14Z</time>
      </trkpt>
      <trkpt lat="42.303690" lon="2.166661">
        <ele>903.421</ele>
        <time>2019-03-09T10:09:23Z</time>
      </trkpt>
      <trkpt lat="42.303617" lon="2.166627">
        <ele>903.108</ele>
        <time>2019-03-09T10:09:28Z</time>
      </trkpt>
      <trkpt lat="42.303588" lon="2.166619">
        <ele>902.930</ele>
        <time>2019-03-09T10:09:30Z</time>
      </trkpt>
      <trkpt lat="42.303560" lon="2.166601">
        <ele>902.872</ele>
        <time>2019-03-09T10:09:32Z</time>
      </trkpt>
      <trkpt lat="42.303518" lon="2.166586">
        <ele>902.638</ele>
        <time>2019-03-09T10:09:35Z</time>
      </trkpt>
      <trkpt lat="42.303485" lon="2.166579">
        <ele>902.565</ele>
        <time>2019-03-09T10:09:37Z</time>
      </trkpt>
      <trkpt lat="42.303376" lon="2.166554">
        <ele>902.271</ele>
        <time>2019-03-09T10:09:43Z</time>
      </trkpt>
      <trkpt lat="42.303348" lon="2.166545">
        <ele>901.923</ele>
        <time>2019-03-09T10:09:45Z</time>
      </trkpt>
      <trkpt lat="42.303289" lon="2.166536">
        <ele>901.762</ele>
        <time>2019-03-09T10:09:49Z</time>
      </trkpt>
      <trkpt lat="42.303112" lon="2.166477">
        <ele>901.681</ele>
        <time>2019-03-09T10:10:00Z</time>
      </trkpt>
      <trkpt lat="42.303084" lon="2.166470">
        <ele>901.462</ele>
        <time>2019-03-09T10:10:02Z</time>
      </trkpt>
      <trkpt lat="42.302949" lon="2.166414">
        <ele>900.883</ele>
        <time>2019-03-09T10:10:11Z</time>
      </trkpt>
      <trkpt lat="42.302906" lon="2.166396">
        <ele>901.011</ele>
        <time>2019-03-09T10:10:14Z</time>
      </trkpt>
      <trkpt lat="42.302877" lon="2.166383">
        <ele>901.008</ele>
        <time>2019-03-09T10:10:16Z</time>
      </trkpt>
      <trkpt lat="42.302838" lon="2.166395">
        <ele>901.120</ele>
        <time>2019-03-09T10:10:18Z</time>
      </trkpt>
      <trkpt lat="42.302647" lon="2.166462">
        <ele>901.222</ele>
        <time>2019-03-09T10:10:29Z</time>
      </trkpt>
      <trkpt lat="42.302414" lon="2.166567">
        <ele>901.838</ele>
        <time>2019-03-09T10:10:41Z</time>
      </trkpt>
      <trkpt lat="42.302298" lon="2.166630">
        <ele>901.695</ele>
        <time>2019-03-09T10:10:51Z</time>
      </trkpt>
      <trkpt lat="42.302178" lon="2.166658">
        <ele>901.741</ele>
        <time>2019-03-09T10:11:02Z</time>
      </trkpt>
      <trkpt lat="42.301991" lon="2.166738">
        <ele>901.513</ele>
        <time>2019-03-09T10:11:13Z</time>
      </trkpt>
      <trkpt lat="42.301840" lon="2.166810">
        <ele>901.982</ele>
        <time>2019-03-09T10:11:23Z</time>
      </trkpt>
      <trkpt lat="42.301770" lon="2.166818">
        <ele>901.971</ele>
        <time>2019-03-09T10:11:25Z</time>
      </trkpt>
      <trkpt lat="42.301672" lon="2.166848">
        <ele>902.165</ele>
        <time>2019-03-09T10:11:38Z</time>
      </trkpt>
      <trkpt lat="42.301611" lon="2.166865">
        <ele>902.268</ele>
        <time>2019-03-09T10:12:06Z</time>
      </trkpt>
      <trkpt lat="42.301586" lon="2.166865">
        <ele>902.114</ele>
        <time>2019-03-09T10:12:09Z</time>
      </trkpt>
      <trkpt lat="42.301546" lon="2.166873">
        <ele>902.208</ele>
        <time>2019-03-09T10:12:15Z</time>
      </trkpt>
      <trkpt lat="42.301482" lon="2.166865">
        <ele>901.910</ele>
        <time>2019-03-09T10:12:18Z</time>
      </trkpt>
      <trkpt lat="42.301421" lon="2.166879">
        <ele>901.692</ele>
        <time>2019-03-09T10:12:29Z</time>
      </trkpt>
      <trkpt lat="42.301392" lon="2.166865">
        <ele>901.498</ele>
        <time>2019-03-09T10:12:32Z</time>
      </trkpt>
      <trkpt lat="42.301338" lon="2.166862">
        <ele>901.415</ele>
        <time>2019-03-09T10:12:35Z</time>
      </trkpt>
      <trkpt lat="42.301282" lon="2.166829">
        <ele>901.491</ele>
        <time>2019-03-09T10:12:37Z</time>
      </trkpt>
      <trkpt lat="42.301127" lon="2.166776">
        <ele>901.793</ele>
        <time>2019-03-09T10:12:47Z</time>
      </trkpt>
      <trkpt lat="42.301095" lon="2.166760">
        <ele>901.772</ele>
        <time>2019-03-09T10:12:49Z</time>
      </trkpt>
      <trkpt lat="42.301068" lon="2.166744">
        <ele>901.751</ele>
        <time>2019-03-09T10:12:51Z</time>
      </trkpt>
      <trkpt lat="42.301037" lon="2.166732">
        <ele>901.726</ele>
        <time>2019-03-09T10:12:53Z</time>
      </trkpt>
      <trkpt lat="42.301007" lon="2.166724">
        <ele>901.747</ele>
        <time>2019-03-09T10:12:55Z</time>
      </trkpt>
      <trkpt lat="42.300981" lon="2.166710">
        <ele>901.711</ele>
        <time>2019-03-09T10:12:57Z</time>
      </trkpt>
      <trkpt lat="42.300942" lon="2.166699">
        <ele>901.908</ele>
        <time>2019-03-09T10:13:00Z</time>
      </trkpt>
      <trkpt lat="42.300913" lon="2.166695">
        <ele>902.076</ele>
        <time>2019-03-09T10:13:02Z</time>
      </trkpt>
      <trkpt lat="42.300802" lon="2.166655">
        <ele>901.828</ele>
        <time>2019-03-09T10:13:09Z</time>
      </trkpt>
      <trkpt lat="42.300768" lon="2.166643">
        <ele>901.864</ele>
        <time>2019-03-09T10:13:11Z</time>
      </trkpt>
      <trkpt lat="42.300736" lon="2.166633">
        <ele>901.851</ele>
        <time>2019-03-09T10:13:13Z</time>
      </trkpt>
      <trkpt lat="42.300664" lon="2.166594">
        <ele>901.997</ele>
        <time>2019-03-09T10:13:18Z</time>
      </trkpt>
      <trkpt lat="42.300627" lon="2.166585">
        <ele>902.099</ele>
        <time>2019-03-09T10:13:20Z</time>
      </trkpt>
      <trkpt lat="42.300598" lon="2.166573">
        <ele>902.068</ele>
        <time>2019-03-09T10:13:22Z</time>
      </trkpt>
      <trkpt lat="42.300437" lon="2.166509">
        <ele>902.157</ele>
        <time>2019-03-09T10:13:33Z</time>
      </trkpt>
      <trkpt lat="42.300347" lon="2.166458">
        <ele>902.238</ele>
        <time>2019-03-09T10:13:39Z</time>
      </trkpt>
      <trkpt lat="42.300253" lon="2.166407">
        <ele>902.370</ele>
        <time>2019-03-09T10:13:46Z</time>
      </trkpt>
      <trkpt lat="42.300189" lon="2.166366">
        <ele>902.617</ele>
        <time>2019-03-09T10:13:51Z</time>
      </trkpt>
      <trkpt lat="42.300144" lon="2.166338">
        <ele>902.808</ele>
        <time>2019-03-09T10:13:55Z</time>
      </trkpt>
      <trkpt lat="42.300115" lon="2.166328">
        <ele>902.957</ele>
        <time>2019-03-09T10:13:57Z</time>
      </trkpt>
      <trkpt lat="42.300088" lon="2.166310">
        <ele>903.029</ele>
        <time>2019-03-09T10:13:59Z</time>
      </trkpt>
      <trkpt lat="42.300061" lon="2.166292">
        <ele>903.275</ele>
        <time>2019-03-09T10:14:01Z</time>
      </trkpt>
      <trkpt lat="42.300033" lon="2.166276">
        <ele>903.342</ele>
        <time>2019-03-09T10:14:03Z</time>
      </trkpt>
      <trkpt lat="42.299937" lon="2.166192">
        <ele>903.528</ele>
        <time>2019-03-09T10:14:11Z</time>
      </trkpt>
      <trkpt lat="42.299821" lon="2.166109">
        <ele>904.230</ele>
        <time>2019-03-09T10:14:20Z</time>
      </trkpt>
      <trkpt lat="42.299669" lon="2.166016">
        <ele>904.589</ele>
        <time>2019-03-09T10:14:31Z</time>
      </trkpt>
      <trkpt lat="42.299512" lon="2.165927">
        <ele>904.858</ele>
        <time>2019-03-09T10:14:42Z</time>
      </trkpt>
      <trkpt lat="42.299484" lon="2.165899">
        <ele>905.048</ele>
        <time>2019-03-09T10:14:48Z</time>
      </trkpt>
      <trkpt lat="42.299445" lon="2.165877">
        <ele>905.061</ele>
        <time>2019-03-09T10:14:50Z</time>
      </trkpt>
      <trkpt lat="42.299407" lon="2.165802">
        <ele>904.717</ele>
        <time>2019-03-09T10:15:01Z</time>
      </trkpt>
      <trkpt lat="42.299344" lon="2.165736">
        <ele>897.708</ele>
        <time>2019-03-09T10:15:12Z</time>
      </trkpt>
    </trkseg>
  </trk></gpx>