<?xml version="1.0" encoding="UTF-8"?>
<gpx creator="Wikiloc - https://www.wikiloc.com" version="1.1" xmlns="http://www.topografix.com/GPX/1/1" xmlns:xsi="http://www.w3.org/2001/XMLSchema-instance" xsi:schemaLocation="http://www.topografix.com/GPX/1/1 http://www.topografix.com/GPX/1/1/gpx.xsd">
  <metadata>
    <name>Wikiloc - 201. Senderisme en tren: canal de les Bardisses Romàntiques (K4) i canal 17F (K3) des de l'Aeri de Montserrat (FGC)</name>
    <author>
      <name>Senderisme en tren</name>
      <link href="https://www.wikiloc.com/wikiloc/user.do?id=438461">
        <text>Senderisme en tren on Wikiloc</text>
      </link>
    </author>
    <link href="https://www.wikiloc.com/via-ferrata-trails/201-senderisme-en-tren-canal-de-les-bardisses-romantiques-k4-i-canal-17f-k3-des-de-laeri-de-montser-34014211">
      <text>201. Senderisme en tren: canal de les Bardisses Romàntiques (K4) i canal 17F (K3) des de l'Aeri de Montserrat (FGC) on Wikiloc</text>
    </link>
    <time>2018-05-21T13:29:58Z</time>
  </metadata>
  <trk>
    <name>201. Senderisme en tren: canal de les Bardisses Romàntiques (K4) i canal 17F (K3) des de l'Aeri de Montserrat (FGC)</name>
    <cmt>&lt;b&gt;LA TRAVESSA&lt;/b&gt; 
Travessa circular que des de l'estació d'Aeri de Montserrat dels FGC ens portarà a conèixer la canal de les Bardisses Romàntiques i la canal 17F, dos camins equipats que ressegueixen dues torrenteres situades entre Olesa de Montserrat i Monistrol de Montserrat que  baixen des de la serra del Cul de Portadora cap al riu Llobregat. 
 
No són pròpiament vies ferrades,  sinó canals o camins equipats amb clavilles i cordes però sense el cable de vida típic que sí tenen les ferrades. Tot i que comparteixen la mateixa graduació de dificultat que les vies ferrades, aquestes canals solen ser més salvatges i menys equipades que una VF, així que atenció al nostre nivell, que una canal montserratina és un món a part i no ens fiquem a fer una activitat sense el material o l'experiència adequades. 
 
Les dues canals tant es poden fer de pujada com de baixada. El recorregut que us proposem, puja per les Bardisses Romàntiques per anar a baixar per la 17F. En aquest sentit la sortida és més difícil. Si el nostre nivell no és suficient podem fer-la a l'inrevés, pujant per la més còmoda i senzilla 17F i baixar rapelant per la de les Bardisses Romàntiques. 
 
&lt;b&gt;DIFICULTAT&lt;/b&gt; 
 
Bardisses Romàntiques - ( K4) 
Canal 17F - (K3).  
 
Cal portar casc, arnés i vaga d'ancoratge. També una corda de 30 m que ens servirà tant per assegurar algun pas com per rapelar durant la baixada.En algunes ressenyes trobareu que es graduen ambdues canals amb K4. Al nostre parer la Canal 17F és més assequible, tant si es fa de pujada com de baixada. Fins i tot es podria desgrimpar sense material,  tot i que recomanem portar 30 m de corda per rapelar en un parell de trams més aeris. 
 
&lt;b&gt;ELS TRENS&lt;/b&gt; 
La ruta comença i acaba a l'estació d'&lt;b&gt;Aeri de Montserrat&lt;/b&gt; de la R5 dels Ferrocarrils de la Generalitat de Catalunya. El tren des de Barcelona triga aproximadament 60 minuts, i n'hi ha un cada hora. 
 
Podeu consultar aquí els &lt;a href="https://www.fgc.cat/cercador/" rel="nofollow" target="_blank"&gt;HORARIS DELS FERROCARRILS DE LA GENERALITAT&lt;/a&gt;</cmt>
    <desc>&lt;b&gt;LA TRAVESSA&lt;/b&gt; 
Travessa circular que des de l'estació d'Aeri de Montserrat dels FGC ens portarà a conèixer la canal de les Bardisses Romàntiques i la canal 17F, dos camins equipats que ressegueixen dues torrenteres situades entre Olesa de Montserrat i Monistrol de Montserrat que  baixen des de la serra del Cul de Portadora cap al riu Llobregat. 
 
No són pròpiament vies ferrades,  sinó canals o camins equipats amb clavilles i cordes però sense el cable de vida típic que sí tenen les ferrades. Tot i que comparteixen la mateixa graduació de dificultat que les vies ferrades, aquestes canals solen ser més salvatges i menys equipades que una VF, així que atenció al nostre nivell, que una canal montserratina és un món a part i no ens fiquem a fer una activitat sense el material o l'experiència adequades. 
 
Les dues canals tant es poden fer de pujada com de baixada. El recorregut que us proposem, puja per les Bardisses Romàntiques per anar a baixar per la 17F. En aquest sentit la sortida és més difícil. Si el nostre nivell no és suficient podem fer-la a l'inrevés, pujant per la més còmoda i senzilla 17F i baixar rapelant per la de les Bardisses Romàntiques. 
 
&lt;b&gt;DIFICULTAT&lt;/b&gt; 
 
Bardisses Romàntiques - ( K4) 
Canal 17F - (K3).  
 
Cal portar casc, arnés i vaga d'ancoratge. També una corda de 30 m que ens servirà tant per assegurar algun pas com per rapelar durant la baixada.En algunes ressenyes trobareu que es graduen ambdues canals amb K4. Al nostre parer la Canal 17F és més assequible, tant si es fa de pujada com de baixada. Fins i tot es podria desgrimpar sense material,  tot i que recomanem portar 30 m de corda per rapelar en un parell de trams més aeris. 
 
&lt;b&gt;ELS TRENS&lt;/b&gt; 
La ruta comença i acaba a l'estació d'&lt;b&gt;Aeri de Montserrat&lt;/b&gt; de la R5 dels Ferrocarrils de la Generalitat de Catalunya. El tren des de Barcelona triga aproximadament 60 minuts, i n'hi ha un cada hora. 
 
Podeu consultar aquí els &lt;a href="https://www.fgc.cat/cercador/" rel="nofollow" target="_blank"&gt;HORARIS DELS FERROCARRILS DE LA GENERALITAT&lt;/a&gt;</desc>
    <trkseg>
      <trkpt lat="41.591093" lon="1.853208">
        <ele>124.215</ele>
        <time>2018-05-21T09:19:01Z</time>
      </trkpt>
      <trkpt lat="41.591091" lon="1.853141">
        <ele>125.865</ele>
        <time>2018-05-21T09:19:10Z</time>
      </trkpt>
      <trkpt lat="41.591124" lon="1.853081">
        <ele>124.711</ele>
        <time>2018-05-21T09:19:36Z</time>
      </trkpt>
      <trkpt lat="41.591246" lon="1.853035">
        <ele>121.808</ele>
        <time>2018-05-21T09:19:45Z</time>
      </trkpt>
      <trkpt lat="41.591305" lon="1.853050">
        <ele>116.374</ele>
        <time>2018-05-21T09:20:26Z</time>
      </trkpt>
      <trkpt lat="41.591359" lon="1.853035">
        <ele>113.555</ele>
        <time>2018-05-21T09:20:38Z</time>
      </trkpt>
      <trkpt lat="41.591413" lon="1.853057">
        <ele>110.981</ele>
        <time>2018-05-21T09:20:57Z</time>
      </trkpt>
      <trkpt lat="41.591456" lon="1.853055">
        <ele>110.332</ele>
        <time>2018-05-21T09:21:08Z</time>
      </trkpt>
      <trkpt lat="41.591487" lon="1.853035">
        <ele>110.345</ele>
        <time>2018-05-21T09:21:14Z</time>
      </trkpt>
      <trkpt lat="41.591483" lon="1.852944">
        <ele>110.383</ele>
        <time>2018-05-21T09:21:19Z</time>
      </trkpt>
      <trkpt lat="41.591510" lon="1.852880">
        <ele>110.442</ele>
        <time>2018-05-21T09:21:25Z</time>
      </trkpt>
      <trkpt lat="41.591508" lon="1.852860">
        <ele>124.262</ele>
        <time>2018-05-21T09:19:01Z</time>
      </trkpt>
      <trkpt lat="41.591504" lon="1.852823">
        <ele>125.894</ele>
        <time>2018-05-21T09:19:10Z</time>
      </trkpt>
      <trkpt lat="41.591427" lon="1.852727">
        <ele>124.757</ele>
        <time>2018-05-21T09:19:36Z</time>
      </trkpt>
      <trkpt lat="41.591488" lon="1.852680">
        <ele>121.822</ele>
        <time>2018-05-21T09:19:45Z</time>
      </trkpt>
      <trkpt lat="41.591444" lon="1.852566">
        <ele>116.308</ele>
        <time>2018-05-21T09:20:26Z</time>
      </trkpt>
      <trkpt lat="41.591400" lon="1.852456">
        <ele>113.542</ele>
        <time>2018-05-21T09:20:38Z</time>
      </trkpt>
      <trkpt lat="41.591294" lon="1.852442">
        <ele>110.953</ele>
        <time>2018-05-21T09:20:57Z</time>
      </trkpt>
      <trkpt lat="41.591226" lon="1.852411">
        <ele>110.329</ele>
        <time>2018-05-21T09:21:08Z</time>
      </trkpt>
      <trkpt lat="41.591145" lon="1.852378">
        <ele>110.320</ele>
        <time>2018-05-21T09:21:14Z</time>
      </trkpt>
      <trkpt lat="41.591082" lon="1.852385">
        <ele>110.383</ele>
        <time>2018-05-21T09:21:19Z</time>
      </trkpt>
      <trkpt lat="41.590936" lon="1.852472">
        <ele>110.441</ele>
        <time>2018-05-21T09:21:25Z</time>
      </trkpt>
      <trkpt lat="41.590874" lon="1.852511">
        <ele>110.630</ele>
        <time>2018-05-21T09:21:32Z</time>
      </trkpt>
      <trkpt lat="41.590807" lon="1.852568">
        <ele>111.040</ele>
        <time>2018-05-21T09:21:39Z</time>
      </trkpt>
      <trkpt lat="41.590726" lon="1.852628">
        <ele>111.658</ele>
        <time>2018-05-21T09:21:46Z</time>
      </trkpt>
      <trkpt lat="41.590661" lon="1.852724">
        <ele>112.552</ele>
        <time>2018-05-21T09:21:54Z</time>
      </trkpt>
      <trkpt lat="41.590575" lon="1.852804">
        <ele>112.717</ele>
        <time>2018-05-21T09:22:05Z</time>
      </trkpt>
      <trkpt lat="41.590518" lon="1.852883">
        <ele>112.508</ele>
        <time>2018-05-21T09:22:15Z</time>
      </trkpt>
      <trkpt lat="41.590446" lon="1.852966">
        <ele>112.948</ele>
        <time>2018-05-21T09:22:25Z</time>
      </trkpt>
      <trkpt lat="41.590386" lon="1.853046">
        <ele>113.059</ele>
        <time>2018-05-21T09:22:32Z</time>
      </trkpt>
      <trkpt lat="41.590305" lon="1.853145">
        <ele>112.935</ele>
        <time>2018-05-21T09:22:39Z</time>
      </trkpt>
      <trkpt lat="41.590189" lon="1.853222">
        <ele>112.436</ele>
        <time>2018-05-21T09:22:48Z</time>
      </trkpt>
      <trkpt lat="41.590122" lon="1.853278">
        <ele>111.479</ele>
        <time>2018-05-21T09:22:58Z</time>
      </trkpt>
      <trkpt lat="41.590033" lon="1.853328">
        <ele>111.117</ele>
        <time>2018-05-21T09:23:05Z</time>
      </trkpt>
      <trkpt lat="41.589963" lon="1.853378">
        <ele>110.856</ele>
        <time>2018-05-21T09:23:12Z</time>
      </trkpt>
      <trkpt lat="41.589872" lon="1.853432">
        <ele>111.166</ele>
        <time>2018-05-21T09:23:17Z</time>
      </trkpt>
      <trkpt lat="41.589796" lon="1.853504">
        <ele>111.742</ele>
        <time>2018-05-21T09:23:23Z</time>
      </trkpt>
      <trkpt lat="41.589693" lon="1.853585">
        <ele>112.622</ele>
        <time>2018-05-21T09:23:40Z</time>
      </trkpt>
      <trkpt lat="41.589610" lon="1.853635">
        <ele>112.614</ele>
        <time>2018-05-21T09:23:45Z</time>
      </trkpt>
      <trkpt lat="41.589552" lon="1.853729">
        <ele>113.608</ele>
        <time>2018-05-21T09:23:55Z</time>
      </trkpt>
      <trkpt lat="41.589467" lon="1.853771">
        <ele>114.257</ele>
        <time>2018-05-21T09:24:02Z</time>
      </trkpt>
      <trkpt lat="41.589397" lon="1.853849">
        <ele>114.638</ele>
        <time>2018-05-21T09:24:09Z</time>
      </trkpt>
      <trkpt lat="41.589319" lon="1.853909">
        <ele>114.764</ele>
        <time>2018-05-21T09:24:17Z</time>
      </trkpt>
      <trkpt lat="41.589230" lon="1.853974">
        <ele>114.855</ele>
        <time>2018-05-21T09:24:24Z</time>
      </trkpt>
      <trkpt lat="41.589184" lon="1.854022">
        <ele>114.978</ele>
        <time>2018-05-21T09:24:33Z</time>
      </trkpt>
      <trkpt lat="41.589133" lon="1.854062">
        <ele>115.176</ele>
        <time>2018-05-21T09:24:43Z</time>
      </trkpt>
      <trkpt lat="41.589039" lon="1.854141">
        <ele>115.165</ele>
        <time>2018-05-21T09:24:49Z</time>
      </trkpt>
      <trkpt lat="41.588974" lon="1.854211">
        <ele>115.095</ele>
        <time>2018-05-21T09:24:56Z</time>
      </trkpt>
      <trkpt lat="41.588831" lon="1.854301">
        <ele>115.177</ele>
        <time>2018-05-21T09:25:02Z</time>
      </trkpt>
      <trkpt lat="41.588761" lon="1.854347">
        <ele>116.061</ele>
        <time>2018-05-21T09:25:09Z</time>
      </trkpt>
      <trkpt lat="41.588673" lon="1.854432">
        <ele>118.027</ele>
        <time>2018-05-21T09:25:18Z</time>
      </trkpt>
      <trkpt lat="41.588593" lon="1.854496">
        <ele>119.808</ele>
        <time>2018-05-21T09:25:24Z</time>
      </trkpt>
      <trkpt lat="41.588506" lon="1.854547">
        <ele>121.890</ele>
        <time>2018-05-21T09:25:31Z</time>
      </trkpt>
      <trkpt lat="41.588421" lon="1.854611">
        <ele>123.421</ele>
        <time>2018-05-21T09:25:38Z</time>
      </trkpt>
      <trkpt lat="41.588331" lon="1.854684">
        <ele>125.497</ele>
        <time>2018-05-21T09:25:47Z</time>
      </trkpt>
      <trkpt lat="41.588245" lon="1.854743">
        <ele>126.688</ele>
        <time>2018-05-21T09:25:54Z</time>
      </trkpt>
      <trkpt lat="41.588177" lon="1.854834">
        <ele>127.691</ele>
        <time>2018-05-21T09:26:00Z</time>
      </trkpt>
      <trkpt lat="41.588080" lon="1.854906">
        <ele>128.349</ele>
        <time>2018-05-21T09:26:13Z</time>
      </trkpt>
      <trkpt lat="41.588017" lon="1.854965">
        <ele>128.478</ele>
        <time>2018-05-21T09:26:19Z</time>
      </trkpt>
      <trkpt lat="41.587909" lon="1.854992">
        <ele>127.138</ele>
        <time>2018-05-21T09:26:23Z</time>
      </trkpt>
      <trkpt lat="41.587826" lon="1.855044">
        <ele>124.698</ele>
        <time>2018-05-21T09:26:33Z</time>
      </trkpt>
      <trkpt lat="41.587727" lon="1.855075">
        <ele>122.115</ele>
        <time>2018-05-21T09:26:39Z</time>
      </trkpt>
      <trkpt lat="41.587638" lon="1.855131">
        <ele>120.326</ele>
        <time>2018-05-21T09:26:44Z</time>
      </trkpt>
      <trkpt lat="41.587544" lon="1.855175">
        <ele>118.308</ele>
        <time>2018-05-21T09:26:52Z</time>
      </trkpt>
      <trkpt lat="41.587493" lon="1.855164">
        <ele>118.232</ele>
        <time>2018-05-21T09:26:59Z</time>
      </trkpt>
      <trkpt lat="41.587410" lon="1.855263">
        <ele>120.483</ele>
        <time>2018-05-21T09:27:08Z</time>
      </trkpt>
      <trkpt lat="41.587345" lon="1.855323">
        <ele>124.689</ele>
        <time>2018-05-21T09:27:20Z</time>
      </trkpt>
      <trkpt lat="41.587245" lon="1.855409">
        <ele>127.010</ele>
        <time>2018-05-21T09:27:30Z</time>
      </trkpt>
      <trkpt lat="41.587119" lon="1.855450">
        <ele>127.343</ele>
        <time>2018-05-21T09:27:40Z</time>
      </trkpt>
      <trkpt lat="41.587026" lon="1.855502">
        <ele>127.121</ele>
        <time>2018-05-21T09:27:47Z</time>
      </trkpt>
      <trkpt lat="41.586927" lon="1.855509">
        <ele>125.230</ele>
        <time>2018-05-21T09:28:04Z</time>
      </trkpt>
      <trkpt lat="41.586819" lon="1.855544">
        <ele>125.590</ele>
        <time>2018-05-21T09:28:10Z</time>
      </trkpt>
      <trkpt lat="41.586749" lon="1.855590">
        <ele>125.392</ele>
        <time>2018-05-21T09:28:17Z</time>
      </trkpt>
      <trkpt lat="41.586642" lon="1.855637">
        <ele>124.073</ele>
        <time>2018-05-21T09:28:28Z</time>
      </trkpt>
      <trkpt lat="41.586545" lon="1.855664">
        <ele>122.920</ele>
        <time>2018-05-21T09:28:35Z</time>
      </trkpt>
      <trkpt lat="41.586431" lon="1.855733">
        <ele>122.508</ele>
        <time>2018-05-21T09:28:38Z</time>
      </trkpt>
      <trkpt lat="41.586358" lon="1.855803">
        <ele>121.892</ele>
        <time>2018-05-21T09:28:47Z</time>
      </trkpt>
      <trkpt lat="41.586295" lon="1.855886">
        <ele>120.883</ele>
        <time>2018-05-21T09:28:54Z</time>
      </trkpt>
      <trkpt lat="41.586234" lon="1.855949">
        <ele>120.629</ele>
        <time>2018-05-21T09:29:04Z</time>
      </trkpt>
      <trkpt lat="41.586145" lon="1.856005">
        <ele>121.670</ele>
        <time>2018-05-21T09:29:14Z</time>
      </trkpt>
      <trkpt lat="41.586059" lon="1.856060">
        <ele>121.093</ele>
        <time>2018-05-21T09:29:19Z</time>
      </trkpt>
      <trkpt lat="41.585965" lon="1.856098">
        <ele>120.411</ele>
        <time>2018-05-21T09:29:20Z</time>
      </trkpt>
      <trkpt lat="41.585887" lon="1.856133">
        <ele>119.350</ele>
        <time>2018-05-21T09:29:22Z</time>
      </trkpt>
      <trkpt lat="41.585806" lon="1.856199">
        <ele>118.390</ele>
        <time>2018-05-21T09:29:37Z</time>
      </trkpt>
      <trkpt lat="41.585744" lon="1.856292">
        <ele>118.198</ele>
        <time>2018-05-21T09:29:44Z</time>
      </trkpt>
      <trkpt lat="41.585650" lon="1.856379">
        <ele>118.415</ele>
        <time>2018-05-21T09:29:54Z</time>
      </trkpt>
      <trkpt lat="41.585601" lon="1.856408">
        <ele>118.526</ele>
        <time>2018-05-21T09:30:00Z</time>
      </trkpt>
      <trkpt lat="41.585486" lon="1.856470">
        <ele>118.108</ele>
        <time>2018-05-21T09:30:05Z</time>
      </trkpt>
      <trkpt lat="41.585417" lon="1.856540">
        <ele>117.272</ele>
        <time>2018-05-21T09:30:11Z</time>
      </trkpt>
      <trkpt lat="41.585337" lon="1.856628">
        <ele>116.583</ele>
        <time>2018-05-21T09:30:22Z</time>
      </trkpt>
      <trkpt lat="41.585260" lon="1.856705">
        <ele>116.249</ele>
        <time>2018-05-21T09:30:31Z</time>
      </trkpt>
      <trkpt lat="41.585173" lon="1.856767">
        <ele>116.590</ele>
        <time>2018-05-21T09:30:34Z</time>
      </trkpt>
      <trkpt lat="41.585124" lon="1.856848">
        <ele>116.533</ele>
        <time>2018-05-21T09:30:48Z</time>
      </trkpt>
      <trkpt lat="41.585036" lon="1.856898">
        <ele>116.121</ele>
        <time>2018-05-21T09:30:53Z</time>
      </trkpt>
      <trkpt lat="41.584954" lon="1.856962">
        <ele>115.660</ele>
        <time>2018-05-21T09:31:01Z</time>
      </trkpt>
      <trkpt lat="41.584857" lon="1.857047">
        <ele>115.980</ele>
        <time>2018-05-21T09:31:09Z</time>
      </trkpt>
      <trkpt lat="41.584786" lon="1.857133">
        <ele>116.329</ele>
        <time>2018-05-21T09:31:15Z</time>
      </trkpt>
      <trkpt lat="41.584716" lon="1.857222">
        <ele>117.100</ele>
        <time>2018-05-21T09:31:22Z</time>
      </trkpt>
      <trkpt lat="41.584640" lon="1.857298">
        <ele>117.720</ele>
        <time>2018-05-21T09:31:29Z</time>
      </trkpt>
      <trkpt lat="41.584562" lon="1.857366">
        <ele>117.908</ele>
        <time>2018-05-21T09:31:36Z</time>
      </trkpt>
      <trkpt lat="41.584462" lon="1.857413">
        <ele>117.745</ele>
        <time>2018-05-21T09:31:44Z</time>
      </trkpt>
      <trkpt lat="41.584386" lon="1.857500">
        <ele>117.276</ele>
        <time>2018-05-21T09:31:52Z</time>
      </trkpt>
      <trkpt lat="41.584320" lon="1.857590">
        <ele>116.932</ele>
        <time>2018-05-21T09:31:58Z</time>
      </trkpt>
      <trkpt lat="41.584245" lon="1.857695">
        <ele>116.753</ele>
        <time>2018-05-21T09:32:06Z</time>
      </trkpt>
      <trkpt lat="41.584171" lon="1.857784">
        <ele>117.216</ele>
        <time>2018-05-21T09:32:14Z</time>
      </trkpt>
      <trkpt lat="41.584120" lon="1.857827">
        <ele>117.794</ele>
        <time>2018-05-21T09:32:20Z</time>
      </trkpt>
      <trkpt lat="41.584042" lon="1.857894">
        <ele>118.463</ele>
        <time>2018-05-21T09:32:32Z</time>
      </trkpt>
      <trkpt lat="41.583939" lon="1.857980">
        <ele>118.273</ele>
        <time>2018-05-21T09:32:40Z</time>
      </trkpt>
      <trkpt lat="41.583834" lon="1.858063">
        <ele>117.969</ele>
        <time>2018-05-21T09:32:47Z</time>
      </trkpt>
      <trkpt lat="41.583729" lon="1.858176">
        <ele>117.404</ele>
        <time>2018-05-21T09:32:55Z</time>
      </trkpt>
      <trkpt lat="41.583778" lon="1.858307">
        <ele>117.324</ele>
        <time>2018-05-21T09:33:02Z</time>
      </trkpt>
      <trkpt lat="41.583758" lon="1.858435">
        <ele>117.808</ele>
        <time>2018-05-21T09:33:10Z</time>
      </trkpt>
      <trkpt lat="41.583786" lon="1.858551">
        <ele>119.279</ele>
        <time>2018-05-21T09:33:28Z</time>
      </trkpt>
      <trkpt lat="41.583846" lon="1.858668">
        <ele>120.220</ele>
        <time>2018-05-21T09:33:38Z</time>
      </trkpt>
      <trkpt lat="41.583868" lon="1.858791">
        <ele>121.896</ele>
        <time>2018-05-21T09:33:51Z</time>
      </trkpt>
      <trkpt lat="41.583864" lon="1.858850">
        <ele>123.567</ele>
        <time>2018-05-21T09:34:42Z</time>
      </trkpt>
      <trkpt lat="41.583931" lon="1.858923">
        <ele>123.930</ele>
        <time>2018-05-21T09:35:34Z</time>
      </trkpt>
      <trkpt lat="41.584104" lon="1.859089">
        <ele>124.628</ele>
        <time>2018-05-21T09:35:52Z</time>
      </trkpt>
      <trkpt lat="41.584260" lon="1.859248">
        <ele>146.847</ele>
        <time>2018-05-21T09:43:20Z</time>
      </trkpt>
      <trkpt lat="41.584354" lon="1.859377">
        <ele>139.027</ele>
        <time>2018-05-21T09:43:49Z</time>
      </trkpt>
      <trkpt lat="41.584433" lon="1.859472">
        <ele>140.697</ele>
        <time>2018-05-21T09:44:10Z</time>
      </trkpt>
      <trkpt lat="41.584476" lon="1.859553">
        <ele>142.423</ele>
        <time>2018-05-21T09:44:19Z</time>
      </trkpt>
      <trkpt lat="41.584505" lon="1.859660">
        <ele>144.625</ele>
        <time>2018-05-21T09:45:00Z</time>
      </trkpt>
      <trkpt lat="41.584558" lon="1.859778">
        <ele>145.408</ele>
        <time>2018-05-21T09:45:11Z</time>
      </trkpt>
      <trkpt lat="41.584600" lon="1.859845">
        <ele>146.062</ele>
        <time>2018-05-21T09:45:16Z</time>
      </trkpt>
      <trkpt lat="41.584616" lon="1.859916">
        <ele>147.363</ele>
        <time>2018-05-21T09:45:31Z</time>
      </trkpt>
      <trkpt lat="41.584638" lon="1.859991">
        <ele>150.929</ele>
        <time>2018-05-21T09:48:13Z</time>
      </trkpt>
      <trkpt lat="41.584645" lon="1.860026">
        <ele>151.140</ele>
        <time>2018-05-21T09:50:23Z</time>
      </trkpt>
      <trkpt lat="41.584650" lon="1.860095">
        <ele>151.673</ele>
        <time>2018-05-21T09:50:49Z</time>
      </trkpt>
      <trkpt lat="41.584665" lon="1.860148">
        <ele>152.761</ele>
        <time>2018-05-21T09:51:08Z</time>
      </trkpt>
      <trkpt lat="41.584672" lon="1.860248">
        <ele>155.090</ele>
        <time>2018-05-21T09:51:36Z</time>
      </trkpt>
      <trkpt lat="41.584670" lon="1.860296">
        <ele>155.930</ele>
        <time>2018-05-21T09:51:46Z</time>
      </trkpt>
      <trkpt lat="41.584668" lon="1.860352">
        <ele>155.639</ele>
        <time>2018-05-21T09:52:22Z</time>
      </trkpt>
      <trkpt lat="41.584674" lon="1.860401">
        <ele>153.301</ele>
        <time>2018-05-21T09:53:12Z</time>
      </trkpt>
      <trkpt lat="41.584690" lon="1.860458">
        <ele>152.821</ele>
        <time>2018-05-21T09:53:20Z</time>
      </trkpt>
      <trkpt lat="41.584686" lon="1.860516">
        <ele>152.108</ele>
        <time>2018-05-21T09:54:16Z</time>
      </trkpt>
      <trkpt lat="41.584690" lon="1.860585">
        <ele>151.966</ele>
        <time>2018-05-21T09:57:27Z</time>
      </trkpt>
      <trkpt lat="41.584701" lon="1.860650">
        <ele>152.727</ele>
        <time>2018-05-21T09:58:17Z</time>
      </trkpt>
      <trkpt lat="41.584704" lon="1.860692">
        <ele>154.173</ele>
        <time>2018-05-21T09:59:33Z</time>
      </trkpt>
      <trkpt lat="41.584714" lon="1.860752">
        <ele>155.834</ele>
        <time>2018-05-21T10:00:17Z</time>
      </trkpt>
      <trkpt lat="41.584715" lon="1.860827">
        <ele>157.967</ele>
        <time>2018-05-21T10:00:35Z</time>
      </trkpt>
      <trkpt lat="41.584735" lon="1.860891">
        <ele>160.025</ele>
        <time>2018-05-21T10:00:45Z</time>
      </trkpt>
      <trkpt lat="41.584762" lon="1.860971">
        <ele>164.924</ele>
        <time>2018-05-21T10:01:07Z</time>
      </trkpt>
      <trkpt lat="41.584793" lon="1.861042">
        <ele>168.624</ele>
        <time>2018-05-21T10:01:23Z</time>
      </trkpt>
      <trkpt lat="41.584792" lon="1.861164">
        <ele>171.648</ele>
        <time>2018-05-21T10:01:32Z</time>
      </trkpt>
      <trkpt lat="41.584780" lon="1.861261">
        <ele>181.161</ele>
        <time>2018-05-21T10:02:06Z</time>
      </trkpt>
      <trkpt lat="41.584738" lon="1.861357">
        <ele>184.817</ele>
        <time>2018-05-21T10:02:55Z</time>
      </trkpt>
      <trkpt lat="41.584721" lon="1.861393">
        <ele>188.708</ele>
        <time>2018-05-21T10:09:34Z</time>
      </trkpt>
      <trkpt lat="41.584733" lon="1.861420">
        <ele>190.937</ele>
        <time>2018-05-21T10:11:13Z</time>
      </trkpt>
      <trkpt lat="41.584737" lon="1.861443">
        <ele>193.688</ele>
        <time>2018-05-21T10:13:09Z</time>
      </trkpt>
      <trkpt lat="41.584730" lon="1.861493">
        <ele>193.694</ele>
        <time>2018-05-21T10:14:03Z</time>
      </trkpt>
      <trkpt lat="41.584738" lon="1.861509">
        <ele>194.595</ele>
        <time>2018-05-21T10:19:13Z</time>
      </trkpt>
      <trkpt lat="41.584737" lon="1.861538">
        <ele>194.058</ele>
        <time>2018-05-21T10:23:59Z</time>
      </trkpt>
      <trkpt lat="41.584740" lon="1.861602">
        <ele>195.976</ele>
        <time>2018-05-21T10:26:33Z</time>
      </trkpt>
      <trkpt lat="41.584752" lon="1.861673">
        <ele>199.965</ele>
        <time>2018-05-21T10:26:59Z</time>
      </trkpt>
      <trkpt lat="41.584756" lon="1.861726">
        <ele>203.815</ele>
        <time>2018-05-21T10:27:46Z</time>
      </trkpt>
      <trkpt lat="41.584768" lon="1.861798">
        <ele>205.398</ele>
        <time>2018-05-21T10:29:44Z</time>
      </trkpt>
      <trkpt lat="41.584805" lon="1.861894">
        <ele>206.315</ele>
        <time>2018-05-21T10:30:25Z</time>
      </trkpt>
      <trkpt lat="41.584797" lon="1.862026">
        <ele>209.226</ele>
        <time>2018-05-21T10:30:50Z</time>
      </trkpt>
      <trkpt lat="41.584782" lon="1.862147">
        <ele>212.908</ele>
        <time>2018-05-21T10:31:14Z</time>
      </trkpt>
      <trkpt lat="41.584810" lon="1.862240">
        <ele>215.712</ele>
        <time>2018-05-21T10:32:42Z</time>
      </trkpt>
      <trkpt lat="41.584849" lon="1.862348">
        <ele>218.283</ele>
        <time>2018-05-21T10:32:57Z</time>
      </trkpt>
      <trkpt lat="41.584862" lon="1.862377">
        <ele>221.349</ele>
        <time>2018-05-21T10:34:40Z</time>
      </trkpt>
      <trkpt lat="41.584886" lon="1.862398">
        <ele>221.720</ele>
        <time>2018-05-21T10:36:20Z</time>
      </trkpt>
      <trkpt lat="41.584983" lon="1.862467">
        <ele>223.043</ele>
        <time>2018-05-21T10:36:25Z</time>
      </trkpt>
      <trkpt lat="41.585039" lon="1.862590">
        <ele>230.341</ele>
        <time>2018-05-21T10:36:53Z</time>
      </trkpt>
      <trkpt lat="41.585042" lon="1.862650">
        <ele>236.940</ele>
        <time>2018-05-21T10:38:39Z</time>
      </trkpt>
      <trkpt lat="41.585044" lon="1.862688">
        <ele>238.520</ele>
        <time>2018-05-21T10:40:41Z</time>
      </trkpt>
      <trkpt lat="41.585060" lon="1.862687">
        <ele>241.252</ele>
        <time>2018-05-21T10:42:06Z</time>
      </trkpt>
      <trkpt lat="41.585090" lon="1.862707">
        <ele>241.453</ele>
        <time>2018-05-21T10:43:00Z</time>
      </trkpt>
      <trkpt lat="41.585101" lon="1.862743">
        <ele>242.908</ele>
        <time>2018-05-21T10:43:56Z</time>
      </trkpt>
      <trkpt lat="41.585128" lon="1.862762">
        <ele>243.408</ele>
        <time>2018-05-21T10:49:53Z</time>
      </trkpt>
      <trkpt lat="41.585169" lon="1.862844">
        <ele>248.888</ele>
        <time>2018-05-21T10:50:29Z</time>
      </trkpt>
      <trkpt lat="41.585200" lon="1.862937">
        <ele>256.769</ele>
        <time>2018-05-21T10:51:44Z</time>
      </trkpt>
      <trkpt lat="41.585208" lon="1.862978">
        <ele>261.195</ele>
        <time>2018-05-21T10:51:59Z</time>
      </trkpt>
      <trkpt lat="41.585226" lon="1.863036">
        <ele>271.276</ele>
        <time>2018-05-21T10:53:35Z</time>
      </trkpt>
      <trkpt lat="41.585242" lon="1.863113">
        <ele>270.419</ele>
        <time>2018-05-21T10:53:51Z</time>
      </trkpt>
      <trkpt lat="41.585242" lon="1.863204">
        <ele>270.287</ele>
        <time>2018-05-21T10:53:55Z</time>
      </trkpt>
      <trkpt lat="41.585263" lon="1.863255">
        <ele>272.866</ele>
        <time>2018-05-21T10:54:20Z</time>
      </trkpt>
      <trkpt lat="41.585294" lon="1.863288">
        <ele>275.146</ele>
        <time>2018-05-21T10:54:41Z</time>
      </trkpt>
      <trkpt lat="41.585312" lon="1.863348">
        <ele>275.337</ele>
        <time>2018-05-21T10:54:47Z</time>
      </trkpt>
      <trkpt lat="41.585374" lon="1.863360">
        <ele>278.149</ele>
        <time>2018-05-21T10:55:42Z</time>
      </trkpt>
      <trkpt lat="41.585425" lon="1.863381">
        <ele>280.313</ele>
        <time>2018-05-21T10:58:57Z</time>
      </trkpt>
      <trkpt lat="41.585427" lon="1.863379">
        <ele>282.608</ele>
        <time>2018-05-21T11:02:02Z</time>
      </trkpt>
      <trkpt lat="41.585453" lon="1.863404">
        <ele>282.286</ele>
        <time>2018-05-21T11:06:52Z</time>
      </trkpt>
      <trkpt lat="41.585462" lon="1.863424">
        <ele>283.267</ele>
        <time>2018-05-21T11:15:32Z</time>
      </trkpt>
      <trkpt lat="41.585485" lon="1.863455">
        <ele>283.233</ele>
        <time>2018-05-21T11:21:35Z</time>
      </trkpt>
      <trkpt lat="41.585498" lon="1.863489">
        <ele>282.894</ele>
        <time>2018-05-21T11:24:25Z</time>
      </trkpt>
      <trkpt lat="41.585591" lon="1.863493">
        <ele>283.617</ele>
        <time>2018-05-21T11:24:44Z</time>
      </trkpt>
      <trkpt lat="41.585683" lon="1.863486">
        <ele>284.495</ele>
        <time>2018-05-21T11:24:54Z</time>
      </trkpt>
      <trkpt lat="41.585779" lon="1.863488">
        <ele>286.134</ele>
        <time>2018-05-21T11:25:05Z</time>
      </trkpt>
      <trkpt lat="41.585826" lon="1.863604">
        <ele>288.554</ele>
        <time>2018-05-21T11:25:18Z</time>
      </trkpt>
      <trkpt lat="41.585898" lon="1.863715">
        <ele>292.092</ele>
        <time>2018-05-21T11:25:58Z</time>
      </trkpt>
      <trkpt lat="41.585941" lon="1.863825">
        <ele>294.873</ele>
        <time>2018-05-21T11:26:07Z</time>
      </trkpt>
      <trkpt lat="41.585961" lon="1.863884">
        <ele>302.220</ele>
        <time>2018-05-21T11:28:21Z</time>
      </trkpt>
      <trkpt lat="41.585972" lon="1.863944">
        <ele>302.708</ele>
        <time>2018-05-21T11:29:56Z</time>
      </trkpt>
      <trkpt lat="41.585972" lon="1.863971">
        <ele>302.842</ele>
        <time>2018-05-21T11:30:13Z</time>
      </trkpt>
      <trkpt lat="41.585998" lon="1.864068">
        <ele>302.823</ele>
        <time>2018-05-21T11:31:16Z</time>
      </trkpt>
      <trkpt lat="41.586010" lon="1.864130">
        <ele>311.799</ele>
        <time>2018-05-21T11:33:59Z</time>
      </trkpt>
      <trkpt lat="41.586028" lon="1.864179">
        <ele>312.410</ele>
        <time>2018-05-21T11:36:52Z</time>
      </trkpt>
      <trkpt lat="41.586051" lon="1.864243">
        <ele>312.073</ele>
        <time>2018-05-21T11:45:56Z</time>
      </trkpt>
      <trkpt lat="41.586064" lon="1.864371">
        <ele>312.191</ele>
        <time>2018-05-21T11:46:02Z</time>
      </trkpt>
      <trkpt lat="41.586100" lon="1.864464">
        <ele>314.730</ele>
        <time>2018-05-21T11:46:16Z</time>
      </trkpt>
      <trkpt lat="41.586112" lon="1.864587">
        <ele>320.440</ele>
        <time>2018-05-21T11:46:48Z</time>
      </trkpt>
      <trkpt lat="41.586096" lon="1.864722">
        <ele>323.339</ele>
        <time>2018-05-21T11:48:33Z</time>
      </trkpt>
      <trkpt lat="41.586110" lon="1.864755">
        <ele>324.701</ele>
        <time>2018-05-21T11:49:28Z</time>
      </trkpt>
      <trkpt lat="41.586141" lon="1.864772">
        <ele>324.521</ele>
        <time>2018-05-21T11:57:47Z</time>
      </trkpt>
      <trkpt lat="41.586191" lon="1.864790">
        <ele>326.508</ele>
        <time>2018-05-21T11:58:15Z</time>
      </trkpt>
      <trkpt lat="41.586287" lon="1.864803">
        <ele>329.296</ele>
        <time>2018-05-21T11:58:29Z</time>
      </trkpt>
      <trkpt lat="41.586389" lon="1.864814">
        <ele>332.467</ele>
        <time>2018-05-21T11:59:00Z</time>
      </trkpt>
      <trkpt lat="41.586399" lon="1.864924">
        <ele>334.483</ele>
        <time>2018-05-21T11:59:50Z</time>
      </trkpt>
      <trkpt lat="41.586397" lon="1.864975">
        <ele>334.834</ele>
        <time>2018-05-21T12:01:55Z</time>
      </trkpt>
      <trkpt lat="41.586404" lon="1.865053">
        <ele>335.497</ele>
        <time>2018-05-21T12:06:06Z</time>
      </trkpt>
      <trkpt lat="41.586440" lon="1.865148">
        <ele>335.685</ele>
        <time>2018-05-21T12:06:10Z</time>
      </trkpt>
      <trkpt lat="41.586486" lon="1.865221">
        <ele>336.254</ele>
        <time>2018-05-21T12:06:17Z</time>
      </trkpt>
      <trkpt lat="41.586526" lon="1.865297">
        <ele>336.424</ele>
        <time>2018-05-21T12:06:22Z</time>
      </trkpt>
      <trkpt lat="41.586599" lon="1.865467">
        <ele>336.346</ele>
        <time>2018-05-21T12:06:28Z</time>
      </trkpt>
      <trkpt lat="41.586647" lon="1.865603">
        <ele>335.988</ele>
        <time>2018-05-21T12:06:35Z</time>
      </trkpt>
      <trkpt lat="41.586668" lon="1.865728">
        <ele>335.516</ele>
        <time>2018-05-21T12:06:43Z</time>
      </trkpt>
      <trkpt lat="41.586685" lon="1.865858">
        <ele>335.208</ele>
        <time>2018-05-21T12:06:51Z</time>
      </trkpt>
      <trkpt lat="41.586718" lon="1.865967">
        <ele>335.467</ele>
        <time>2018-05-21T12:06:57Z</time>
      </trkpt>
      <trkpt lat="41.586761" lon="1.866092">
        <ele>336.268</ele>
        <time>2018-05-21T12:07:03Z</time>
      </trkpt>
      <trkpt lat="41.586795" lon="1.866193">
        <ele>337.864</ele>
        <time>2018-05-21T12:07:11Z</time>
      </trkpt>
      <trkpt lat="41.586813" lon="1.866341">
        <ele>339.345</ele>
        <time>2018-05-21T12:07:18Z</time>
      </trkpt>
      <trkpt lat="41.586817" lon="1.866456">
        <ele>341.088</ele>
        <time>2018-05-21T12:07:26Z</time>
      </trkpt>
      <trkpt lat="41.586812" lon="1.866593">
        <ele>341.926</ele>
        <time>2018-05-21T12:07:33Z</time>
      </trkpt>
      <trkpt lat="41.586815" lon="1.866716">
        <ele>342.995</ele>
        <time>2018-05-21T12:07:40Z</time>
      </trkpt>
      <trkpt lat="41.586771" lon="1.866841">
        <ele>343.765</ele>
        <time>2018-05-21T12:07:47Z</time>
      </trkpt>
      <trkpt lat="41.586726" lon="1.866954">
        <ele>344.253</ele>
        <time>2018-05-21T12:07:53Z</time>
      </trkpt>
      <trkpt lat="41.586659" lon="1.867064">
        <ele>344.804</ele>
        <time>2018-05-21T12:08:02Z</time>
      </trkpt>
      <trkpt lat="41.586553" lon="1.867093">
        <ele>345.514</ele>
        <time>2018-05-21T12:08:12Z</time>
      </trkpt>
      <trkpt lat="41.586474" lon="1.867078">
        <ele>346.008</ele>
        <time>2018-05-21T12:08:20Z</time>
      </trkpt>
      <trkpt lat="41.586383" lon="1.867022">
        <ele>346.348</ele>
        <time>2018-05-21T12:08:27Z</time>
      </trkpt>
      <trkpt lat="41.586289" lon="1.866971">
        <ele>346.869</ele>
        <time>2018-05-21T12:08:34Z</time>
      </trkpt>
      <trkpt lat="41.586181" lon="1.866932">
        <ele>347.225</ele>
        <time>2018-05-21T12:08:40Z</time>
      </trkpt>
      <trkpt lat="41.586091" lon="1.866952">
        <ele>348.446</ele>
        <time>2018-05-21T12:08:49Z</time>
      </trkpt>
      <trkpt lat="41.586007" lon="1.867017">
        <ele>350.249</ele>
        <time>2018-05-21T12:08:58Z</time>
      </trkpt>
      <trkpt lat="41.585930" lon="1.867091">
        <ele>352.687</ele>
        <time>2018-05-21T12:09:07Z</time>
      </trkpt>
      <trkpt lat="41.585852" lon="1.867164">
        <ele>354.316</ele>
        <time>2018-05-21T12:09:12Z</time>
      </trkpt>
      <trkpt lat="41.585760" lon="1.867292">
        <ele>356.586</ele>
        <time>2018-05-21T12:09:18Z</time>
      </trkpt>
      <trkpt lat="41.585704" lon="1.867348">
        <ele>360.649</ele>
        <time>2018-05-21T12:09:29Z</time>
      </trkpt>
      <trkpt lat="41.585616" lon="1.867428">
        <ele>363.102</ele>
        <time>2018-05-21T12:09:38Z</time>
      </trkpt>
      <trkpt lat="41.585538" lon="1.867534">
        <ele>365.622</ele>
        <time>2018-05-21T12:09:47Z</time>
      </trkpt>
      <trkpt lat="41.585445" lon="1.867576">
        <ele>367.508</ele>
        <time>2018-05-21T12:09:55Z</time>
      </trkpt>
      <trkpt lat="41.585308" lon="1.867708">
        <ele>368.647</ele>
        <time>2018-05-21T12:10:01Z</time>
      </trkpt>
      <trkpt lat="41.585250" lon="1.867769">
        <ele>369.378</ele>
        <time>2018-05-21T12:10:09Z</time>
      </trkpt>
      <trkpt lat="41.585196" lon="1.867819">
        <ele>369.384</ele>
        <time>2018-05-21T12:10:21Z</time>
      </trkpt>
      <trkpt lat="41.585146" lon="1.867896">
        <ele>368.755</ele>
        <time>2018-05-21T12:10:27Z</time>
      </trkpt>
      <trkpt lat="41.585070" lon="1.867940">
        <ele>367.958</ele>
        <time>2018-05-21T12:10:35Z</time>
      </trkpt>
      <trkpt lat="41.585012" lon="1.868018">
        <ele>367.396</ele>
        <time>2018-05-21T12:10:43Z</time>
      </trkpt>
      <trkpt lat="41.584926" lon="1.868073">
        <ele>367.135</ele>
        <time>2018-05-21T12:10:50Z</time>
      </trkpt>
      <trkpt lat="41.584872" lon="1.868106">
        <ele>367.465</ele>
        <time>2018-05-21T12:10:57Z</time>
      </trkpt>
      <trkpt lat="41.584787" lon="1.868145">
        <ele>368.088</ele>
        <time>2018-05-21T12:11:02Z</time>
      </trkpt>
      <trkpt lat="41.584702" lon="1.868184">
        <ele>368.924</ele>
        <time>2018-05-21T12:11:11Z</time>
      </trkpt>
      <trkpt lat="41.584648" lon="1.868234">
        <ele>370.126</ele>
        <time>2018-05-21T12:11:18Z</time>
      </trkpt>
      <trkpt lat="41.584609" lon="1.868256">
        <ele>371.208</ele>
        <time>2018-05-21T12:11:24Z</time>
      </trkpt>
      <trkpt lat="41.584589" lon="1.868285">
        <ele>372.541</ele>
        <time>2018-05-21T12:11:32Z</time>
      </trkpt>
      <trkpt lat="41.584575" lon="1.868320">
        <ele>373.212</ele>
        <time>2018-05-21T12:11:38Z</time>
      </trkpt>
      <trkpt lat="41.584559" lon="1.868336">
        <ele>373.588</ele>
        <time>2018-05-21T12:11:59Z</time>
      </trkpt>
      <trkpt lat="41.584528" lon="1.868341">
        <ele>373.239</ele>
        <time>2018-05-21T12:12:08Z</time>
      </trkpt>
      <trkpt lat="41.584507" lon="1.868329">
        <ele>375.552</ele>
        <time>2018-05-21T12:14:26Z</time>
      </trkpt>
      <trkpt lat="41.584478" lon="1.868290">
        <ele>374.960</ele>
        <time>2018-05-21T12:14:45Z</time>
      </trkpt>
      <trkpt lat="41.584437" lon="1.868157">
        <ele>374.829</ele>
        <time>2018-05-21T12:14:54Z</time>
      </trkpt>
      <trkpt lat="41.584383" lon="1.868031">
        <ele>375.119</ele>
        <time>2018-05-21T12:15:01Z</time>
      </trkpt>
      <trkpt lat="41.584365" lon="1.867962">
        <ele>376.089</ele>
        <time>2018-05-21T12:15:07Z</time>
      </trkpt>
      <trkpt lat="41.584305" lon="1.867840">
        <ele>377.206</ele>
        <time>2018-05-21T12:15:13Z</time>
      </trkpt>
      <trkpt lat="41.584257" lon="1.867734">
        <ele>378.726</ele>
        <time>2018-05-21T12:15:21Z</time>
      </trkpt>
      <trkpt lat="41.584176" lon="1.867637">
        <ele>379.808</ele>
        <time>2018-05-21T12:15:29Z</time>
      </trkpt>
      <trkpt lat="41.584063" lon="1.867495">
        <ele>380.351</ele>
        <time>2018-05-21T12:15:36Z</time>
      </trkpt>
      <trkpt lat="41.584040" lon="1.867453">
        <ele>380.252</ele>
        <time>2018-05-21T12:15:43Z</time>
      </trkpt>
      <trkpt lat="41.584007" lon="1.867422">
        <ele>378.198</ele>
        <time>2018-05-21T12:15:57Z</time>
      </trkpt>
      <trkpt lat="41.583881" lon="1.867477">
        <ele>374.839</ele>
        <time>2018-05-21T12:16:19Z</time>
      </trkpt>
      <trkpt lat="41.583794" lon="1.867436">
        <ele>371.522</ele>
        <time>2018-05-21T12:16:43Z</time>
      </trkpt>
      <trkpt lat="41.583720" lon="1.867352">
        <ele>368.440</ele>
        <time>2018-05-21T12:16:58Z</time>
      </trkpt>
      <trkpt lat="41.583623" lon="1.867346">
        <ele>364.439</ele>
        <time>2018-05-21T12:17:19Z</time>
      </trkpt>
      <trkpt lat="41.583518" lon="1.867297">
        <ele>360.279</ele>
        <time>2018-05-21T12:17:38Z</time>
      </trkpt>
      <trkpt lat="41.583417" lon="1.867264">
        <ele>355.955</ele>
        <time>2018-05-21T12:18:08Z</time>
      </trkpt>
      <trkpt lat="41.583343" lon="1.867181">
        <ele>354.307</ele>
        <time>2018-05-21T12:18:15Z</time>
      </trkpt>
      <trkpt lat="41.583262" lon="1.867111">
        <ele>352.417</ele>
        <time>2018-05-21T12:18:27Z</time>
      </trkpt>
      <trkpt lat="41.583196" lon="1.867024">
        <ele>350.908</ele>
        <time>2018-05-21T12:18:37Z</time>
      </trkpt>
      <trkpt lat="41.583136" lon="1.866931">
        <ele>348.938</ele>
        <time>2018-05-21T12:18:53Z</time>
      </trkpt>
      <trkpt lat="41.583108" lon="1.866814">
        <ele>347.479</ele>
        <time>2018-05-21T12:19:10Z</time>
      </trkpt>
      <trkpt lat="41.583062" lon="1.866707">
        <ele>346.515</ele>
        <time>2018-05-21T12:19:21Z</time>
      </trkpt>
      <trkpt lat="41.583057" lon="1.866590">
        <ele>345.446</ele>
        <time>2018-05-21T12:19:33Z</time>
      </trkpt>
      <trkpt lat="41.582974" lon="1.866529">
        <ele>342.319</ele>
        <time>2018-05-21T12:19:51Z</time>
      </trkpt>
      <trkpt lat="41.582911" lon="1.866435">
        <ele>339.697</ele>
        <time>2018-05-21T12:20:02Z</time>
      </trkpt>
      <trkpt lat="41.582843" lon="1.866533">
        <ele>335.416</ele>
        <time>2018-05-21T12:20:16Z</time>
      </trkpt>
      <trkpt lat="41.582775" lon="1.866573">
        <ele>333.856</ele>
        <time>2018-05-21T12:20:25Z</time>
      </trkpt>
      <trkpt lat="41.582728" lon="1.866528">
        <ele>328.848</ele>
        <time>2018-05-21T12:21:36Z</time>
      </trkpt>
      <trkpt lat="41.582672" lon="1.866437">
        <ele>328.361</ele>
        <time>2018-05-21T12:22:45Z</time>
      </trkpt>
      <trkpt lat="41.582677" lon="1.866347">
        <ele>326.517</ele>
        <time>2018-05-21T12:24:16Z</time>
      </trkpt>
      <trkpt lat="41.582677" lon="1.866278">
        <ele>323.208</ele>
        <time>2018-05-21T12:24:40Z</time>
      </trkpt>
      <trkpt lat="41.582619" lon="1.866139">
        <ele>318.787</ele>
        <time>2018-05-21T12:25:00Z</time>
      </trkpt>
      <trkpt lat="41.582601" lon="1.866010">
        <ele>314.778</ele>
        <time>2018-05-21T12:25:09Z</time>
      </trkpt>
      <trkpt lat="41.582532" lon="1.865939">
        <ele>312.064</ele>
        <time>2018-05-21T12:25:15Z</time>
      </trkpt>
      <trkpt lat="41.582484" lon="1.865850">
        <ele>304.955</ele>
        <time>2018-05-21T12:25:49Z</time>
      </trkpt>
      <trkpt lat="41.582434" lon="1.865742">
        <ele>303.128</ele>
        <time>2018-05-21T12:26:10Z</time>
      </trkpt>
      <trkpt lat="41.582393" lon="1.865627">
        <ele>302.116</ele>
        <time>2018-05-21T12:26:19Z</time>
      </trkpt>
      <trkpt lat="41.582343" lon="1.865526">
        <ele>301.545</ele>
        <time>2018-05-21T12:26:28Z</time>
      </trkpt>
      <trkpt lat="41.582322" lon="1.865405">
        <ele>300.945</ele>
        <time>2018-05-21T12:26:38Z</time>
      </trkpt>
      <trkpt lat="41.582320" lon="1.865275">
        <ele>300.583</ele>
        <time>2018-05-21T12:26:52Z</time>
      </trkpt>
      <trkpt lat="41.582295" lon="1.865159">
        <ele>299.725</ele>
        <time>2018-05-21T12:27:03Z</time>
      </trkpt>
      <trkpt lat="41.582253" lon="1.865047">
        <ele>298.517</ele>
        <time>2018-05-21T12:27:22Z</time>
      </trkpt>
      <trkpt lat="41.582287" lon="1.864903">
        <ele>295.608</ele>
        <time>2018-05-21T12:27:56Z</time>
      </trkpt>
      <trkpt lat="41.582285" lon="1.864817">
        <ele>292.991</ele>
        <time>2018-05-21T12:28:42Z</time>
      </trkpt>
      <trkpt lat="41.582263" lon="1.864704">
        <ele>289.532</ele>
        <time>2018-05-21T12:28:54Z</time>
      </trkpt>
      <trkpt lat="41.582222" lon="1.864618">
        <ele>287.398</ele>
        <time>2018-05-21T12:29:06Z</time>
      </trkpt>
      <trkpt lat="41.582193" lon="1.864545">
        <ele>283.979</ele>
        <time>2018-05-21T12:29:36Z</time>
      </trkpt>
      <trkpt lat="41.582196" lon="1.864475">
        <ele>278.582</ele>
        <time>2018-05-21T12:29:51Z</time>
      </trkpt>
      <trkpt lat="41.582202" lon="1.864385">
        <ele>277.230</ele>
        <time>2018-05-21T12:30:49Z</time>
      </trkpt>
      <trkpt lat="41.582199" lon="1.864365">
        <ele>276.479</ele>
        <time>2018-05-21T12:34:02Z</time>
      </trkpt>
      <trkpt lat="41.582198" lon="1.864339">
        <ele>275.429</ele>
        <time>2018-05-21T12:36:11Z</time>
      </trkpt>
      <trkpt lat="41.582212" lon="1.864296">
        <ele>272.548</ele>
        <time>2018-05-21T12:37:30Z</time>
      </trkpt>
      <trkpt lat="41.582223" lon="1.864256">
        <ele>272.261</ele>
        <time>2018-05-21T12:38:30Z</time>
      </trkpt>
      <trkpt lat="41.582228" lon="1.864196">
        <ele>267.317</ele>
        <time>2018-05-21T12:39:15Z</time>
      </trkpt>
      <trkpt lat="41.582220" lon="1.864153">
        <ele>261.908</ele>
        <time>2018-05-21T12:39:45Z</time>
      </trkpt>
      <trkpt lat="41.582228" lon="1.864107">
        <ele>262.257</ele>
        <time>2018-05-21T12:43:48Z</time>
      </trkpt>
      <trkpt lat="41.582227" lon="1.864042">
        <ele>262.048</ele>
        <time>2018-05-21T12:46:04Z</time>
      </trkpt>
      <trkpt lat="41.582214" lon="1.863974">
        <ele>258.054</ele>
        <time>2018-05-21T12:47:08Z</time>
      </trkpt>
      <trkpt lat="41.582258" lon="1.863901">
        <ele>259.055</ele>
        <time>2018-05-21T12:47:34Z</time>
      </trkpt>
      <trkpt lat="41.582260" lon="1.863825">
        <ele>256.648</ele>
        <time>2018-05-21T12:47:41Z</time>
      </trkpt>
      <trkpt lat="41.582271" lon="1.863772">
        <ele>254.186</ele>
        <time>2018-05-21T12:49:56Z</time>
      </trkpt>
      <trkpt lat="41.582260" lon="1.863715">
        <ele>249.855</ele>
        <time>2018-05-21T12:50:07Z</time>
      </trkpt>
      <trkpt lat="41.582236" lon="1.863622">
        <ele>241.485</ele>
        <time>2018-05-21T12:50:35Z</time>
      </trkpt>
      <trkpt lat="41.582182" lon="1.863536">
        <ele>236.648</ele>
        <time>2018-05-21T12:50:46Z</time>
      </trkpt>
      <trkpt lat="41.582112" lon="1.863460">
        <ele>226.261</ele>
        <time>2018-05-21T12:51:44Z</time>
      </trkpt>
      <trkpt lat="41.582058" lon="1.863360">
        <ele>220.117</ele>
        <time>2018-05-21T12:52:24Z</time>
      </trkpt>
      <trkpt lat="41.582012" lon="1.863300">
        <ele>217.208</ele>
        <time>2018-05-21T12:52:33Z</time>
      </trkpt>
      <trkpt lat="41.581993" lon="1.863177">
        <ele>210.297</ele>
        <time>2018-05-21T12:52:57Z</time>
      </trkpt>
      <trkpt lat="41.581961" lon="1.863104">
        <ele>203.838</ele>
        <time>2018-05-21T12:53:25Z</time>
      </trkpt>
      <trkpt lat="41.581899" lon="1.863012">
        <ele>196.344</ele>
        <time>2018-05-21T12:54:17Z</time>
      </trkpt>
      <trkpt lat="41.581859" lon="1.862947">
        <ele>192.215</ele>
        <time>2018-05-21T12:54:38Z</time>
      </trkpt>
      <trkpt lat="41.581786" lon="1.862866">
        <ele>185.418</ele>
        <time>2018-05-21T12:55:06Z</time>
      </trkpt>
      <trkpt lat="41.581778" lon="1.862772">
        <ele>178.796</ele>
        <time>2018-05-21T12:55:48Z</time>
      </trkpt>
      <trkpt lat="41.581735" lon="1.862639">
        <ele>174.565</ele>
        <time>2018-05-21T12:56:03Z</time>
      </trkpt>
      <trkpt lat="41.581688" lon="1.862528">
        <ele>167.545</ele>
        <time>2018-05-21T12:56:30Z</time>
      </trkpt>
      <trkpt lat="41.581681" lon="1.862417">
        <ele>161.834</ele>
        <time>2018-05-21T12:57:21Z</time>
      </trkpt>
      <trkpt lat="41.581692" lon="1.862371">
        <ele>158.855</ele>
        <time>2018-05-21T12:57:46Z</time>
      </trkpt>
      <trkpt lat="41.581667" lon="1.862271">
        <ele>157.410</ele>
        <time>2018-05-21T12:57:57Z</time>
      </trkpt>
      <trkpt lat="41.581647" lon="1.862215">
        <ele>155.908</ele>
        <time>2018-05-21T12:58:06Z</time>
      </trkpt>
      <trkpt lat="41.581636" lon="1.862165">
        <ele>152.386</ele>
        <time>2018-05-21T12:58:56Z</time>
      </trkpt>
      <trkpt lat="41.581597" lon="1.862102">
        <ele>150.237</ele>
        <time>2018-05-21T12:59:49Z</time>
      </trkpt>
      <trkpt lat="41.581590" lon="1.861970">
        <ele>149.043</ele>
        <time>2018-05-21T13:00:28Z</time>
      </trkpt>
      <trkpt lat="41.581554" lon="1.861881">
        <ele>147.454</ele>
        <time>2018-05-21T13:00:35Z</time>
      </trkpt>
      <trkpt lat="41.581511" lon="1.861775">
        <ele>143.397</ele>
        <time>2018-05-21T13:01:18Z</time>
      </trkpt>
      <trkpt lat="41.581441" lon="1.861711">
        <ele>141.035</ele>
        <time>2018-05-21T13:01:35Z</time>
      </trkpt>
      <trkpt lat="41.581382" lon="1.861631">
        <ele>138.114</ele>
        <time>2018-05-21T13:02:20Z</time>
      </trkpt>
      <trkpt lat="41.581320" lon="1.861562">
        <ele>134.854</ele>
        <time>2018-05-21T13:02:30Z</time>
      </trkpt>
      <trkpt lat="41.581230" lon="1.861632">
        <ele>133.895</ele>
        <time>2018-05-21T13:02:40Z</time>
      </trkpt>
      <trkpt lat="41.581158" lon="1.861674">
        <ele>134.549</ele>
        <time>2018-05-21T13:02:55Z</time>
      </trkpt>
      <trkpt lat="41.581051" lon="1.861728">
        <ele>135.323</ele>
        <time>2018-05-21T13:03:05Z</time>
      </trkpt>
      <trkpt lat="41.580929" lon="1.861757">
        <ele>135.808</ele>
        <time>2018-05-21T13:03:14Z</time>
      </trkpt>
      <trkpt lat="41.580849" lon="1.861787">
        <ele>136.042</ele>
        <time>2018-05-21T13:03:23Z</time>
      </trkpt>
      <trkpt lat="41.580793" lon="1.861794">
        <ele>134.443</ele>
        <time>2018-05-21T13:03:37Z</time>
      </trkpt>
      <trkpt lat="41.580764" lon="1.861749">
        <ele>133.059</ele>
        <time>2018-05-21T13:04:33Z</time>
      </trkpt>
      <trkpt lat="41.580689" lon="1.861663">
        <ele>130.330</ele>
        <time>2018-05-21T13:04:55Z</time>
      </trkpt>
      <trkpt lat="41.580601" lon="1.861648">
        <ele>128.933</ele>
        <time>2018-05-21T13:05:02Z</time>
      </trkpt>
      <trkpt lat="41.580596" lon="1.861542">
        <ele>125.061</ele>
        <time>2018-05-21T13:05:33Z</time>
      </trkpt>
      <trkpt lat="41.580635" lon="1.861400">
        <ele>121.470</ele>
        <time>2018-05-21T13:05:58Z</time>
      </trkpt>
      <trkpt lat="41.580665" lon="1.861366">
        <ele>118.840</ele>
        <time>2018-05-21T13:06:07Z</time>
      </trkpt>
      <trkpt lat="41.580813" lon="1.861319">
        <ele>117.859</ele>
        <time>2018-05-21T13:06:15Z</time>
      </trkpt>
      <trkpt lat="41.580903" lon="1.861268">
        <ele>117.403</ele>
        <time>2018-05-21T13:06:21Z</time>
      </trkpt>
      <trkpt lat="41.580992" lon="1.861222">
        <ele>117.323</ele>
        <time>2018-05-21T13:06:27Z</time>
      </trkpt>
      <trkpt lat="41.581086" lon="1.861167">
        <ele>116.908</ele>
        <time>2018-05-21T13:06:35Z</time>
      </trkpt>
      <trkpt lat="41.581167" lon="1.861120">
        <ele>117.238</ele>
        <time>2018-05-21T13:06:46Z</time>
      </trkpt>
      <trkpt lat="41.581239" lon="1.861046">
        <ele>118.929</ele>
        <time>2018-05-21T13:06:54Z</time>
      </trkpt>
      <trkpt lat="41.581307" lon="1.860943">
        <ele>119.685</ele>
        <time>2018-05-21T13:07:01Z</time>
      </trkpt>
      <trkpt lat="41.581371" lon="1.860843">
        <ele>119.736</ele>
        <time>2018-05-21T13:07:08Z</time>
      </trkpt>
      <trkpt lat="41.581438" lon="1.860759">
        <ele>120.419</ele>
        <time>2018-05-21T13:07:16Z</time>
      </trkpt>
      <trkpt lat="41.581509" lon="1.860660">
        <ele>120.797</ele>
        <time>2018-05-21T13:07:24Z</time>
      </trkpt>
      <trkpt lat="41.581603" lon="1.860590">
        <ele>120.556</ele>
        <time>2018-05-21T13:07:32Z</time>
      </trkpt>
      <trkpt lat="41.581676" lon="1.860506">
        <ele>120.716</ele>
        <time>2018-05-21T13:07:38Z</time>
      </trkpt>
      <trkpt lat="41.581733" lon="1.860458">
        <ele>121.322</ele>
        <time>2018-05-21T13:07:46Z</time>
      </trkpt>
      <trkpt lat="41.581814" lon="1.860380">
        <ele>121.862</ele>
        <time>2018-05-21T13:07:50Z</time>
      </trkpt>
      <trkpt lat="41.581917" lon="1.860297">
        <ele>121.808</ele>
        <time>2018-05-21T13:08:02Z</time>
      </trkpt>
      <trkpt lat="41.582000" lon="1.860204">
        <ele>121.708</ele>
        <time>2018-05-21T13:08:09Z</time>
      </trkpt>
      <trkpt lat="41.582035" lon="1.860093">
        <ele>120.895</ele>
        <time>2018-05-21T13:08:16Z</time>
      </trkpt>
      <trkpt lat="41.582098" lon="1.859998">
        <ele>120.236</ele>
        <time>2018-05-21T13:08:23Z</time>
      </trkpt>
      <trkpt lat="41.582170" lon="1.859899">
        <ele>119.922</ele>
        <time>2018-05-21T13:08:29Z</time>
      </trkpt>
      <trkpt lat="41.582223" lon="1.859799">
        <ele>120.113</ele>
        <time>2018-05-21T13:08:38Z</time>
      </trkpt>
      <trkpt lat="41.582259" lon="1.859711">
        <ele>120.356</ele>
        <time>2018-05-21T13:08:46Z</time>
      </trkpt>
      <trkpt lat="41.582335" lon="1.859617">
        <ele>119.694</ele>
        <time>2018-05-21T13:08:52Z</time>
      </trkpt>
      <trkpt lat="41.582427" lon="1.859506">
        <ele>118.383</ele>
        <time>2018-05-21T13:09:00Z</time>
      </trkpt>
      <trkpt lat="41.582487" lon="1.859414">
        <ele>116.863</ele>
        <time>2018-05-21T13:09:06Z</time>
      </trkpt>
      <trkpt lat="41.582562" lon="1.859365">
        <ele>115.629</ele>
        <time>2018-05-21T13:09:12Z</time>
      </trkpt>
      <trkpt lat="41.582600" lon="1.859307">
        <ele>114.500</ele>
        <time>2018-05-21T13:09:19Z</time>
      </trkpt>
      <trkpt lat="41.582640" lon="1.859246">
        <ele>114.420</ele>
        <time>2018-05-21T13:09:27Z</time>
      </trkpt>
      <trkpt lat="41.582708" lon="1.859174">
        <ele>113.908</ele>
        <time>2018-05-21T13:09:35Z</time>
      </trkpt>
      <trkpt lat="41.582838" lon="1.859080">
        <ele>113.785</ele>
        <time>2018-05-21T13:09:42Z</time>
      </trkpt>
      <trkpt lat="41.582923" lon="1.858981">
        <ele>113.426</ele>
        <time>2018-05-21T13:09:51Z</time>
      </trkpt>
      <trkpt lat="41.583027" lon="1.858820">
        <ele>113.732</ele>
        <time>2018-05-21T13:09:55Z</time>
      </trkpt>
      <trkpt lat="41.583090" lon="1.858754">
        <ele>114.053</ele>
        <time>2018-05-21T13:10:01Z</time>
      </trkpt>
      <trkpt lat="41.583157" lon="1.858671">
        <ele>114.346</ele>
        <time>2018-05-21T13:10:07Z</time>
      </trkpt>
      <trkpt lat="41.583221" lon="1.858572">
        <ele>113.954</ele>
        <time>2018-05-21T13:10:15Z</time>
      </trkpt>
      <trkpt lat="41.583261" lon="1.858460">
        <ele>113.363</ele>
        <time>2018-05-21T13:10:23Z</time>
      </trkpt>
      <trkpt lat="41.583357" lon="1.858426">
        <ele>113.123</ele>
        <time>2018-05-21T13:10:29Z</time>
      </trkpt>
      <trkpt lat="41.583438" lon="1.858353">
        <ele>113.322</ele>
        <time>2018-05-21T13:10:36Z</time>
      </trkpt>
      <trkpt lat="41.583570" lon="1.858344">
        <ele>114.062</ele>
        <time>2018-05-21T13:10:46Z</time>
      </trkpt>
      <trkpt lat="41.583665" lon="1.858295">
        <ele>115.008</ele>
        <time>2018-05-21T13:10:54Z</time>
      </trkpt>
      <trkpt lat="41.583708" lon="1.858223">
        <ele>115.708</ele>
        <time>2018-05-21T13:11:00Z</time>
      </trkpt>
      <trkpt lat="41.583778" lon="1.858163">
        <ele>116.315</ele>
        <time>2018-05-21T13:11:07Z</time>
      </trkpt>
      <trkpt lat="41.583888" lon="1.858053">
        <ele>116.816</ele>
        <time>2018-05-21T13:11:14Z</time>
      </trkpt>
      <trkpt lat="41.583972" lon="1.858013">
        <ele>117.382</ele>
        <time>2018-05-21T13:11:22Z</time>
      </trkpt>
      <trkpt lat="41.584042" lon="1.857940">
        <ele>118.053</ele>
        <time>2018-05-21T13:11:28Z</time>
      </trkpt>
      <trkpt lat="41.584125" lon="1.857864">
        <ele>118.866</ele>
        <time>2018-05-21T13:11:35Z</time>
      </trkpt>
      <trkpt lat="41.584212" lon="1.857784">
        <ele>118.984</ele>
        <time>2018-05-21T13:11:42Z</time>
      </trkpt>
      <trkpt lat="41.584263" lon="1.857708">
        <ele>118.933</ele>
        <time>2018-05-21T13:11:47Z</time>
      </trkpt>
      <trkpt lat="41.584287" lon="1.857675">
        <ele>118.813</ele>
        <time>2018-05-21T13:11:53Z</time>
      </trkpt>
      <trkpt lat="41.584397" lon="1.857515">
        <ele>118.771</ele>
        <time>2018-05-21T13:12:01Z</time>
      </trkpt>
      <trkpt lat="41.584484" lon="1.857436">
        <ele>118.841</ele>
        <time>2018-05-21T13:12:09Z</time>
      </trkpt>
      <trkpt lat="41.584556" lon="1.857386">
        <ele>118.915</ele>
        <time>2018-05-21T13:12:17Z</time>
      </trkpt>
      <trkpt lat="41.584627" lon="1.857350">
        <ele>118.908</ele>
        <time>2018-05-21T13:12:24Z</time>
      </trkpt>
      <trkpt lat="41.584709" lon="1.857281">
        <ele>119.180</ele>
        <time>2018-05-21T13:12:33Z</time>
      </trkpt>
      <trkpt lat="41.584758" lon="1.857156">
        <ele>118.471</ele>
        <time>2018-05-21T13:12:40Z</time>
      </trkpt>
      <trkpt lat="41.584864" lon="1.857108">
        <ele>118.087</ele>
        <time>2018-05-21T13:12:46Z</time>
      </trkpt>
      <trkpt lat="41.584927" lon="1.857019">
        <ele>117.648</ele>
        <time>2018-05-21T13:12:52Z</time>
      </trkpt>
      <trkpt lat="41.585015" lon="1.856952">
        <ele>117.061</ele>
        <time>2018-05-21T13:12:58Z</time>
      </trkpt>
      <trkpt lat="41.585099" lon="1.856901">
        <ele>116.689</ele>
        <time>2018-05-21T13:13:05Z</time>
      </trkpt>
      <trkpt lat="41.585162" lon="1.856833">
        <ele>117.148</ele>
        <time>2018-05-21T13:13:12Z</time>
      </trkpt>
      <trkpt lat="41.585216" lon="1.856750">
        <ele>117.548</ele>
        <time>2018-05-21T13:13:18Z</time>
      </trkpt>
      <trkpt lat="41.585318" lon="1.856678">
        <ele>117.395</ele>
        <time>2018-05-21T13:13:25Z</time>
      </trkpt>
      <trkpt lat="41.585380" lon="1.856590">
        <ele>117.549</ele>
        <time>2018-05-21T13:13:31Z</time>
      </trkpt>
      <trkpt lat="41.585431" lon="1.856540">
        <ele>117.923</ele>
        <time>2018-05-21T13:13:37Z</time>
      </trkpt>
      <trkpt lat="41.585549" lon="1.856436">
        <ele>117.908</ele>
        <time>2018-05-21T13:13:46Z</time>
      </trkpt>
      <trkpt lat="41.585607" lon="1.856362">
        <ele>118.082</ele>
        <time>2018-05-21T13:13:53Z</time>
      </trkpt>
      <trkpt lat="41.585706" lon="1.856292">
        <ele>118.163</ele>
        <time>2018-05-21T13:13:59Z</time>
      </trkpt>
      <trkpt lat="41.585801" lon="1.856239">
        <ele>117.869</ele>
        <time>2018-05-21T13:14:04Z</time>
      </trkpt>
      <trkpt lat="41.585884" lon="1.856169">
        <ele>117.680</ele>
        <time>2018-05-21T13:14:12Z</time>
      </trkpt>
      <trkpt lat="41.585980" lon="1.856121">
        <ele>117.473</ele>
        <time>2018-05-21T13:14:19Z</time>
      </trkpt>
      <trkpt lat="41.586060" lon="1.856057">
        <ele>117.841</ele>
        <time>2018-05-21T13:14:26Z</time>
      </trkpt>
      <trkpt lat="41.586142" lon="1.855984">
        <ele>117.940</ele>
        <time>2018-05-21T13:14:34Z</time>
      </trkpt>
      <trkpt lat="41.586223" lon="1.855926">
        <ele>118.170</ele>
        <time>2018-05-21T13:14:41Z</time>
      </trkpt>
      <trkpt lat="41.586283" lon="1.855839">
        <ele>118.724</ele>
        <time>2018-05-21T13:14:46Z</time>
      </trkpt>
      <trkpt lat="41.586350" lon="1.855776">
        <ele>119.604</ele>
        <time>2018-05-21T13:14:54Z</time>
      </trkpt>
      <trkpt lat="41.586453" lon="1.855689">
        <ele>119.414</ele>
        <time>2018-05-21T13:15:00Z</time>
      </trkpt>
      <trkpt lat="41.586552" lon="1.855647">
        <ele>120.308</ele>
        <time>2018-05-21T13:15:08Z</time>
      </trkpt>
      <trkpt lat="41.586633" lon="1.855629">
        <ele>121.455</ele>
        <time>2018-05-21T13:15:17Z</time>
      </trkpt>
      <trkpt lat="41.586726" lon="1.855582">
        <ele>122.236</ele>
        <time>2018-05-21T13:15:25Z</time>
      </trkpt>
      <trkpt lat="41.586814" lon="1.855519">
        <ele>122.372</ele>
        <time>2018-05-21T13:15:33Z</time>
      </trkpt>
      <trkpt lat="41.586920" lon="1.855514">
        <ele>123.573</ele>
        <time>2018-05-21T13:15:41Z</time>
      </trkpt>
      <trkpt lat="41.587027" lon="1.855487">
        <ele>124.556</ele>
        <time>2018-05-21T13:15:47Z</time>
      </trkpt>
      <trkpt lat="41.587113" lon="1.855435">
        <ele>125.354</ele>
        <time>2018-05-21T13:15:56Z</time>
      </trkpt>
      <trkpt lat="41.587209" lon="1.855389">
        <ele>125.473</ele>
        <time>2018-05-21T13:16:04Z</time>
      </trkpt>
      <trkpt lat="41.587297" lon="1.855330">
        <ele>123.943</ele>
        <time>2018-05-21T13:16:10Z</time>
      </trkpt>
      <trkpt lat="41.587388" lon="1.855250">
        <ele>122.457</ele>
        <time>2018-05-21T13:16:17Z</time>
      </trkpt>
      <trkpt lat="41.587482" lon="1.855150">
        <ele>119.900</ele>
        <time>2018-05-21T13:16:28Z</time>
      </trkpt>
      <trkpt lat="41.587572" lon="1.855136">
        <ele>118.120</ele>
        <time>2018-05-21T13:16:36Z</time>
      </trkpt>
      <trkpt lat="41.587670" lon="1.855118">
        <ele>117.108</ele>
        <time>2018-05-21T13:16:43Z</time>
      </trkpt>
      <trkpt lat="41.587776" lon="1.855082">
        <ele>118.048</ele>
        <time>2018-05-21T13:16:48Z</time>
      </trkpt>
      <trkpt lat="41.587880" lon="1.855050">
        <ele>120.879</ele>
        <time>2018-05-21T13:16:57Z</time>
      </trkpt>
      <trkpt lat="41.587967" lon="1.854964">
        <ele>123.075</ele>
        <time>2018-05-21T13:17:03Z</time>
      </trkpt>
      <trkpt lat="41.588048" lon="1.854911">
        <ele>125.386</ele>
        <time>2018-05-21T13:17:11Z</time>
      </trkpt>
      <trkpt lat="41.588139" lon="1.854844">
        <ele>127.179</ele>
        <time>2018-05-21T13:17:19Z</time>
      </trkpt>
      <trkpt lat="41.588228" lon="1.854803">
        <ele>128.377</ele>
        <time>2018-05-21T13:17:24Z</time>
      </trkpt>
      <trkpt lat="41.588320" lon="1.854717">
        <ele>129.036</ele>
        <time>2018-05-21T13:17:31Z</time>
      </trkpt>
      <trkpt lat="41.588406" lon="1.854652">
        <ele>127.956</ele>
        <time>2018-05-21T13:17:40Z</time>
      </trkpt>
      <trkpt lat="41.588502" lon="1.854597">
        <ele>127.067</ele>
        <time>2018-05-21T13:17:47Z</time>
      </trkpt>
      <trkpt lat="41.588572" lon="1.854543">
        <ele>126.981</ele>
        <time>2018-05-21T13:17:52Z</time>
      </trkpt>
      <trkpt lat="41.588661" lon="1.854480">
        <ele>125.819</ele>
        <time>2018-05-21T13:17:59Z</time>
      </trkpt>
      <trkpt lat="41.588766" lon="1.854390">
        <ele>124.008</ele>
        <time>2018-05-21T13:18:07Z</time>
      </trkpt>
      <trkpt lat="41.588839" lon="1.854344">
        <ele>123.759</ele>
        <time>2018-05-21T13:18:13Z</time>
      </trkpt>
      <trkpt lat="41.588912" lon="1.854287">
        <ele>122.770</ele>
        <time>2018-05-21T13:18:20Z</time>
      </trkpt>
      <trkpt lat="41.589009" lon="1.854188">
        <ele>121.186</ele>
        <time>2018-05-21T13:18:29Z</time>
      </trkpt>
      <trkpt lat="41.589085" lon="1.854115">
        <ele>120.447</ele>
        <time>2018-05-21T13:18:33Z</time>
      </trkpt>
      <trkpt lat="41.589181" lon="1.854035">
        <ele>119.550</ele>
        <time>2018-05-21T13:18:43Z</time>
      </trkpt>
      <trkpt lat="41.589276" lon="1.853979">
        <ele>119.378</ele>
        <time>2018-05-21T13:18:48Z</time>
      </trkpt>
      <trkpt lat="41.589349" lon="1.853939">
        <ele>119.117</ele>
        <time>2018-05-21T13:18:54Z</time>
      </trkpt>
      <trkpt lat="41.589405" lon="1.853879">
        <ele>118.797</ele>
        <time>2018-05-21T13:19:02Z</time>
      </trkpt>
      <trkpt lat="41.589497" lon="1.853799">
        <ele>118.235</ele>
        <time>2018-05-21T13:19:08Z</time>
      </trkpt>
      <trkpt lat="41.589613" lon="1.853717">
        <ele>116.986</ele>
        <time>2018-05-21T13:19:17Z</time>
      </trkpt>
      <trkpt lat="41.589678" lon="1.853633">
        <ele>115.714</ele>
        <time>2018-05-21T13:19:25Z</time>
      </trkpt>
      <trkpt lat="41.589761" lon="1.853567">
        <ele>115.408</ele>
        <time>2018-05-21T13:19:34Z</time>
      </trkpt>
      <trkpt lat="41.589859" lon="1.853505">
        <ele>114.926</ele>
        <time>2018-05-21T13:19:40Z</time>
      </trkpt>
      <trkpt lat="41.589931" lon="1.853434">
        <ele>115.047</ele>
        <time>2018-05-21T13:19:48Z</time>
      </trkpt>
      <trkpt lat="41.590057" lon="1.853338">
        <ele>114.623</ele>
        <time>2018-05-21T13:19:55Z</time>
      </trkpt>
      <trkpt lat="41.590111" lon="1.853315">
        <ele>114.794</ele>
        <time>2018-05-21T13:20:00Z</time>
      </trkpt>
      <trkpt lat="41.590192" lon="1.853258">
        <ele>115.527</ele>
        <time>2018-05-21T13:20:06Z</time>
      </trkpt>
      <trkpt lat="41.590276" lon="1.853202">
        <ele>116.585</ele>
        <time>2018-05-21T13:20:12Z</time>
      </trkpt>
      <trkpt lat="41.590346" lon="1.853118">
        <ele>117.484</ele>
        <time>2018-05-21T13:20:18Z</time>
      </trkpt>
      <trkpt lat="41.590413" lon="1.853029">
        <ele>118.154</ele>
        <time>2018-05-21T13:20:25Z</time>
      </trkpt>
      <trkpt lat="41.590481" lon="1.852940">
        <ele>118.756</ele>
        <time>2018-05-21T13:20:32Z</time>
      </trkpt>
      <trkpt lat="41.590571" lon="1.852856">
        <ele>118.659</ele>
        <time>2018-05-21T13:20:38Z</time>
      </trkpt>
      <trkpt lat="41.590667" lon="1.852760">
        <ele>118.314</ele>
        <time>2018-05-21T13:20:48Z</time>
      </trkpt>
      <trkpt lat="41.590742" lon="1.852677">
        <ele>117.708</ele>
        <time>2018-05-21T13:20:54Z</time>
      </trkpt>
      <trkpt lat="41.590825" lon="1.852595">
        <ele>116.248</ele>
        <time>2018-05-21T13:21:05Z</time>
      </trkpt>
      <trkpt lat="41.590931" lon="1.852508">
        <ele>115.669</ele>
        <time>2018-05-21T13:21:11Z</time>
      </trkpt>
      <trkpt lat="41.591172" lon="1.852375">
        <ele>114.855</ele>
        <time>2018-05-21T13:21:17Z</time>
      </trkpt>
      <trkpt lat="41.591419" lon="1.852486">
        <ele>112.496</ele>
        <time>2018-05-21T13:21:59Z</time>
      </trkpt>
      <trkpt lat="41.591461" lon="1.852570">
        <ele>113.339</ele>
        <time>2018-05-21T13:22:10Z</time>
      </trkpt>
      <trkpt lat="41.591470" lon="1.852690">
        <ele>116.317</ele>
        <time>2018-05-21T13:22:22Z</time>
      </trkpt>
      <trkpt lat="41.591449" lon="1.852703">
        <ele>122.926</ele>
        <time>2018-05-21T13:23:10Z</time>
      </trkpt>
      <trkpt lat="41.591495" lon="1.852827">
        <ele>126.686</ele>
        <time>2018-05-21T13:23:27Z</time>
      </trkpt>
      <trkpt lat="41.591495" lon="1.852920">
        <ele>130.179</ele>
        <time>2018-05-21T13:23:35Z</time>
      </trkpt>
      <trkpt lat="41.591465" lon="1.853033">
        <ele>133.205</ele>
        <time>2018-05-21T13:23:44Z</time>
      </trkpt>
      <trkpt lat="41.591319" lon="1.853022">
        <ele>133.625</ele>
        <time>2018-05-21T13:23:52Z</time>
      </trkpt>
      <trkpt lat="41.591240" lon="1.853026">
        <ele>128.008</ele>
        <time>2018-05-21T13:24:49Z</time>
      </trkpt>
      <trkpt lat="41.591197" lon="1.853024">
        <ele>128.220</ele>
        <time>2018-05-21T13:27:14Z</time>
      </trkpt>
      <trkpt lat="41.591152" lon="1.853031">
        <ele>126.711</ele>
        <time>2018-05-21T13:29:08Z</time>
      </trkpt>
      <trkpt lat="41.591107" lon="1.853068">
        <ele>128.637</ele>
        <time>2018-05-21T13:29:36Z</time>
      </trkpt>
      <trkpt lat="41.591079" lon="1.853124">
        <ele>132.668</ele>
        <time>2018-05-21T13:29:47Z</time>
      </trkpt>
      <trkpt lat="41.591070" lon="1.853236">
        <ele>136.151</ele>
        <time>2018-05-21T13:29:58Z</time>
      </trkpt>
    </trkseg>
  </trk></gpx>