<?xml version="1.0" encoding="UTF-8"?>
<gpx creator="Wikiloc - https://www.wikiloc.com" version="1.1" xmlns="http://www.topografix.com/GPX/1/1" xmlns:xsi="http://www.w3.org/2001/XMLSchema-instance" xsi:schemaLocation="http://www.topografix.com/GPX/1/1 http://www.topografix.com/GPX/1/1/gpx.xsd">
  <metadata>
    <name>Wikiloc - 220. Senderisme en tren: de la Trinitat Nova a Can Cuiàs per Torre Baró, el turó de Canyelles i el mirador de l'Estrella</name>
    <author>
      <name>Senderisme en tren</name>
      <link href="https://www.wikiloc.com/wikiloc/user.do?id=438461">
        <text>Senderisme en tren on Wikiloc</text>
      </link>
    </author>
    <link href="https://www.wikiloc.com/hiking-trails/220-senderisme-en-tren-de-la-trinitat-nova-a-can-cuias-per-torre-baro-el-turo-de-canyelles-i-el-mir-57292840">
      <text>220. Senderisme en tren: de la Trinitat Nova a Can Cuiàs per Torre Baró, el turó de Canyelles i el mirador de l'Estrella on Wikiloc</text>
    </link>
    <time>2020-09-12T13:21:34Z</time>
  </metadata>
  <trk>
    <name>220. Senderisme en tren: de la Trinitat Nova a Can Cuiàs per Torre Baró, el turó de Canyelles i el mirador de l'Estrella</name>
    <cmt>&lt;strong&gt;LA TRAVESSA&lt;/strong&gt; &lt;b&gt;&lt;/b&gt; 
Curta caminda que ens portarà pel vessant més oriental de la serra de Collserola, entre els límits municipals de Barcelona i Montcada i Reixac. 
 
La zona de &lt;b&gt;Torre Baró &lt;/b&gt;del parc natural (sic) de Collserola, amb el permís del turó de Montcada, segurament sigui la part més degradada, deixada i que menys invita a conèixer de tot l'espai natural. A la multitud de torres elèctriques i cablejats que creuen en paralel la serra, cal afegir la desgràcia de ser una de les zones del parc que més pateixen incendis forestals, cremes que eviten una regeneració boscosa de l'entorn. 
 
A més a més, si hi aneu a caminar un diumenge, hi trobareu innombrables residus de &lt;b&gt;botellots&lt;/b&gt;. Hem fet aquesta ruta quan aquets eren prohibits, però tot i així, les deixables d'ampolles de vidre i gots de plàstic es troben sovint al mirador de la Torre Baró i a les zones de lleure de Can Cuiàs i el Fondal. 
 
De la ruta cal destacar el &lt;b&gt;mirador de l'Estrella&lt;/b&gt;. Colpeix treure el cap a aquell punt panoràmic abocat sobre una autopista i vistes a una muntanya escapçada (turó de Montcada), elevació que un dia posseia una ermita romànica dalt del cim, perduda amb l'explotació cimentera. 
 
La ruta acaba a l'estació de &lt;b&gt;metro (L11) de Can Cuiàs&lt;/b&gt;, estació situada a Montcada i Reixac. Però aquells qui vulguin conèixer millor casa nostra, els invito a anar fins a l'&lt;b&gt;estació de tren de Torre Baró&lt;/b&gt; (Rodalies), situada al barri de &lt;b&gt;Ciutat Meridiana&lt;/b&gt; de Barcelona. Un barrri amb moltes pendents i amb la curiosa particularitat del seu nomenclàtor. Tots els carrers porten noms de &lt;b&gt;muntanyes&lt;/b&gt;. Així que no és estrany que us trobeu caminant pels carrers Agudes, Pedraforca, Costabona, Moixeró, Rasos de Peguera.... Per cert, per a més curiositat, els noms de carrer del barri de Can Cuiàs (Montcada i Reixac) bona part d'ells duen noms de &lt;b&gt;flors&lt;/b&gt;: carrer de les Gardènies, carrer de les Petúnies, carrer dels Geranis... 
 
 
&lt;strong&gt;DIFICULTAT&lt;/strong&gt; 
Ruta sense dificultats. Per pujar al cim del turó de Canyelles hi ha una variant directa (waypoint) que si es fa servir puja al cim per un petit esperó rocós. El cim del turó de Canyelles està format per una esplanada o és habitual fer-hi pícnic els caps de setmana de bon temps. Però el punt més elevat és rocallós i aeri (poca alçada) si ens enfilem dalt de tot. 
 
 &lt;strong&gt;ELS TRENS&lt;/strong&gt; 
 
 &lt;b&gt;INICI&lt;/b&gt;: &lt;u&gt;estació de Trinitat Vella (Metro)&lt;/u&gt; : situada al barri del mateix nom de Barcelona. Final de línia de la L3 i L5. No hi trobareu serveis al voltant. 
 &lt;b&gt;FINAL&lt;/b&gt;: &lt;u&gt;estació de Can Cuiàs (Metro)&lt;/u&gt; : dins el barri de Can Cuiàs de Montcada i Reixac. Si voleu ampliar els coneixements del vostre país i com us comentàvem més amunt, us invitem a travessa a peu el barri barceloní de Ciutat Meridiana fins a la propera estació de rodalies de Torre Baró . 
 
 Podeu consultar aquí la &lt;a href="https://www.tmb.cat/ca/home" rel="nofollow" target="_blank"&gt;informació sobre línies i horaris de TMB&lt;/a&gt;.</cmt>
    <desc>&lt;strong&gt;LA TRAVESSA&lt;/strong&gt; &lt;b&gt;&lt;/b&gt; 
Curta caminda que ens portarà pel vessant més oriental de la serra de Collserola, entre els límits municipals de Barcelona i Montcada i Reixac. 
 
La zona de &lt;b&gt;Torre Baró &lt;/b&gt;del parc natural (sic) de Collserola, amb el permís del turó de Montcada, segurament sigui la part més degradada, deixada i que menys invita a conèixer de tot l'espai natural. A la multitud de torres elèctriques i cablejats que creuen en paralel la serra, cal afegir la desgràcia de ser una de les zones del parc que més pateixen incendis forestals, cremes que eviten una regeneració boscosa de l'entorn. 
 
A més a més, si hi aneu a caminar un diumenge, hi trobareu innombrables residus de &lt;b&gt;botellots&lt;/b&gt;. Hem fet aquesta ruta quan aquets eren prohibits, però tot i així, les deixables d'ampolles de vidre i gots de plàstic es troben sovint al mirador de la Torre Baró i a les zones de lleure de Can Cuiàs i el Fondal. 
 
De la ruta cal destacar el &lt;b&gt;mirador de l'Estrella&lt;/b&gt;. Colpeix treure el cap a aquell punt panoràmic abocat sobre una autopista i vistes a una muntanya escapçada (turó de Montcada), elevació que un dia posseia una ermita romànica dalt del cim, perduda amb l'explotació cimentera. 
 
La ruta acaba a l'estació de &lt;b&gt;metro (L11) de Can Cuiàs&lt;/b&gt;, estació situada a Montcada i Reixac. Però aquells qui vulguin conèixer millor casa nostra, els invito a anar fins a l'&lt;b&gt;estació de tren de Torre Baró&lt;/b&gt; (Rodalies), situada al barri de &lt;b&gt;Ciutat Meridiana&lt;/b&gt; de Barcelona. Un barrri amb moltes pendents i amb la curiosa particularitat del seu nomenclàtor. Tots els carrers porten noms de &lt;b&gt;muntanyes&lt;/b&gt;. Així que no és estrany que us trobeu caminant pels carrers Agudes, Pedraforca, Costabona, Moixeró, Rasos de Peguera.... Per cert, per a més curiositat, els noms de carrer del barri de Can Cuiàs (Montcada i Reixac) bona part d'ells duen noms de &lt;b&gt;flors&lt;/b&gt;: carrer de les Gardènies, carrer de les Petúnies, carrer dels Geranis... 
 
 
&lt;strong&gt;DIFICULTAT&lt;/strong&gt; 
Ruta sense dificultats. Per pujar al cim del turó de Canyelles hi ha una variant directa (waypoint) que si es fa servir puja al cim per un petit esperó rocós. El cim del turó de Canyelles està format per una esplanada o és habitual fer-hi pícnic els caps de setmana de bon temps. Però el punt més elevat és rocallós i aeri (poca alçada) si ens enfilem dalt de tot. 
 
 &lt;strong&gt;ELS TRENS&lt;/strong&gt; 
 
 &lt;b&gt;INICI&lt;/b&gt;: &lt;u&gt;estació de Trinitat Vella (Metro)&lt;/u&gt; : situada al barri del mateix nom de Barcelona. Final de línia de la L3 i L5. No hi trobareu serveis al voltant. 
 &lt;b&gt;FINAL&lt;/b&gt;: &lt;u&gt;estació de Can Cuiàs (Metro)&lt;/u&gt; : dins el barri de Can Cuiàs de Montcada i Reixac. Si voleu ampliar els coneixements del vostre país i com us comentàvem més amunt, us invitem a travessa a peu el barri barceloní de Ciutat Meridiana fins a la propera estació de rodalies de Torre Baró . 
 
 Podeu consultar aquí la &lt;a href="https://www.tmb.cat/ca/home" rel="nofollow" target="_blank"&gt;informació sobre línies i horaris de TMB&lt;/a&gt;.</desc>
    <trkseg>
      <trkpt lat="41.449084" lon="2.182270">
        <ele>83.529</ele>
        <time>2020-09-03T15:52:16Z</time>
      </trkpt>
      <trkpt lat="41.449208" lon="2.182439">
        <ele>82.700</ele>
        <time>2020-09-03T15:51:39Z</time>
      </trkpt>
      <trkpt lat="41.449413" lon="2.182716">
        <ele>82.120</ele>
        <time>2020-09-03T15:51:20Z</time>
      </trkpt>
      <trkpt lat="41.449548" lon="2.182856">
        <ele>82.108</ele>
        <time>2020-09-03T15:50:54Z</time>
      </trkpt>
      <trkpt lat="41.449755" lon="2.183077">
        <ele>82.067</ele>
        <time>2020-09-03T15:50:33Z</time>
      </trkpt>
      <trkpt lat="41.449844" lon="2.183175">
        <ele>81.919</ele>
        <time>2020-09-03T15:50:31Z</time>
      </trkpt>
      <trkpt lat="41.449987" lon="2.183347">
        <ele>81.464</ele>
        <time>2020-09-03T15:50:29Z</time>
      </trkpt>
      <trkpt lat="41.450079" lon="2.183280">
        <ele>82.871</ele>
        <time>2020-09-03T15:50:27Z</time>
      </trkpt>
      <trkpt lat="41.450106" lon="2.183211">
        <ele>83.884</ele>
        <time>2020-09-03T15:50:25Z</time>
      </trkpt>
      <trkpt lat="41.450124" lon="2.183193">
        <ele>84.230</ele>
        <time>2020-09-03T15:50:23Z</time>
      </trkpt>
      <trkpt lat="41.450141" lon="2.183176">
        <ele>84.596</ele>
        <time>2020-09-03T15:50:21Z</time>
      </trkpt>
      <trkpt lat="41.450206" lon="2.182829">
        <ele>89.382</ele>
        <time>2020-09-03T15:50:03Z</time>
      </trkpt>
      <trkpt lat="41.450194" lon="2.182525">
        <ele>92.973</ele>
        <time>2020-09-03T15:49:47Z</time>
      </trkpt>
      <trkpt lat="41.450135" lon="2.182257">
        <ele>95.285</ele>
        <time>2020-09-03T15:49:32Z</time>
      </trkpt>
      <trkpt lat="41.449946" lon="2.181961">
        <ele>95.713</ele>
        <time>2020-09-03T15:49:16Z</time>
      </trkpt>
      <trkpt lat="41.449926" lon="2.181908">
        <ele>95.908</ele>
        <time>2020-09-03T15:49:12Z</time>
      </trkpt>
      <trkpt lat="41.449915" lon="2.181875">
        <ele>96.152</ele>
        <time>2020-09-03T15:49:10Z</time>
      </trkpt>
      <trkpt lat="41.449907" lon="2.181831">
        <ele>96.554</ele>
        <time>2020-09-03T15:49:08Z</time>
      </trkpt>
      <trkpt lat="41.449898" lon="2.181796">
        <ele>96.729</ele>
        <time>2020-09-03T15:49:06Z</time>
      </trkpt>
      <trkpt lat="41.449945" lon="2.181584">
        <ele>99.656</ele>
        <time>2020-09-03T15:48:55Z</time>
      </trkpt>
      <trkpt lat="41.449980" lon="2.181550">
        <ele>100.549</ele>
        <time>2020-09-03T15:48:51Z</time>
      </trkpt>
      <trkpt lat="41.450001" lon="2.181517">
        <ele>101.215</ele>
        <time>2020-09-03T15:48:48Z</time>
      </trkpt>
      <trkpt lat="41.450083" lon="2.181259">
        <ele>105.311</ele>
        <time>2020-09-03T15:48:32Z</time>
      </trkpt>
      <trkpt lat="41.450084" lon="2.180928">
        <ele>109.297</ele>
        <time>2020-09-03T15:48:17Z</time>
      </trkpt>
      <trkpt lat="41.450075" lon="2.180895">
        <ele>109.541</ele>
        <time>2020-09-03T15:48:15Z</time>
      </trkpt>
      <trkpt lat="41.450067" lon="2.180857">
        <ele>109.981</ele>
        <time>2020-09-03T15:48:13Z</time>
      </trkpt>
      <trkpt lat="41.450058" lon="2.180821">
        <ele>110.209</ele>
        <time>2020-09-03T15:48:11Z</time>
      </trkpt>
      <trkpt lat="41.450048" lon="2.180790">
        <ele>110.508</ele>
        <time>2020-09-03T15:48:09Z</time>
      </trkpt>
      <trkpt lat="41.450027" lon="2.180593">
        <ele>112.729</ele>
        <time>2020-09-03T15:47:57Z</time>
      </trkpt>
      <trkpt lat="41.450050" lon="2.180414">
        <ele>115.871</ele>
        <time>2020-09-03T15:47:45Z</time>
      </trkpt>
      <trkpt lat="41.450103" lon="2.180288">
        <ele>118.626</ele>
        <time>2020-09-03T15:47:35Z</time>
      </trkpt>
      <trkpt lat="41.450114" lon="2.180251">
        <ele>119.333</ele>
        <time>2020-09-03T15:47:33Z</time>
      </trkpt>
      <trkpt lat="41.450145" lon="2.180214">
        <ele>120.466</ele>
        <time>2020-09-03T15:47:30Z</time>
      </trkpt>
      <trkpt lat="41.450396" lon="2.180420">
        <ele>120.742</ele>
        <time>2020-09-03T15:47:08Z</time>
      </trkpt>
      <trkpt lat="41.450664" lon="2.180750">
        <ele>119.158</ele>
        <time>2020-09-03T15:46:44Z</time>
      </trkpt>
      <trkpt lat="41.450923" lon="2.181012">
        <ele>121.924</ele>
        <time>2020-09-03T15:46:22Z</time>
      </trkpt>
      <trkpt lat="41.450945" lon="2.181038">
        <ele>122.125</ele>
        <time>2020-09-03T15:46:20Z</time>
      </trkpt>
      <trkpt lat="41.451005" lon="2.181158">
        <ele>122.326</ele>
        <time>2020-09-03T15:46:13Z</time>
      </trkpt>
      <trkpt lat="41.451125" lon="2.181479">
        <ele>122.208</ele>
        <time>2020-09-03T15:45:55Z</time>
      </trkpt>
      <trkpt lat="41.451337" lon="2.181748">
        <ele>125.108</ele>
        <time>2020-09-03T15:45:36Z</time>
      </trkpt>
      <trkpt lat="41.451592" lon="2.181980">
        <ele>129.317</ele>
        <time>2020-09-03T15:45:16Z</time>
      </trkpt>
      <trkpt lat="41.451827" lon="2.182311">
        <ele>133.059</ele>
        <time>2020-09-03T15:44:54Z</time>
      </trkpt>
      <trkpt lat="41.452061" lon="2.182642">
        <ele>134.064</ele>
        <time>2020-09-03T15:44:32Z</time>
      </trkpt>
      <trkpt lat="41.452259" lon="2.182920">
        <ele>132.811</ele>
        <time>2020-09-03T15:44:15Z</time>
      </trkpt>
      <trkpt lat="41.452280" lon="2.182954">
        <ele>132.574</ele>
        <time>2020-09-03T15:44:13Z</time>
      </trkpt>
      <trkpt lat="41.452290" lon="2.182978">
        <ele>132.290</ele>
        <time>2020-09-03T15:44:11Z</time>
      </trkpt>
      <trkpt lat="41.452395" lon="2.183113">
        <ele>131.876</ele>
        <time>2020-09-03T15:44:00Z</time>
      </trkpt>
      <trkpt lat="41.452415" lon="2.183142">
        <ele>131.642</ele>
        <time>2020-09-03T15:43:58Z</time>
      </trkpt>
      <trkpt lat="41.452442" lon="2.183159">
        <ele>131.827</ele>
        <time>2020-09-03T15:43:56Z</time>
      </trkpt>
      <trkpt lat="41.452562" lon="2.183125">
        <ele>135.368</ele>
        <time>2020-09-03T15:43:47Z</time>
      </trkpt>
      <trkpt lat="41.452639" lon="2.183138">
        <ele>136.714</ele>
        <time>2020-09-03T15:43:42Z</time>
      </trkpt>
      <trkpt lat="41.452824" lon="2.183170">
        <ele>140.108</ele>
        <time>2020-09-03T15:43:30Z</time>
      </trkpt>
      <trkpt lat="41.452978" lon="2.183207">
        <ele>142.617</ele>
        <time>2020-09-03T15:43:20Z</time>
      </trkpt>
      <trkpt lat="41.453177" lon="2.183337">
        <ele>143.549</ele>
        <time>2020-09-03T15:43:06Z</time>
      </trkpt>
      <trkpt lat="41.453331" lon="2.183559">
        <ele>141.954</ele>
        <time>2020-09-03T15:42:50Z</time>
      </trkpt>
      <trkpt lat="41.453531" lon="2.183815">
        <ele>140.341</ele>
        <time>2020-09-03T15:42:32Z</time>
      </trkpt>
      <trkpt lat="41.453724" lon="2.183927">
        <ele>141.784</ele>
        <time>2020-09-03T15:42:19Z</time>
      </trkpt>
      <trkpt lat="41.453892" lon="2.184065">
        <ele>142.140</ele>
        <time>2020-09-03T15:42:06Z</time>
      </trkpt>
      <trkpt lat="41.454129" lon="2.184277">
        <ele>139.556</ele>
        <time>2020-09-03T15:41:47Z</time>
      </trkpt>
      <trkpt lat="41.454325" lon="2.184331">
        <ele>140.192</ele>
        <time>2020-09-03T15:41:33Z</time>
      </trkpt>
      <trkpt lat="41.454354" lon="2.184341">
        <ele>140.169</ele>
        <time>2020-09-03T15:41:31Z</time>
      </trkpt>
      <trkpt lat="41.454386" lon="2.184344">
        <ele>140.104</ele>
        <time>2020-09-03T15:41:29Z</time>
      </trkpt>
      <trkpt lat="41.454415" lon="2.184336">
        <ele>139.924</ele>
        <time>2020-09-03T15:41:27Z</time>
      </trkpt>
      <trkpt lat="41.454439" lon="2.184327">
        <ele>139.808</ele>
        <time>2020-09-03T15:41:25Z</time>
      </trkpt>
      <trkpt lat="41.454463" lon="2.184319">
        <ele>139.781</ele>
        <time>2020-09-03T15:41:23Z</time>
      </trkpt>
      <trkpt lat="41.454481" lon="2.184292">
        <ele>139.963</ele>
        <time>2020-09-03T15:41:21Z</time>
      </trkpt>
      <trkpt lat="41.454475" lon="2.184256">
        <ele>140.498</ele>
        <time>2020-09-03T15:41:19Z</time>
      </trkpt>
      <trkpt lat="41.454452" lon="2.184233">
        <ele>141.095</ele>
        <time>2020-09-03T15:41:17Z</time>
      </trkpt>
      <trkpt lat="41.454351" lon="2.184213">
        <ele>142.258</ele>
        <time>2020-09-03T15:41:11Z</time>
      </trkpt>
      <trkpt lat="41.454156" lon="2.184020">
        <ele>144.444</ele>
        <time>2020-09-03T15:40:55Z</time>
      </trkpt>
      <trkpt lat="41.454109" lon="2.183964">
        <ele>145.310</ele>
        <time>2020-09-03T15:40:50Z</time>
      </trkpt>
      <trkpt lat="41.454069" lon="2.183918">
        <ele>146.156</ele>
        <time>2020-09-03T15:40:46Z</time>
      </trkpt>
      <trkpt lat="41.453909" lon="2.183610">
        <ele>151.334</ele>
        <time>2020-09-03T15:40:28Z</time>
      </trkpt>
      <trkpt lat="41.453791" lon="2.183361">
        <ele>153.655</ele>
        <time>2020-09-03T15:40:14Z</time>
      </trkpt>
      <trkpt lat="41.453717" lon="2.183043">
        <ele>156.710</ele>
        <time>2020-09-03T15:39:57Z</time>
      </trkpt>
      <trkpt lat="41.453606" lon="2.182722">
        <ele>161.108</ele>
        <time>2020-09-03T15:39:40Z</time>
      </trkpt>
      <trkpt lat="41.453451" lon="2.182519">
        <ele>166.178</ele>
        <time>2020-09-03T15:39:26Z</time>
      </trkpt>
      <trkpt lat="41.453296" lon="2.182226">
        <ele>168.190</ele>
        <time>2020-09-03T15:39:09Z</time>
      </trkpt>
      <trkpt lat="41.453250" lon="2.182172">
        <ele>168.365</ele>
        <time>2020-09-03T15:39:05Z</time>
      </trkpt>
      <trkpt lat="41.453197" lon="2.182131">
        <ele>168.352</ele>
        <time>2020-09-03T15:39:01Z</time>
      </trkpt>
      <trkpt lat="41.452998" lon="2.181965">
        <ele>168.855</ele>
        <time>2020-09-03T15:38:46Z</time>
      </trkpt>
      <trkpt lat="41.452886" lon="2.181906">
        <ele>167.811</ele>
        <time>2020-09-03T15:38:37Z</time>
      </trkpt>
      <trkpt lat="41.452795" lon="2.181775">
        <ele>168.237</ele>
        <time>2020-09-03T15:38:29Z</time>
      </trkpt>
      <trkpt lat="41.452756" lon="2.181608">
        <ele>170.123</ele>
        <time>2020-09-03T15:38:21Z</time>
      </trkpt>
      <trkpt lat="41.452760" lon="2.181514">
        <ele>171.554</ele>
        <time>2020-09-03T15:38:16Z</time>
      </trkpt>
      <trkpt lat="41.452749" lon="2.181245">
        <ele>174.256</ele>
        <time>2020-09-03T15:38:01Z</time>
      </trkpt>
      <trkpt lat="41.452770" lon="2.180959">
        <ele>177.611</ele>
        <time>2020-09-03T15:37:45Z</time>
      </trkpt>
      <trkpt lat="41.452702" lon="2.180609">
        <ele>180.908</ele>
        <time>2020-09-03T15:37:27Z</time>
      </trkpt>
      <trkpt lat="41.452516" lon="2.180292">
        <ele>183.310</ele>
        <time>2020-09-03T15:37:10Z</time>
      </trkpt>
      <trkpt lat="41.452476" lon="2.180199">
        <ele>183.352</ele>
        <time>2020-09-03T15:37:06Z</time>
      </trkpt>
      <trkpt lat="41.452464" lon="2.180024">
        <ele>184.787</ele>
        <time>2020-09-03T15:36:56Z</time>
      </trkpt>
      <trkpt lat="41.452451" lon="2.179771">
        <ele>186.564</ele>
        <time>2020-09-03T15:36:42Z</time>
      </trkpt>
      <trkpt lat="41.452409" lon="2.179641">
        <ele>186.327</ele>
        <time>2020-09-03T15:36:34Z</time>
      </trkpt>
      <trkpt lat="41.452272" lon="2.179399">
        <ele>184.813</ele>
        <time>2020-09-03T15:36:19Z</time>
      </trkpt>
      <trkpt lat="41.452162" lon="2.179202">
        <ele>184.599</ele>
        <time>2020-09-03T15:36:07Z</time>
      </trkpt>
      <trkpt lat="41.452106" lon="2.179036">
        <ele>184.935</ele>
        <time>2020-09-03T15:36:03Z</time>
      </trkpt>
      <trkpt lat="41.452054" lon="2.178908">
        <ele>185.074</ele>
        <time>2020-09-03T15:36:01Z</time>
      </trkpt>
      <trkpt lat="41.451997" lon="2.178810">
        <ele>185.556</ele>
        <time>2020-09-03T15:35:54Z</time>
      </trkpt>
      <trkpt lat="41.451986" lon="2.178903">
        <ele>185.621</ele>
        <time>2020-09-03T15:35:52Z</time>
      </trkpt>
      <trkpt lat="41.451877" lon="2.178935">
        <ele>184.108</ele>
        <time>2020-09-03T15:35:38Z</time>
      </trkpt>
      <trkpt lat="41.451697" lon="2.178723">
        <ele>186.972</ele>
        <time>2020-09-03T15:35:32Z</time>
      </trkpt>
      <trkpt lat="41.451497" lon="2.178438">
        <ele>188.684</ele>
        <time>2020-09-03T15:35:16Z</time>
      </trkpt>
      <trkpt lat="41.451508" lon="2.178309">
        <ele>193.449</ele>
        <time>2020-09-03T15:35:03Z</time>
      </trkpt>
      <trkpt lat="41.451566" lon="2.178272">
        <ele>193.996</ele>
        <time>2020-09-03T15:34:56Z</time>
      </trkpt>
      <trkpt lat="41.451556" lon="2.178085">
        <ele>194.529</ele>
        <time>2020-09-03T15:34:51Z</time>
      </trkpt>
      <trkpt lat="41.451548" lon="2.177977">
        <ele>194.565</ele>
        <time>2020-09-03T15:34:47Z</time>
      </trkpt>
      <trkpt lat="41.451521" lon="2.177718">
        <ele>193.771</ele>
        <time>2020-09-03T15:34:34Z</time>
      </trkpt>
      <trkpt lat="41.451463" lon="2.177435">
        <ele>192.897</ele>
        <time>2020-09-03T15:34:19Z</time>
      </trkpt>
      <trkpt lat="41.451460" lon="2.177357">
        <ele>192.937</ele>
        <time>2020-09-03T15:34:16Z</time>
      </trkpt>
      <trkpt lat="41.451451" lon="2.177236">
        <ele>192.749</ele>
        <time>2020-09-03T15:34:10Z</time>
      </trkpt>
      <trkpt lat="41.451429" lon="2.177091">
        <ele>193.513</ele>
        <time>2020-09-03T15:34:03Z</time>
      </trkpt>
      <trkpt lat="41.451434" lon="2.176951">
        <ele>194.308</ele>
        <time>2020-09-03T15:33:51Z</time>
      </trkpt>
      <trkpt lat="41.451463" lon="2.176750">
        <ele>194.748</ele>
        <time>2020-09-03T15:33:46Z</time>
      </trkpt>
      <trkpt lat="41.451487" lon="2.176588">
        <ele>196.090</ele>
        <time>2020-09-03T15:33:29Z</time>
      </trkpt>
      <trkpt lat="41.451492" lon="2.176448">
        <ele>196.365</ele>
        <time>2020-09-03T15:33:22Z</time>
      </trkpt>
      <trkpt lat="41.451465" lon="2.176287">
        <ele>196.172</ele>
        <time>2020-09-03T15:33:05Z</time>
      </trkpt>
      <trkpt lat="41.451406" lon="2.176189">
        <ele>196.675</ele>
        <time>2020-09-03T15:32:52Z</time>
      </trkpt>
      <trkpt lat="41.451350" lon="2.176077">
        <ele>196.791</ele>
        <time>2020-09-03T15:32:50Z</time>
      </trkpt>
      <trkpt lat="41.451261" lon="2.176007">
        <ele>197.867</ele>
        <time>2020-09-03T15:32:33Z</time>
      </trkpt>
      <trkpt lat="41.451189" lon="2.175906">
        <ele>198.163</ele>
        <time>2020-09-03T15:32:29Z</time>
      </trkpt>
      <trkpt lat="41.451100" lon="2.175783">
        <ele>198.357</ele>
        <time>2020-09-03T15:32:23Z</time>
      </trkpt>
      <trkpt lat="41.451040" lon="2.175706">
        <ele>198.700</ele>
        <time>2020-09-03T15:32:13Z</time>
      </trkpt>
      <trkpt lat="41.450972" lon="2.175606">
        <ele>198.920</ele>
        <time>2020-09-03T15:31:57Z</time>
      </trkpt>
      <trkpt lat="41.450886" lon="2.175470">
        <ele>199.108</ele>
        <time>2020-09-03T15:31:35Z</time>
      </trkpt>
      <trkpt lat="41.450733" lon="2.175117">
        <ele>199.320</ele>
        <time>2020-09-03T15:31:15Z</time>
      </trkpt>
      <trkpt lat="41.450722" lon="2.174983">
        <ele>199.662</ele>
        <time>2020-09-03T15:31:12Z</time>
      </trkpt>
      <trkpt lat="41.450710" lon="2.174876">
        <ele>201.067</ele>
        <time>2020-09-03T15:30:58Z</time>
      </trkpt>
      <trkpt lat="41.450706" lon="2.174699">
        <ele>201.774</ele>
        <time>2020-09-03T15:30:48Z</time>
      </trkpt>
      <trkpt lat="41.450703" lon="2.174580">
        <ele>202.737</ele>
        <time>2020-09-03T15:30:40Z</time>
      </trkpt>
      <trkpt lat="41.450702" lon="2.174405">
        <ele>206.063</ele>
        <time>2020-09-03T15:30:24Z</time>
      </trkpt>
      <trkpt lat="41.450710" lon="2.174314">
        <ele>207.069</ele>
        <time>2020-09-03T15:30:18Z</time>
      </trkpt>
      <trkpt lat="41.450693" lon="2.174232">
        <ele>208.325</ele>
        <time>2020-09-03T15:30:13Z</time>
      </trkpt>
      <trkpt lat="41.450618" lon="2.173976">
        <ele>212.089</ele>
        <time>2020-09-03T15:29:57Z</time>
      </trkpt>
      <trkpt lat="41.450531" lon="2.173752">
        <ele>215.506</ele>
        <time>2020-09-03T15:29:43Z</time>
      </trkpt>
      <trkpt lat="41.450491" lon="2.173612">
        <ele>219.326</ele>
        <time>2020-09-03T15:29:28Z</time>
      </trkpt>
      <trkpt lat="41.450461" lon="2.173440">
        <ele>223.708</ele>
        <time>2020-09-03T15:29:17Z</time>
      </trkpt>
      <trkpt lat="41.450436" lon="2.173294">
        <ele>225.723</ele>
        <time>2020-09-03T15:29:11Z</time>
      </trkpt>
      <trkpt lat="41.450419" lon="2.173179">
        <ele>227.845</ele>
        <time>2020-09-03T15:29:02Z</time>
      </trkpt>
      <trkpt lat="41.450410" lon="2.173086">
        <ele>230.380</ele>
        <time>2020-09-03T15:28:54Z</time>
      </trkpt>
      <trkpt lat="41.450393" lon="2.173006">
        <ele>231.377</ele>
        <time>2020-09-03T15:28:50Z</time>
      </trkpt>
      <trkpt lat="41.450385" lon="2.172982">
        <ele>231.830</ele>
        <time>2020-09-03T15:28:39Z</time>
      </trkpt>
      <trkpt lat="41.450367" lon="2.172870">
        <ele>234.476</ele>
        <time>2020-09-03T15:28:28Z</time>
      </trkpt>
      <trkpt lat="41.450381" lon="2.172814">
        <ele>235.892</ele>
        <time>2020-09-03T15:28:23Z</time>
      </trkpt>
      <trkpt lat="41.450380" lon="2.172707">
        <ele>237.418</ele>
        <time>2020-09-03T15:28:17Z</time>
      </trkpt>
      <trkpt lat="41.450359" lon="2.172658">
        <ele>239.185</ele>
        <time>2020-09-03T15:28:10Z</time>
      </trkpt>
      <trkpt lat="41.450334" lon="2.172560">
        <ele>240.989</ele>
        <time>2020-09-03T15:27:59Z</time>
      </trkpt>
      <trkpt lat="41.450297" lon="2.172437">
        <ele>243.217</ele>
        <time>2020-09-03T15:27:46Z</time>
      </trkpt>
      <trkpt lat="41.450497" lon="2.172171">
        <ele>248.508</ele>
        <time>2020-09-03T15:27:24Z</time>
      </trkpt>
      <trkpt lat="41.450644" lon="2.171863">
        <ele>255.133</ele>
        <time>2020-09-03T15:27:03Z</time>
      </trkpt>
      <trkpt lat="41.450714" lon="2.171694">
        <ele>258.445</ele>
        <time>2020-09-03T15:26:52Z</time>
      </trkpt>
      <trkpt lat="41.450788" lon="2.171507">
        <ele>261.810</ele>
        <time>2020-09-03T15:26:39Z</time>
      </trkpt>
      <trkpt lat="41.450850" lon="2.171339">
        <ele>265.217</ele>
        <time>2020-09-03T15:26:27Z</time>
      </trkpt>
      <trkpt lat="41.450860" lon="2.171276">
        <ele>266.470</ele>
        <time>2020-09-03T15:26:23Z</time>
      </trkpt>
      <trkpt lat="41.450908" lon="2.171113">
        <ele>269.616</ele>
        <time>2020-09-03T15:26:11Z</time>
      </trkpt>
      <trkpt lat="41.450937" lon="2.171042">
        <ele>271.222</ele>
        <time>2020-09-03T15:26:05Z</time>
      </trkpt>
      <trkpt lat="41.450971" lon="2.170880">
        <ele>274.418</ele>
        <time>2020-09-03T15:25:54Z</time>
      </trkpt>
      <trkpt lat="41.450991" lon="2.170816">
        <ele>275.091</ele>
        <time>2020-09-03T15:25:48Z</time>
      </trkpt>
      <trkpt lat="41.450994" lon="2.170714">
        <ele>275.781</ele>
        <time>2020-09-03T15:25:42Z</time>
      </trkpt>
      <trkpt lat="41.451004" lon="2.170669">
        <ele>276.119</ele>
        <time>2020-09-03T15:25:35Z</time>
      </trkpt>
      <trkpt lat="41.451090" lon="2.170501">
        <ele>278.608</ele>
        <time>2020-09-03T15:25:23Z</time>
      </trkpt>
      <trkpt lat="41.451130" lon="2.170443">
        <ele>279.714</ele>
        <time>2020-09-03T15:25:17Z</time>
      </trkpt>
      <trkpt lat="41.451176" lon="2.170406">
        <ele>280.046</ele>
        <time>2020-09-03T15:25:12Z</time>
      </trkpt>
      <trkpt lat="41.451218" lon="2.170385">
        <ele>280.221</ele>
        <time>2020-09-03T15:25:08Z</time>
      </trkpt>
      <trkpt lat="41.451213" lon="2.170309">
        <ele>280.368</ele>
        <time>2020-09-03T15:24:58Z</time>
      </trkpt>
      <trkpt lat="41.451197" lon="2.170243">
        <ele>280.391</ele>
        <time>2020-09-03T15:24:55Z</time>
      </trkpt>
      <trkpt lat="41.451200" lon="2.170180">
        <ele>280.577</ele>
        <time>2020-09-03T15:24:40Z</time>
      </trkpt>
      <trkpt lat="41.451177" lon="2.169988">
        <ele>280.533</ele>
        <time>2020-09-03T15:24:24Z</time>
      </trkpt>
      <trkpt lat="41.451168" lon="2.169909">
        <ele>279.889</ele>
        <time>2020-09-03T15:24:08Z</time>
      </trkpt>
      <trkpt lat="41.451148" lon="2.169829">
        <ele>278.828</ele>
        <time>2020-09-03T15:24:04Z</time>
      </trkpt>
      <trkpt lat="41.451186" lon="2.169647">
        <ele>277.489</ele>
        <time>2020-09-03T15:23:49Z</time>
      </trkpt>
      <trkpt lat="41.451220" lon="2.169585">
        <ele>277.217</ele>
        <time>2020-09-03T15:23:33Z</time>
      </trkpt>
      <trkpt lat="41.451249" lon="2.169726">
        <ele>278.908</ele>
        <time>2020-09-03T15:23:28Z</time>
      </trkpt>
      <trkpt lat="41.451331" lon="2.169975">
        <ele>280.867</ele>
        <time>2020-09-03T15:23:26Z</time>
      </trkpt>
      <trkpt lat="41.451321" lon="2.170067">
        <ele>281.479</ele>
        <time>2020-09-03T15:23:17Z</time>
      </trkpt>
      <trkpt lat="41.451302" lon="2.170182">
        <ele>281.154</ele>
        <time>2020-09-03T15:23:11Z</time>
      </trkpt>
      <trkpt lat="41.451354" lon="2.169969">
        <ele>282.011</ele>
        <time>2020-09-03T15:23:04Z</time>
      </trkpt>
      <trkpt lat="41.451301" lon="2.169879">
        <ele>280.954</ele>
        <time>2020-09-03T15:22:49Z</time>
      </trkpt>
      <trkpt lat="41.451253" lon="2.169629">
        <ele>278.040</ele>
        <time>2020-09-03T15:22:38Z</time>
      </trkpt>
      <trkpt lat="41.451218" lon="2.169545">
        <ele>276.866</ele>
        <time>2020-09-03T15:22:36Z</time>
      </trkpt>
      <trkpt lat="41.451268" lon="2.169365">
        <ele>275.732</ele>
        <time>2020-09-03T15:22:26Z</time>
      </trkpt>
      <trkpt lat="41.451281" lon="2.169155">
        <ele>273.987</ele>
        <time>2020-09-03T15:22:11Z</time>
      </trkpt>
      <trkpt lat="41.451291" lon="2.168930">
        <ele>272.942</ele>
        <time>2020-09-03T15:21:56Z</time>
      </trkpt>
      <trkpt lat="41.451327" lon="2.168667">
        <ele>273.326</ele>
        <time>2020-09-03T15:21:40Z</time>
      </trkpt>
      <trkpt lat="41.451328" lon="2.168433">
        <ele>273.508</ele>
        <time>2020-09-03T15:21:24Z</time>
      </trkpt>
      <trkpt lat="41.451366" lon="2.168154">
        <ele>274.433</ele>
        <time>2020-09-03T15:21:06Z</time>
      </trkpt>
      <trkpt lat="41.451389" lon="2.168116">
        <ele>274.845</ele>
        <time>2020-09-03T15:20:44Z</time>
      </trkpt>
      <trkpt lat="41.451487" lon="2.168101">
        <ele>276.480</ele>
        <time>2020-09-03T15:20:29Z</time>
      </trkpt>
      <trkpt lat="41.451544" lon="2.168064">
        <ele>277.567</ele>
        <time>2020-09-03T15:20:24Z</time>
      </trkpt>
      <trkpt lat="41.451591" lon="2.168011">
        <ele>278.630</ele>
        <time>2020-09-03T15:20:19Z</time>
      </trkpt>
      <trkpt lat="41.451620" lon="2.167962">
        <ele>278.326</ele>
        <time>2020-09-03T15:20:15Z</time>
      </trkpt>
      <trkpt lat="41.451632" lon="2.167930">
        <ele>278.192</ele>
        <time>2020-09-03T15:20:13Z</time>
      </trkpt>
      <trkpt lat="41.451722" lon="2.167653">
        <ele>277.338</ele>
        <time>2020-09-03T15:19:55Z</time>
      </trkpt>
      <trkpt lat="41.451813" lon="2.167391">
        <ele>276.741</ele>
        <time>2020-09-03T15:19:38Z</time>
      </trkpt>
      <trkpt lat="41.451909" lon="2.167098">
        <ele>276.481</ele>
        <time>2020-09-03T15:19:20Z</time>
      </trkpt>
      <trkpt lat="41.451983" lon="2.166886">
        <ele>276.409</ele>
        <time>2020-09-03T15:19:05Z</time>
      </trkpt>
      <trkpt lat="41.452119" lon="2.166612">
        <ele>274.908</ele>
        <time>2020-09-03T15:18:45Z</time>
      </trkpt>
      <trkpt lat="41.452260" lon="2.166336">
        <ele>273.679</ele>
        <time>2020-09-03T15:18:26Z</time>
      </trkpt>
      <trkpt lat="41.452361" lon="2.166068">
        <ele>274.761</ele>
        <time>2020-09-03T15:18:09Z</time>
      </trkpt>
      <trkpt lat="41.452465" lon="2.165911">
        <ele>274.846</ele>
        <time>2020-09-03T15:17:56Z</time>
      </trkpt>
      <trkpt lat="41.452662" lon="2.165719">
        <ele>271.773</ele>
        <time>2020-09-03T15:17:35Z</time>
      </trkpt>
      <trkpt lat="41.452822" lon="2.165673">
        <ele>267.386</ele>
        <time>2020-09-03T15:17:22Z</time>
      </trkpt>
      <trkpt lat="41.453004" lon="2.165602">
        <ele>262.852</ele>
        <time>2020-09-03T15:17:07Z</time>
      </trkpt>
      <trkpt lat="41.453189" lon="2.165442">
        <ele>260.168</ele>
        <time>2020-09-03T15:16:50Z</time>
      </trkpt>
      <trkpt lat="41.453289" lon="2.165298">
        <ele>259.434</ele>
        <time>2020-09-03T15:16:37Z</time>
      </trkpt>
      <trkpt lat="41.453359" lon="2.165150">
        <ele>259.365</ele>
        <time>2020-09-03T15:16:25Z</time>
      </trkpt>
      <trkpt lat="41.453470" lon="2.164920">
        <ele>259.868</ele>
        <time>2020-09-03T15:16:03Z</time>
      </trkpt>
      <trkpt lat="41.453502" lon="2.164807">
        <ele>259.614</ele>
        <time>2020-09-03T15:15:59Z</time>
      </trkpt>
      <trkpt lat="41.453533" lon="2.164792">
        <ele>259.408</ele>
        <time>2020-09-03T15:15:51Z</time>
      </trkpt>
      <trkpt lat="41.453608" lon="2.164818">
        <ele>259.481</ele>
        <time>2020-09-03T15:15:32Z</time>
      </trkpt>
      <trkpt lat="41.453660" lon="2.164705">
        <ele>258.573</ele>
        <time>2020-09-03T15:15:18Z</time>
      </trkpt>
      <trkpt lat="41.453673" lon="2.164626">
        <ele>257.988</ele>
        <time>2020-09-03T15:14:58Z</time>
      </trkpt>
      <trkpt lat="41.453691" lon="2.164580">
        <ele>257.515</ele>
        <time>2020-09-03T15:14:45Z</time>
      </trkpt>
      <trkpt lat="41.453799" lon="2.164428">
        <ele>255.938</ele>
        <time>2020-09-03T15:14:24Z</time>
      </trkpt>
      <trkpt lat="41.453921" lon="2.164409">
        <ele>255.244</ele>
        <time>2020-09-03T15:14:22Z</time>
      </trkpt>
      <trkpt lat="41.454005" lon="2.164435">
        <ele>255.120</ele>
        <time>2020-09-03T15:14:08Z</time>
      </trkpt>
      <trkpt lat="41.454070" lon="2.164451">
        <ele>255.086</ele>
        <time>2020-09-03T15:14:02Z</time>
      </trkpt>
      <trkpt lat="41.454120" lon="2.164512">
        <ele>255.365</ele>
        <time>2020-09-03T15:13:55Z</time>
      </trkpt>
      <trkpt lat="41.454165" lon="2.164554">
        <ele>255.468</ele>
        <time>2020-09-03T15:13:50Z</time>
      </trkpt>
      <trkpt lat="41.454207" lon="2.164575">
        <ele>255.514</ele>
        <time>2020-09-03T15:13:44Z</time>
      </trkpt>
      <trkpt lat="41.454277" lon="2.164612">
        <ele>255.508</ele>
        <time>2020-09-03T15:13:37Z</time>
      </trkpt>
      <trkpt lat="41.454345" lon="2.164662">
        <ele>255.791</ele>
        <time>2020-09-03T15:13:35Z</time>
      </trkpt>
      <trkpt lat="41.454393" lon="2.164707">
        <ele>255.943</ele>
        <time>2020-09-03T15:13:11Z</time>
      </trkpt>
      <trkpt lat="41.454422" lon="2.164708">
        <ele>255.828</ele>
        <time>2020-09-03T15:13:04Z</time>
      </trkpt>
      <trkpt lat="41.454480" lon="2.164725">
        <ele>255.775</ele>
        <time>2020-09-03T15:12:38Z</time>
      </trkpt>
      <trkpt lat="41.454524" lon="2.164723">
        <ele>255.538</ele>
        <time>2020-09-03T15:12:23Z</time>
      </trkpt>
      <trkpt lat="41.454606" lon="2.164720">
        <ele>255.294</ele>
        <time>2020-09-03T15:12:17Z</time>
      </trkpt>
      <trkpt lat="41.454638" lon="2.164721">
        <ele>255.190</ele>
        <time>2020-09-03T15:12:10Z</time>
      </trkpt>
      <trkpt lat="41.454663" lon="2.164732">
        <ele>255.016</ele>
        <time>2020-09-03T15:11:45Z</time>
      </trkpt>
      <trkpt lat="41.454697" lon="2.164761">
        <ele>255.165</ele>
        <time>2020-09-03T15:11:22Z</time>
      </trkpt>
      <trkpt lat="41.454753" lon="2.164767">
        <ele>254.968</ele>
        <time>2020-09-03T15:10:46Z</time>
      </trkpt>
      <trkpt lat="41.454799" lon="2.164719">
        <ele>254.414</ele>
        <time>2020-09-03T15:10:09Z</time>
      </trkpt>
      <trkpt lat="41.454826" lon="2.164666">
        <ele>254.008</ele>
        <time>2020-09-03T15:09:19Z</time>
      </trkpt>
      <trkpt lat="41.454864" lon="2.164557">
        <ele>252.851</ele>
        <time>2020-09-03T15:08:50Z</time>
      </trkpt>
      <trkpt lat="41.454904" lon="2.164413">
        <ele>251.343</ele>
        <time>2020-09-03T15:08:32Z</time>
      </trkpt>
      <trkpt lat="41.454932" lon="2.164269">
        <ele>249.768</ele>
        <time>2020-09-03T15:08:23Z</time>
      </trkpt>
      <trkpt lat="41.454953" lon="2.164184">
        <ele>248.725</ele>
        <time>2020-09-03T15:08:07Z</time>
      </trkpt>
      <trkpt lat="41.454974" lon="2.164151">
        <ele>248.218</ele>
        <time>2020-09-03T15:08:04Z</time>
      </trkpt>
      <trkpt lat="41.455030" lon="2.164064">
        <ele>246.964</ele>
        <time>2020-09-03T15:07:58Z</time>
      </trkpt>
      <trkpt lat="41.455092" lon="2.163933">
        <ele>245.110</ele>
        <time>2020-09-03T15:07:48Z</time>
      </trkpt>
      <trkpt lat="41.455169" lon="2.163874">
        <ele>243.676</ele>
        <time>2020-09-03T15:07:37Z</time>
      </trkpt>
      <trkpt lat="41.455247" lon="2.163893">
        <ele>243.373</ele>
        <time>2020-09-03T15:07:30Z</time>
      </trkpt>
      <trkpt lat="41.455329" lon="2.163955">
        <ele>243.385</ele>
        <time>2020-09-03T15:07:23Z</time>
      </trkpt>
      <trkpt lat="41.455386" lon="2.164020">
        <ele>242.813</ele>
        <time>2020-09-03T15:07:16Z</time>
      </trkpt>
      <trkpt lat="41.455452" lon="2.164095">
        <ele>242.108</ele>
        <time>2020-09-03T15:07:09Z</time>
      </trkpt>
      <trkpt lat="41.455499" lon="2.164148">
        <ele>241.582</ele>
        <time>2020-09-03T15:07:04Z</time>
      </trkpt>
      <trkpt lat="41.455512" lon="2.164318">
        <ele>240.374</ele>
        <time>2020-09-03T15:06:49Z</time>
      </trkpt>
      <trkpt lat="41.455555" lon="2.164434">
        <ele>239.059</ele>
        <time>2020-09-03T15:06:37Z</time>
      </trkpt>
      <trkpt lat="41.455733" lon="2.164366">
        <ele>237.686</ele>
        <time>2020-09-03T15:06:30Z</time>
      </trkpt>
      <trkpt lat="41.455819" lon="2.164224">
        <ele>234.769</ele>
        <time>2020-09-03T15:06:15Z</time>
      </trkpt>
      <trkpt lat="41.455946" lon="2.164093">
        <ele>231.765</ele>
        <time>2020-09-03T15:06:01Z</time>
      </trkpt>
      <trkpt lat="41.455984" lon="2.164301">
        <ele>229.821</ele>
        <time>2020-09-03T15:05:45Z</time>
      </trkpt>
      <trkpt lat="41.455935" lon="2.164469">
        <ele>229.237</ele>
        <time>2020-09-03T15:05:34Z</time>
      </trkpt>
      <trkpt lat="41.456112" lon="2.164415">
        <ele>226.482</ele>
        <time>2020-09-03T15:05:25Z</time>
      </trkpt>
      <trkpt lat="41.456183" lon="2.164343">
        <ele>224.443</ele>
        <time>2020-09-03T15:05:18Z</time>
      </trkpt>
      <trkpt lat="41.456240" lon="2.164106">
        <ele>222.917</ele>
        <time>2020-09-03T15:05:02Z</time>
      </trkpt>
      <trkpt lat="41.456231" lon="2.163975">
        <ele>223.408</ele>
        <time>2020-09-03T15:04:54Z</time>
      </trkpt>
      <trkpt lat="41.456218" lon="2.163714">
        <ele>221.643</ele>
        <time>2020-09-03T15:04:37Z</time>
      </trkpt>
      <trkpt lat="41.456208" lon="2.163673">
        <ele>221.425</ele>
        <time>2020-09-03T15:04:34Z</time>
      </trkpt>
      <trkpt lat="41.456166" lon="2.163439">
        <ele>220.650</ele>
        <time>2020-09-03T15:04:18Z</time>
      </trkpt>
      <trkpt lat="41.456149" lon="2.163382">
        <ele>220.757</ele>
        <time>2020-09-03T15:04:14Z</time>
      </trkpt>
      <trkpt lat="41.456154" lon="2.163181">
        <ele>219.220</ele>
        <time>2020-09-03T15:04:00Z</time>
      </trkpt>
      <trkpt lat="41.456141" lon="2.162951">
        <ele>218.396</ele>
        <time>2020-09-03T15:03:43Z</time>
      </trkpt>
      <trkpt lat="41.456144" lon="2.162906">
        <ele>218.162</ele>
        <time>2020-09-03T15:03:40Z</time>
      </trkpt>
      <trkpt lat="41.456172" lon="2.162733">
        <ele>217.648</ele>
        <time>2020-09-03T15:03:34Z</time>
      </trkpt>
      <trkpt lat="41.456221" lon="2.162663">
        <ele>216.547</ele>
        <time>2020-09-03T15:03:26Z</time>
      </trkpt>
      <trkpt lat="41.456269" lon="2.162908">
        <ele>216.229</ele>
        <time>2020-09-03T15:03:14Z</time>
      </trkpt>
      <trkpt lat="41.456318" lon="2.163192">
        <ele>216.421</ele>
        <time>2020-09-03T15:02:57Z</time>
      </trkpt>
      <trkpt lat="41.456409" lon="2.163526">
        <ele>214.908</ele>
        <time>2020-09-03T15:02:41Z</time>
      </trkpt>
      <trkpt lat="41.456523" lon="2.163673">
        <ele>212.759</ele>
        <time>2020-09-03T15:02:27Z</time>
      </trkpt>
      <trkpt lat="41.456668" lon="2.163969">
        <ele>210.181</ele>
        <time>2020-09-03T15:02:10Z</time>
      </trkpt>
      <trkpt lat="41.456831" lon="2.164162">
        <ele>205.446</ele>
        <time>2020-09-03T15:01:49Z</time>
      </trkpt>
      <trkpt lat="41.457020" lon="2.164436">
        <ele>202.713</ele>
        <time>2020-09-03T15:01:32Z</time>
      </trkpt>
      <trkpt lat="41.457242" lon="2.164642">
        <ele>200.886</ele>
        <time>2020-09-03T15:01:15Z</time>
      </trkpt>
      <trkpt lat="41.457391" lon="2.164797">
        <ele>200.352</ele>
        <time>2020-09-03T15:01:01Z</time>
      </trkpt>
      <trkpt lat="41.457610" lon="2.164891">
        <ele>199.218</ele>
        <time>2020-09-03T15:00:46Z</time>
      </trkpt>
      <trkpt lat="41.457858" lon="2.164902">
        <ele>196.554</ele>
        <time>2020-09-03T15:00:32Z</time>
      </trkpt>
      <trkpt lat="41.457968" lon="2.165085">
        <ele>194.868</ele>
        <time>2020-09-03T15:00:16Z</time>
      </trkpt>
      <trkpt lat="41.458229" lon="2.165441">
        <ele>193.142</ele>
        <time>2020-09-03T14:59:54Z</time>
      </trkpt>
      <trkpt lat="41.458331" lon="2.165427">
        <ele>192.526</ele>
        <time>2020-09-03T14:59:41Z</time>
      </trkpt>
      <trkpt lat="41.458374" lon="2.165306">
        <ele>192.808</ele>
        <time>2020-09-03T14:59:24Z</time>
      </trkpt>
      <trkpt lat="41.458542" lon="2.164973">
        <ele>191.871</ele>
        <time>2020-09-03T14:59:04Z</time>
      </trkpt>
      <trkpt lat="41.458839" lon="2.164986">
        <ele>191.993</ele>
        <time>2020-09-03T14:58:59Z</time>
      </trkpt>
      <trkpt lat="41.458941" lon="2.164974">
        <ele>191.988</ele>
        <time>2020-09-03T14:58:52Z</time>
      </trkpt>
      <trkpt lat="41.459104" lon="2.164992">
        <ele>191.335</ele>
        <time>2020-09-03T14:58:36Z</time>
      </trkpt>
      <trkpt lat="41.459229" lon="2.165073">
        <ele>190.378</ele>
        <time>2020-09-03T14:58:24Z</time>
      </trkpt>
      <trkpt lat="41.459384" lon="2.165171">
        <ele>188.974</ele>
        <time>2020-09-03T14:58:12Z</time>
      </trkpt>
      <trkpt lat="41.459702" lon="2.165248">
        <ele>184.960</ele>
        <time>2020-09-03T14:57:55Z</time>
      </trkpt>
      <trkpt lat="41.459987" lon="2.165239">
        <ele>182.716</ele>
        <time>2020-09-03T14:57:35Z</time>
      </trkpt>
      <trkpt lat="41.460170" lon="2.165254">
        <ele>184.198</ele>
        <time>2020-09-03T14:57:23Z</time>
      </trkpt>
      <trkpt lat="41.460201" lon="2.165272">
        <ele>184.115</ele>
        <time>2020-09-03T14:57:21Z</time>
      </trkpt>
      <trkpt lat="41.460431" lon="2.165289">
        <ele>185.926</ele>
        <time>2020-09-03T14:57:07Z</time>
      </trkpt>
      <trkpt lat="41.460488" lon="2.165280">
        <ele>186.708</ele>
        <time>2020-09-03T14:57:03Z</time>
      </trkpt>
      <trkpt lat="41.460611" lon="2.165308">
        <ele>187.744</ele>
        <time>2020-09-03T14:56:53Z</time>
      </trkpt>
      <trkpt lat="41.460858" lon="2.165376">
        <ele>189.486</ele>
        <time>2020-09-03T14:56:39Z</time>
      </trkpt>
      <trkpt lat="41.461040" lon="2.165402">
        <ele>189.591</ele>
        <time>2020-09-03T14:56:28Z</time>
      </trkpt>
      <trkpt lat="41.461150" lon="2.165473">
        <ele>189.088</ele>
        <time>2020-09-03T14:56:17Z</time>
      </trkpt>
      <trkpt lat="41.461247" lon="2.165504">
        <ele>189.161</ele>
        <time>2020-09-03T14:56:10Z</time>
      </trkpt>
      <trkpt lat="41.461470" lon="2.165572">
        <ele>189.217</ele>
        <time>2020-09-03T14:55:55Z</time>
      </trkpt>
      <trkpt lat="41.461575" lon="2.165549">
        <ele>189.663</ele>
        <time>2020-09-03T14:55:51Z</time>
      </trkpt>
      <trkpt lat="41.461824" lon="2.165470">
        <ele>189.619</ele>
        <time>2020-09-03T14:55:35Z</time>
      </trkpt>
      <trkpt lat="41.462127" lon="2.165330">
        <ele>186.467</ele>
        <time>2020-09-03T14:55:08Z</time>
      </trkpt>
      <trkpt lat="41.462223" lon="2.165229">
        <ele>185.081</ele>
        <time>2020-09-03T14:54:52Z</time>
      </trkpt>
      <trkpt lat="41.462321" lon="2.165075">
        <ele>182.719</ele>
        <time>2020-09-03T14:54:39Z</time>
      </trkpt>
      <trkpt lat="41.462380" lon="2.164935">
        <ele>181.208</ele>
        <time>2020-09-03T14:54:27Z</time>
      </trkpt>
      <trkpt lat="41.462459" lon="2.164845">
        <ele>179.361</ele>
        <time>2020-09-03T14:54:18Z</time>
      </trkpt>
      <trkpt lat="41.462488" lon="2.164779">
        <ele>178.033</ele>
        <time>2020-09-03T14:54:13Z</time>
      </trkpt>
      <trkpt lat="41.462595" lon="2.164589">
        <ele>174.298</ele>
        <time>2020-09-03T14:54:00Z</time>
      </trkpt>
      <trkpt lat="41.462687" lon="2.164399">
        <ele>170.945</ele>
        <time>2020-09-03T14:53:47Z</time>
      </trkpt>
      <trkpt lat="41.462699" lon="2.164168">
        <ele>168.668</ele>
        <time>2020-09-03T14:53:29Z</time>
      </trkpt>
      <trkpt lat="41.462774" lon="2.164070">
        <ele>166.994</ele>
        <time>2020-09-03T14:53:19Z</time>
      </trkpt>
      <trkpt lat="41.462813" lon="2.164072">
        <ele>166.530</ele>
        <time>2020-09-03T14:53:16Z</time>
      </trkpt>
      <trkpt lat="41.462864" lon="2.164203">
        <ele>166.996</ele>
        <time>2020-09-03T14:53:06Z</time>
      </trkpt>
      <trkpt lat="41.462941" lon="2.164365">
        <ele>166.856</ele>
        <time>2020-09-03T14:52:53Z</time>
      </trkpt>
      <trkpt lat="41.463010" lon="2.164524">
        <ele>167.259</ele>
        <time>2020-09-03T14:52:38Z</time>
      </trkpt>
      <trkpt lat="41.463091" lon="2.164690">
        <ele>167.014</ele>
        <time>2020-09-03T14:52:35Z</time>
      </trkpt>
      <trkpt lat="41.463258" lon="2.164945">
        <ele>164.008</ele>
        <time>2020-09-03T14:52:17Z</time>
      </trkpt>
      <trkpt lat="41.463401" lon="2.165123">
        <ele>159.640</ele>
        <time>2020-09-03T14:51:58Z</time>
      </trkpt>
      <trkpt lat="41.463414" lon="2.165179">
        <ele>156.952</ele>
        <time>2020-09-03T14:51:45Z</time>
      </trkpt>
      <trkpt lat="41.463431" lon="2.165287">
        <ele>155.717</ele>
        <time>2020-09-03T14:51:38Z</time>
      </trkpt>
      <trkpt lat="41.463454" lon="2.165326">
        <ele>154.754</ele>
        <time>2020-09-03T14:51:34Z</time>
      </trkpt>
      <trkpt lat="41.463490" lon="2.165361">
        <ele>153.447</ele>
        <time>2020-09-03T14:51:31Z</time>
      </trkpt>
      <trkpt lat="41.463587" lon="2.165281">
        <ele>151.383</ele>
        <time>2020-09-03T14:51:26Z</time>
      </trkpt>
      <trkpt lat="41.463625" lon="2.165256">
        <ele>150.459</ele>
        <time>2020-09-03T14:48:48Z</time>
      </trkpt>
      <trkpt lat="41.463694" lon="2.165227">
        <ele>148.715</ele>
        <time>2020-09-03T14:48:33Z</time>
      </trkpt>
      <trkpt lat="41.463881" lon="2.165146">
        <ele>144.329</ele>
        <time>2020-09-03T14:48:18Z</time>
      </trkpt>
      <trkpt lat="41.464131" lon="2.164975">
        <ele>140.000</ele>
        <time>2020-09-03T14:47:59Z</time>
      </trkpt>
      <trkpt lat="41.464318" lon="2.164768">
        <ele>138.020</ele>
        <time>2020-09-03T14:47:42Z</time>
      </trkpt>
      <trkpt lat="41.464467" lon="2.164555">
        <ele>136.708</ele>
        <time>2020-09-03T14:47:26Z</time>
      </trkpt>
      <trkpt lat="41.464701" lon="2.164238">
        <ele>136.157</ele>
        <time>2020-09-03T14:47:04Z</time>
      </trkpt>
      <trkpt lat="41.464927" lon="2.163957">
        <ele>136.619</ele>
        <time>2020-09-03T14:46:45Z</time>
      </trkpt>
      <trkpt lat="41.465120" lon="2.163739">
        <ele>136.354</ele>
        <time>2020-09-03T14:46:30Z</time>
      </trkpt>
      <trkpt lat="41.465362" lon="2.163492">
        <ele>136.721</ele>
        <time>2020-09-03T14:46:15Z</time>
      </trkpt>
      <trkpt lat="41.465556" lon="2.163337">
        <ele>136.354</ele>
        <time>2020-09-03T14:45:59Z</time>
      </trkpt>
      <trkpt lat="41.465685" lon="2.163254">
        <ele>136.240</ele>
        <time>2020-09-03T14:45:49Z</time>
      </trkpt>
      <trkpt lat="41.465880" lon="2.163126">
        <ele>136.576</ele>
        <time>2020-09-03T14:45:34Z</time>
      </trkpt>
      <trkpt lat="41.466040" lon="2.162931">
        <ele>137.272</ele>
        <time>2020-09-03T14:45:19Z</time>
      </trkpt>
      <trkpt lat="41.466079" lon="2.162888">
        <ele>137.296</ele>
        <time>2020-09-03T14:45:16Z</time>
      </trkpt>
      <trkpt lat="41.466142" lon="2.162848">
        <ele>137.131</ele>
        <time>2020-09-03T14:45:12Z</time>
      </trkpt>
      <trkpt lat="41.466267" lon="2.162794">
        <ele>137.124</ele>
        <time>2020-09-03T14:45:03Z</time>
      </trkpt>
      <trkpt lat="41.466437" lon="2.162759">
        <ele>136.808</ele>
        <time>2020-09-03T14:44:49Z</time>
      </trkpt>
      <trkpt lat="41.466666" lon="2.162777">
        <ele>135.774</ele>
        <time>2020-09-03T14:44:35Z</time>
      </trkpt>
      <trkpt lat="41.466871" lon="2.162727">
        <ele>135.766</ele>
        <time>2020-09-03T14:44:19Z</time>
      </trkpt>
      <trkpt lat="41.467061" lon="2.162611">
        <ele>136.841</ele>
        <time>2020-09-03T14:44:04Z</time>
      </trkpt>
      <trkpt lat="41.467320" lon="2.162557">
        <ele>136.648</ele>
        <time>2020-09-03T14:43:48Z</time>
      </trkpt>
      <trkpt lat="41.467532" lon="2.162639">
        <ele>133.711</ele>
        <time>2020-09-03T14:43:33Z</time>
      </trkpt>
      <trkpt lat="41.467724" lon="2.162739">
        <ele>130.657</ele>
        <time>2020-09-03T14:43:17Z</time>
      </trkpt>
      <trkpt lat="41.467953" lon="2.162902">
        <ele>126.483</ele>
        <time>2020-09-03T14:42:58Z</time>
      </trkpt>
      <trkpt lat="41.468138" lon="2.163072">
        <ele>123.069</ele>
        <time>2020-09-03T14:42:42Z</time>
      </trkpt>
      <trkpt lat="41.468303" lon="2.163245">
        <ele>119.441</ele>
        <time>2020-09-03T14:42:27Z</time>
      </trkpt>
      <trkpt lat="41.468329" lon="2.163276">
        <ele>118.681</ele>
        <time>2020-09-03T14:42:24Z</time>
      </trkpt>
      <trkpt lat="41.468360" lon="2.163350">
        <ele>117.209</ele>
        <time>2020-09-03T14:42:19Z</time>
      </trkpt>
      <trkpt lat="41.468390" lon="2.163561">
        <ele>114.508</ele>
        <time>2020-09-03T14:42:07Z</time>
      </trkpt>
      <trkpt lat="41.468486" lon="2.163802">
        <ele>111.149</ele>
        <time>2020-09-03T14:41:53Z</time>
      </trkpt>
      <trkpt lat="41.468612" lon="2.164118">
        <ele>107.771</ele>
        <time>2020-09-03T14:41:34Z</time>
      </trkpt>
      <trkpt lat="41.468751" lon="2.164438">
        <ele>104.976</ele>
        <time>2020-09-03T14:41:15Z</time>
      </trkpt>
      <trkpt lat="41.468773" lon="2.164540">
        <ele>104.213</ele>
        <time>2020-09-03T14:41:07Z</time>
      </trkpt>
      <trkpt lat="41.468853" lon="2.164764">
        <ele>102.876</ele>
        <time>2020-09-03T14:40:49Z</time>
      </trkpt>
      <trkpt lat="41.468947" lon="2.165068">
        <ele>100.642</ele>
        <time>2020-09-03T14:40:33Z</time>
      </trkpt>
      <trkpt lat="41.469103" lon="2.165402">
        <ele>98.828</ele>
        <time>2020-09-03T14:40:14Z</time>
      </trkpt>
      <trkpt lat="41.469159" lon="2.165485">
        <ele>98.694</ele>
        <time>2020-09-03T14:40:08Z</time>
      </trkpt>
      <trkpt lat="41.469189" lon="2.165555">
        <ele>98.054</ele>
        <time>2020-09-03T14:39:53Z</time>
      </trkpt>
      <trkpt lat="41.469232" lon="2.165583">
        <ele>97.256</ele>
        <time>2020-09-03T14:39:40Z</time>
      </trkpt>
      <trkpt lat="41.469282" lon="2.165642">
        <ele>96.111</ele>
        <time>2020-09-03T14:39:36Z</time>
      </trkpt>
      <trkpt lat="41.469324" lon="2.165721">
        <ele>95.108</ele>
        <time>2020-09-03T14:39:27Z</time>
      </trkpt>
      <trkpt lat="41.469412" lon="2.165773">
        <ele>93.780</ele>
        <time>2020-09-03T14:39:26Z</time>
      </trkpt>
      <trkpt lat="41.469514" lon="2.165822">
        <ele>92.262</ele>
        <time>2020-09-03T14:39:24Z</time>
      </trkpt>
      <trkpt lat="41.469464" lon="2.165780">
        <ele>93.177</ele>
        <time>2020-09-03T14:38:57Z</time>
      </trkpt>
      <trkpt lat="41.469406" lon="2.165733">
        <ele>94.144</ele>
        <time>2020-09-03T14:38:41Z</time>
      </trkpt>
      <trkpt lat="41.469347" lon="2.165688">
        <ele>95.067</ele>
        <time>2020-09-03T14:38:31Z</time>
      </trkpt>
      <trkpt lat="41.469295" lon="2.165614">
        <ele>96.223</ele>
        <time>2020-09-03T14:37:58Z</time>
      </trkpt>
      <trkpt lat="41.469191" lon="2.165508">
        <ele>98.499</ele>
        <time>2020-09-03T14:37:42Z</time>
      </trkpt>
      <trkpt lat="41.469119" lon="2.165352">
        <ele>99.425</ele>
        <time>2020-09-03T14:37:23Z</time>
      </trkpt>
      <trkpt lat="41.469020" lon="2.165256">
        <ele>99.434</ele>
        <time>2020-09-03T14:37:00Z</time>
      </trkpt>
      <trkpt lat="41.468908" lon="2.164919">
        <ele>101.955</ele>
        <time>2020-09-03T14:36:42Z</time>
      </trkpt>
      <trkpt lat="41.468833" lon="2.164627">
        <ele>103.610</ele>
        <time>2020-09-03T14:36:27Z</time>
      </trkpt>
      <trkpt lat="41.468738" lon="2.164645">
        <ele>103.508</ele>
        <time>2020-09-12T13:39:04Z</time>
      </trkpt>
      <trkpt lat="41.468576" lon="2.164605">
        <ele>103.578</ele>
        <time>2020-09-12T13:38:51Z</time>
      </trkpt>
      <trkpt lat="41.468496" lon="2.164601">
        <ele>103.460</ele>
        <time>2020-09-12T13:38:45Z</time>
      </trkpt>
      <trkpt lat="41.468466" lon="2.164602">
        <ele>103.315</ele>
        <time>2020-09-12T13:38:43Z</time>
      </trkpt>
      <trkpt lat="41.468441" lon="2.164598">
        <ele>103.352</ele>
        <time>2020-09-12T13:38:41Z</time>
      </trkpt>
      <trkpt lat="41.468414" lon="2.164592">
        <ele>103.395</ele>
        <time>2020-09-12T13:38:39Z</time>
      </trkpt>
      <trkpt lat="41.468393" lon="2.164583">
        <ele>103.311</ele>
        <time>2020-09-12T13:38:37Z</time>
      </trkpt>
      <trkpt lat="41.468370" lon="2.164575">
        <ele>103.497</ele>
        <time>2020-09-12T13:38:35Z</time>
      </trkpt>
      <trkpt lat="41.468347" lon="2.164572">
        <ele>103.463</ele>
        <time>2020-09-12T13:38:33Z</time>
      </trkpt>
      <trkpt lat="41.468323" lon="2.164565">
        <ele>103.447</ele>
        <time>2020-09-12T13:38:31Z</time>
      </trkpt>
      <trkpt lat="41.468295" lon="2.164557">
        <ele>103.529</ele>
        <time>2020-09-12T13:38:29Z</time>
      </trkpt>
      <trkpt lat="41.468269" lon="2.164544">
        <ele>103.621</ele>
        <time>2020-09-12T13:38:27Z</time>
      </trkpt>
      <trkpt lat="41.468243" lon="2.164533">
        <ele>103.608</ele>
        <time>2020-09-12T13:38:25Z</time>
      </trkpt>
      <trkpt lat="41.468214" lon="2.164514">
        <ele>103.549</ele>
        <time>2020-09-12T13:38:19Z</time>
      </trkpt>
      <trkpt lat="41.468046" lon="2.164133">
        <ele>106.831</ele>
        <time>2020-09-12T13:37:56Z</time>
      </trkpt>
      <trkpt lat="41.467833" lon="2.163820">
        <ele>110.296</ele>
        <time>2020-09-12T13:37:35Z</time>
      </trkpt>
      <trkpt lat="41.467544" lon="2.163691">
        <ele>112.673</ele>
        <time>2020-09-12T13:37:14Z</time>
      </trkpt>
      <trkpt lat="41.467340" lon="2.163731">
        <ele>111.946</ele>
        <time>2020-09-12T13:37:01Z</time>
      </trkpt>
      <trkpt lat="41.467326" lon="2.163750">
        <ele>111.592</ele>
        <time>2020-09-12T13:37:00Z</time>
      </trkpt>
      <trkpt lat="41.467299" lon="2.163781">
        <ele>111.038</ele>
        <time>2020-09-12T13:36:58Z</time>
      </trkpt>
      <trkpt lat="41.467281" lon="2.163820">
        <ele>110.274</ele>
        <time>2020-09-12T13:36:56Z</time>
      </trkpt>
      <trkpt lat="41.467271" lon="2.163861">
        <ele>109.445</ele>
        <time>2020-09-12T13:36:54Z</time>
      </trkpt>
      <trkpt lat="41.467264" lon="2.163894">
        <ele>108.747</ele>
        <time>2020-09-12T13:36:52Z</time>
      </trkpt>
      <trkpt lat="41.467263" lon="2.163929">
        <ele>107.911</ele>
        <time>2020-09-12T13:36:50Z</time>
      </trkpt>
      <trkpt lat="41.467262" lon="2.164008">
        <ele>106.208</ele>
        <time>2020-09-12T13:36:45Z</time>
      </trkpt>
      <trkpt lat="41.467266" lon="2.164045">
        <ele>105.449</ele>
        <time>2020-09-12T13:36:43Z</time>
      </trkpt>
      <trkpt lat="41.467272" lon="2.164146">
        <ele>103.471</ele>
        <time>2020-09-12T13:36:36Z</time>
      </trkpt>
      <trkpt lat="41.467214" lon="2.164424">
        <ele>98.246</ele>
        <time>2020-09-12T13:36:19Z</time>
      </trkpt>
      <trkpt lat="41.467056" lon="2.164676">
        <ele>94.283</ele>
        <time>2020-09-12T13:36:00Z</time>
      </trkpt>
      <trkpt lat="41.466772" lon="2.164860">
        <ele>92.466</ele>
        <time>2020-09-12T13:35:39Z</time>
      </trkpt>
      <trkpt lat="41.466534" lon="2.165017">
        <ele>92.722</ele>
        <time>2020-09-12T13:35:22Z</time>
      </trkpt>
      <trkpt lat="41.466480" lon="2.165094">
        <ele>93.078</ele>
        <time>2020-09-12T13:35:01Z</time>
      </trkpt>
      <trkpt lat="41.466410" lon="2.165154">
        <ele>93.264</ele>
        <time>2020-09-12T13:34:59Z</time>
      </trkpt>
      <trkpt lat="41.466333" lon="2.165220">
        <ele>93.311</ele>
        <time>2020-09-12T13:34:57Z</time>
      </trkpt>
      <trkpt lat="41.466272" lon="2.165267">
        <ele>93.721</ele>
        <time>2020-09-12T13:34:53Z</time>
      </trkpt>
      <trkpt lat="41.466225" lon="2.165327">
        <ele>93.703</ele>
        <time>2020-09-12T13:34:51Z</time>
      </trkpt>
      <trkpt lat="41.466193" lon="2.165367">
        <ele>93.708</ele>
        <time>2020-09-12T13:34:49Z</time>
      </trkpt>
      <trkpt lat="41.466164" lon="2.165407">
        <ele>93.766</ele>
        <time>2020-09-12T13:34:47Z</time>
      </trkpt>
      <trkpt lat="41.466130" lon="2.165430">
        <ele>93.718</ele>
        <time>2020-09-12T13:34:45Z</time>
      </trkpt>
      <trkpt lat="41.466083" lon="2.165475">
        <ele>93.643</ele>
        <time>2020-09-12T13:34:41Z</time>
      </trkpt>
      <trkpt lat="41.466042" lon="2.165515">
        <ele>94.090</ele>
        <time>2020-09-12T13:34:21Z</time>
      </trkpt>
      <trkpt lat="41.466008" lon="2.165554">
        <ele>94.623</ele>
        <time>2020-09-12T13:34:14Z</time>
      </trkpt>
      <trkpt lat="41.465972" lon="2.165594">
        <ele>94.939</ele>
        <time>2020-09-12T13:34:12Z</time>
      </trkpt>
      <trkpt lat="41.465932" lon="2.165641">
        <ele>95.955</ele>
        <time>2020-09-12T13:34:06Z</time>
      </trkpt>
      <trkpt lat="41.465889" lon="2.165683">
        <ele>96.691</ele>
        <time>2020-09-12T13:33:56Z</time>
      </trkpt>
      <trkpt lat="41.465850" lon="2.165753">
        <ele>97.586</ele>
        <time>2020-09-12T13:33:42Z</time>
      </trkpt>
      <trkpt lat="41.465790" lon="2.165837">
        <ele>98.360</ele>
        <time>2020-09-12T13:33:34Z</time>
      </trkpt>
      <trkpt lat="41.465872" lon="2.165919">
        <ele>96.326</ele>
        <time>2020-09-12T13:33:21Z</time>
      </trkpt>
      <trkpt lat="41.466023" lon="2.166296">
        <ele>93.508</ele>
        <time>2020-09-12T13:32:58Z</time>
      </trkpt>
      <trkpt lat="41.466108" lon="2.166764">
        <ele>90.263</ele>
        <time>2020-09-12T13:32:34Z</time>
      </trkpt>
      <trkpt lat="41.466111" lon="2.166805">
        <ele>89.815</ele>
        <time>2020-09-12T13:32:32Z</time>
      </trkpt>
      <trkpt lat="41.466110" lon="2.166843">
        <ele>89.530</ele>
        <time>2020-09-12T13:32:30Z</time>
      </trkpt>
      <trkpt lat="41.466120" lon="2.166878">
        <ele>89.057</ele>
        <time>2020-09-12T13:32:25Z</time>
      </trkpt>
      <trkpt lat="41.466132" lon="2.166902">
        <ele>88.540</ele>
        <time>2020-09-12T13:32:23Z</time>
      </trkpt>
      <trkpt lat="41.466225" lon="2.167118">
        <ele>84.986</ele>
        <time>2020-09-12T13:32:08Z</time>
      </trkpt>
      <trkpt lat="41.466203" lon="2.167373">
        <ele>83.012</ele>
        <time>2020-09-12T13:31:55Z</time>
      </trkpt>
      <trkpt lat="41.466206" lon="2.167413">
        <ele>82.658</ele>
        <time>2020-09-12T13:31:53Z</time>
      </trkpt>
      <trkpt lat="41.466225" lon="2.167583">
        <ele>80.786</ele>
        <time>2020-09-12T13:31:41Z</time>
      </trkpt>
      <trkpt lat="41.466233" lon="2.167613">
        <ele>80.360</ele>
        <time>2020-09-12T13:31:39Z</time>
      </trkpt>
      <trkpt lat="41.466239" lon="2.167639">
        <ele>79.926</ele>
        <time>2020-09-12T13:31:37Z</time>
      </trkpt>
      <trkpt lat="41.466231" lon="2.167677">
        <ele>79.708</ele>
        <time>2020-09-12T13:31:34Z</time>
      </trkpt>
      <trkpt lat="41.466220" lon="2.167703">
        <ele>79.563</ele>
        <time>2020-09-12T13:31:32Z</time>
      </trkpt>
      <trkpt lat="41.466214" lon="2.167729">
        <ele>79.325</ele>
        <time>2020-09-12T13:31:30Z</time>
      </trkpt>
      <trkpt lat="41.466179" lon="2.167774">
        <ele>79.390</ele>
        <time>2020-09-12T13:31:24Z</time>
      </trkpt>
      <trkpt lat="41.466036" lon="2.167729">
        <ele>81.877</ele>
        <time>2020-09-12T13:31:11Z</time>
      </trkpt>
      <trkpt lat="41.465829" lon="2.167593">
        <ele>85.330</ele>
        <time>2020-09-12T13:30:55Z</time>
      </trkpt>
      <trkpt lat="41.465803" lon="2.167575">
        <ele>85.676</ele>
        <time>2020-09-12T13:30:53Z</time>
      </trkpt>
      <trkpt lat="41.465775" lon="2.167561">
        <ele>85.932</ele>
        <time>2020-09-12T13:30:51Z</time>
      </trkpt>
      <trkpt lat="41.465635" lon="2.167443">
        <ele>87.938</ele>
        <time>2020-09-12T13:30:40Z</time>
      </trkpt>
      <trkpt lat="41.465435" lon="2.167289">
        <ele>90.391</ele>
        <time>2020-09-12T13:30:25Z</time>
      </trkpt>
      <trkpt lat="41.465343" lon="2.167207">
        <ele>91.381</ele>
        <time>2020-09-12T13:30:05Z</time>
      </trkpt>
      <trkpt lat="41.465238" lon="2.167162">
        <ele>91.919</ele>
        <time>2020-09-12T13:29:49Z</time>
      </trkpt>
      <trkpt lat="41.465100" lon="2.167095">
        <ele>92.808</ele>
        <time>2020-09-12T13:29:35Z</time>
      </trkpt>
      <trkpt lat="41.465052" lon="2.167098">
        <ele>92.884</ele>
        <time>2020-09-12T13:29:33Z</time>
      </trkpt>
      <trkpt lat="41.465011" lon="2.167109">
        <ele>92.716</ele>
        <time>2020-09-12T13:29:29Z</time>
      </trkpt>
      <trkpt lat="41.464963" lon="2.167137">
        <ele>93.531</ele>
        <time>2020-09-12T13:29:22Z</time>
      </trkpt>
      <trkpt lat="41.464925" lon="2.167172">
        <ele>93.958</ele>
        <time>2020-09-12T13:29:21Z</time>
      </trkpt>
      <trkpt lat="41.464871" lon="2.167249">
        <ele>94.591</ele>
        <time>2020-09-12T13:29:18Z</time>
      </trkpt>
      <trkpt lat="41.464850" lon="2.167301">
        <ele>94.647</ele>
        <time>2020-09-12T13:29:17Z</time>
      </trkpt>
      <trkpt lat="41.464869" lon="2.167382">
        <ele>93.343</ele>
        <time>2020-09-12T13:29:16Z</time>
      </trkpt>
      <trkpt lat="41.464877" lon="2.167480">
        <ele>92.269</ele>
        <time>2020-09-12T13:29:14Z</time>
      </trkpt>
      <trkpt lat="41.464882" lon="2.167620">
        <ele>90.869</ele>
        <time>2020-09-12T13:29:02Z</time>
      </trkpt>
      <trkpt lat="41.464885" lon="2.167742">
        <ele>89.904</ele>
        <time>2020-09-12T13:28:59Z</time>
      </trkpt>
      <trkpt lat="41.464906" lon="2.167844">
        <ele>88.724</ele>
        <time>2020-09-12T13:28:57Z</time>
      </trkpt>
      <trkpt lat="41.464909" lon="2.168050">
        <ele>87.608</ele>
        <time>2020-09-12T13:28:47Z</time>
      </trkpt>
      <trkpt lat="41.464917" lon="2.168239">
        <ele>87.091</ele>
        <time>2020-09-12T13:28:26Z</time>
      </trkpt>
      <trkpt lat="41.464938" lon="2.168463">
        <ele>86.453</ele>
        <time>2020-09-12T13:28:06Z</time>
      </trkpt>
      <trkpt lat="41.464945" lon="2.168641">
        <ele>86.448</ele>
        <time>2020-09-12T13:27:51Z</time>
      </trkpt>
      <trkpt lat="41.464941" lon="2.168720">
        <ele>86.835</ele>
        <time>2020-09-12T13:26:49Z</time>
      </trkpt>
      <trkpt lat="41.464911" lon="2.169042">
        <ele>88.668</ele>
        <time>2020-09-12T13:26:32Z</time>
      </trkpt>
      <trkpt lat="41.464900" lon="2.169392">
        <ele>87.854</ele>
        <time>2020-09-12T13:26:13Z</time>
      </trkpt>
      <trkpt lat="41.464941" lon="2.169669">
        <ele>85.360</ele>
        <time>2020-09-12T13:25:58Z</time>
      </trkpt>
      <trkpt lat="41.464947" lon="2.169943">
        <ele>83.796</ele>
        <time>2020-09-12T13:25:44Z</time>
      </trkpt>
      <trkpt lat="41.464846" lon="2.170281">
        <ele>80.351</ele>
        <time>2020-09-12T13:25:26Z</time>
      </trkpt>
      <trkpt lat="41.464813" lon="2.170322">
        <ele>80.301</ele>
        <time>2020-09-12T13:25:23Z</time>
      </trkpt>
      <trkpt lat="41.464796" lon="2.170368">
        <ele>79.811</ele>
        <time>2020-09-12T13:25:18Z</time>
      </trkpt>
      <trkpt lat="41.464599" lon="2.170495">
        <ele>82.208</ele>
        <time>2020-09-12T13:24:59Z</time>
      </trkpt>
      <trkpt lat="41.464367" lon="2.170488">
        <ele>87.530</ele>
        <time>2020-09-12T13:24:42Z</time>
      </trkpt>
      <trkpt lat="41.464341" lon="2.170475">
        <ele>88.332</ele>
        <time>2020-09-12T13:24:40Z</time>
      </trkpt>
      <trkpt lat="41.464303" lon="2.170484">
        <ele>88.997</ele>
        <time>2020-09-12T13:24:38Z</time>
      </trkpt>
      <trkpt lat="41.464276" lon="2.170482">
        <ele>89.674</ele>
        <time>2020-09-12T13:24:29Z</time>
      </trkpt>
      <trkpt lat="41.464173" lon="2.170502">
        <ele>91.377</ele>
        <time>2020-09-12T13:24:17Z</time>
      </trkpt>
      <trkpt lat="41.463913" lon="2.170752">
        <ele>87.483</ele>
        <time>2020-09-12T13:23:59Z</time>
      </trkpt>
      <trkpt lat="41.463674" lon="2.170948">
        <ele>84.339</ele>
        <time>2020-09-12T13:23:36Z</time>
      </trkpt>
      <trkpt lat="41.463540" lon="2.171053">
        <ele>83.045</ele>
        <time>2020-09-12T13:23:21Z</time>
      </trkpt>
      <trkpt lat="41.463434" lon="2.171156">
        <ele>81.932</ele>
        <time>2020-09-12T13:23:09Z</time>
      </trkpt>
      <trkpt lat="41.463349" lon="2.171195">
        <ele>82.292</ele>
        <time>2020-09-12T13:22:55Z</time>
      </trkpt>
      <trkpt lat="41.463173" lon="2.171359">
        <ele>81.511</ele>
        <time>2020-09-12T13:22:39Z</time>
      </trkpt>
      <trkpt lat="41.463096" lon="2.171503">
        <ele>81.108</ele>
        <time>2020-09-12T13:22:26Z</time>
      </trkpt>
      <trkpt lat="41.463039" lon="2.171646">
        <ele>80.418</ele>
        <time>2020-09-12T13:22:25Z</time>
      </trkpt>
      <trkpt lat="41.462999" lon="2.171735">
        <ele>79.150</ele>
        <time>2020-09-12T13:22:23Z</time>
      </trkpt>
      <trkpt lat="41.462967" lon="2.171861">
        <ele>78.685</ele>
        <time>2020-09-12T13:22:21Z</time>
      </trkpt>
      <trkpt lat="41.462951" lon="2.171925">
        <ele>78.112</ele>
        <time>2020-09-12T13:22:20Z</time>
      </trkpt>
      <trkpt lat="41.462924" lon="2.172016">
        <ele>77.995</ele>
        <time>2020-09-12T13:22:19Z</time>
      </trkpt>
      <trkpt lat="41.462890" lon="2.172119">
        <ele>77.591</ele>
        <time>2020-09-12T13:22:10Z</time>
      </trkpt>
      <trkpt lat="41.462870" lon="2.172194">
        <ele>77.137</ele>
        <time>2020-09-12T13:21:59Z</time>
      </trkpt>
      <trkpt lat="41.462843" lon="2.172304">
        <ele>76.323</ele>
        <time>2020-09-12T13:21:57Z</time>
      </trkpt>
      <trkpt lat="41.462823" lon="2.172336">
        <ele>75.432</ele>
        <time>2020-09-12T13:21:55Z</time>
      </trkpt>
      <trkpt lat="41.462807" lon="2.172385">
        <ele>75.292</ele>
        <time>2020-09-12T13:21:52Z</time>
      </trkpt>
      <trkpt lat="41.462784" lon="2.172439">
        <ele>74.911</ele>
        <time>2020-09-12T13:21:45Z</time>
      </trkpt>
      <trkpt lat="41.462764" lon="2.172514">
        <ele>74.408</ele>
        <time>2020-09-12T13:21:41Z</time>
      </trkpt>
      <trkpt lat="41.462750" lon="2.172596">
        <ele>73.998</ele>
        <time>2020-09-12T13:21:37Z</time>
      </trkpt>
      <trkpt lat="41.462719" lon="2.172715">
        <ele>73.140</ele>
        <time>2020-09-12T13:21:34Z</time>
      </trkpt>
    </trkseg>
  </trk></gpx>